{
"type": "FeatureCollection",
"name": "ilhas_apabf_poligono",
"crs": { "type": "name", "properties": { "name": "urn:ogc:def:crs:EPSG::4674" } },
"features": [
{ "type": "Feature", "properties": { "CODIGO": "IPL-005", "NM_ILHA": "Laje Moleques do Sul", "NM_MUN": "Florianópolis", "AREA_KM2": 0.411, "AREA_M2": 4107.541, "LOCALIDADE": "ZEE", "PERT_UC": "NÃO", "LATITUDE": -27.853196, "LONGITUDE": -48.444362 }, "geometry": { "type": "MultiPolygon", "coordinates": [ [ [ [ -48.4444581, -27.8529934 ], [ -48.4442698, -27.8527956 ], [ -48.4442521, -27.8527748 ], [ -48.4440932, -27.8526811 ], [ -48.4440756, -27.8526811 ], [ -48.443952, -27.8527279 ], [ -48.4439637, -27.8528996 ], [ -48.4439637, -27.8529256 ], [ -48.4440461, -27.853061 ], [ -48.4440578, -27.8530818 ], [ -48.4442285, -27.8532743 ], [ -48.4442579, -27.8533056 ], [ -48.4442696, -27.8533212 ], [ -48.444352, -27.8534044 ], [ -48.4443697, -27.8534305 ], [ -48.4443814, -27.8534565 ], [ -48.4444226, -27.8535918 ], [ -48.4444285, -27.8536178 ], [ -48.4444638, -27.8536751 ], [ -48.4444814, -27.8536959 ], [ -48.4445756, -27.8537687 ], [ -48.4446521, -27.8537531 ], [ -48.4446933, -27.8536595 ], [ -48.4447051, -27.8536491 ], [ -48.4447522, -27.853545 ], [ -48.4445993, -27.853212 ], [ -48.4445346, -27.8530506 ], [ -48.4444581, -27.8529934 ] ] ] ] } },
{ "type": "Feature", "properties": { "CODIGO": "IPL-002", "NM_ILHA": "Ilha Irmã de Fora", "NM_MUN": "Florianópolis", "AREA_KM2": 40.214, "AREA_M2": 402136.382, "LOCALIDADE": "Praia do Saquinho", "PERT_UC": "NÃO", "LATITUDE": -27.83766, "LONGITUDE": -48.504465 }, "geometry": { "type": "MultiPolygon", "coordinates": [ [ [ [ -48.5013848, -27.8349838 ], [ -48.5010997, -27.8355671 ], [ -48.5012802, -27.8366013 ], [ -48.5012972, -27.8366476 ], [ -48.5013073, -27.8373259 ], [ -48.5013068, -27.8373721 ], [ -48.5013323, -27.8382354 ], [ -48.5013322, -27.8382508 ], [ -48.501258, -27.8386664 ], [ -48.5014251, -27.8393305 ], [ -48.5016434, -27.840103 ], [ -48.5020396, -27.8405379 ], [ -48.5021438, -27.8405696 ], [ -48.502543, -27.840727 ], [ -48.5025777, -27.8407427 ], [ -48.5030303, -27.8407928 ], [ -48.5031176, -27.8407781 ], [ -48.5031699, -27.8407785 ], [ -48.5034317, -27.8407499 ], [ -48.5035017, -27.8407196 ], [ -48.5035366, -27.8407199 ], [ -48.5036242, -27.8406744 ], [ -48.5039035, -27.8406304 ], [ -48.5041612, -27.8409872 ], [ -48.5042128, -27.8410494 ], [ -48.5043672, -27.8412819 ], [ -48.5046283, -27.841315 ], [ -48.5049263, -27.8411633 ], [ -48.5052275, -27.8407034 ], [ -48.5053692, -27.8404888 ], [ -48.505387, -27.8404581 ], [ -48.5056876, -27.8400599 ], [ -48.5056879, -27.8400291 ], [ -48.5058984, -27.8399076 ], [ -48.5059158, -27.8399077 ], [ -48.5061768, -27.8399562 ], [ -48.5061942, -27.8399564 ], [ -48.5068193, -27.8401929 ], [ -48.507135, -27.8400106 ], [ -48.5071373, -27.8397793 ], [ -48.5071375, -27.8397639 ], [ -48.5072461, -27.8393795 ], [ -48.5072642, -27.8393179 ], [ -48.5074408, -27.8391036 ], [ -48.507807, -27.8390913 ], [ -48.5080521, -27.8390009 ], [ -48.5080697, -27.8389857 ], [ -48.5082826, -27.838633 ], [ -48.5083002, -27.8386177 ], [ -48.508601, -27.8382041 ], [ -48.5085343, -27.8379107 ], [ -48.508245, -27.8372455 ], [ -48.5080282, -27.8363497 ], [ -48.5079258, -27.8361485 ], [ -48.5077364, -27.8359311 ], [ -48.5074071, -27.8357588 ], [ -48.5073552, -27.8357276 ], [ -48.5068671, -27.8357235 ], [ -48.5067973, -27.8357229 ], [ -48.5064487, -27.83572 ], [ -48.5063101, -27.8356418 ], [ -48.5062926, -27.8356417 ], [ -48.5062253, -27.8354253 ], [ -48.5060385, -27.8349768 ], [ -48.5060216, -27.8349304 ], [ -48.5057466, -27.8345735 ], [ -48.5052595, -27.8344924 ], [ -48.5048559, -27.8347356 ], [ -48.5048207, -27.8347662 ], [ -48.5045398, -27.8349488 ], [ -48.504505, -27.8349485 ], [ -48.5041221, -27.834899 ], [ -48.5041048, -27.8348835 ], [ -48.5039488, -27.8348051 ], [ -48.5038969, -27.8347738 ], [ -48.5037771, -27.8345724 ], [ -48.5037427, -27.8345259 ], [ -48.503309, -27.8343373 ], [ -48.5028537, -27.8345338 ], [ -48.5025206, -27.834716 ], [ -48.5023107, -27.8346108 ], [ -48.5019513, -27.8346347 ], [ -48.5017181, -27.8346327 ], [ -48.5015804, -27.8345817 ], [ -48.5015215, -27.8347324 ], [ -48.5015186, -27.8348945 ], [ -48.5013848, -27.8349838 ] ] ] ] } },
{ "type": "Feature", "properties": { "CODIGO": "IPL-017", "NM_ILHA": "Ilha Tacami", "NM_MUN": "Imbituba", "AREA_KM2": 0.705, "AREA_M2": 7049.017, "LOCALIDADE": "ZEE", "PERT_UC": "SIM", "LATITUDE": -28.351884, "LONGITUDE": -48.60112 }, "geometry": { "type": "MultiPolygon", "coordinates": [ [ [ [ -48.6012472, -28.3520422 ], [ -48.6013846, -28.3519857 ], [ -48.6014332, -28.3518814 ], [ -48.6014332, -28.3518762 ], [ -48.6013922, -28.3518183 ], [ -48.6013212, -28.3517811 ], [ -48.6013093, -28.3517758 ], [ -48.6011733, -28.3516962 ], [ -48.6010615, -28.351575 ], [ -48.6009373, -28.351506 ], [ -48.6007181, -28.3514258 ], [ -48.6006402, -28.351488 ], [ -48.6006038, -28.351561 ], [ -48.6005614, -28.3516392 ], [ -48.6005252, -28.3516913 ], [ -48.6005132, -28.3517016 ], [ -48.6004352, -28.3517638 ], [ -48.6004292, -28.351769 ], [ -48.600417, -28.3518003 ], [ -48.6004222, -28.3518789 ], [ -48.6004279, -28.3518999 ], [ -48.600611, -28.3520269 ], [ -48.600617, -28.3520269 ], [ -48.6008176, -28.3521855 ], [ -48.6008294, -28.352196 ], [ -48.600841, -28.3522223 ], [ -48.6009592, -28.3522965 ], [ -48.6010727, -28.3522502 ], [ -48.6010906, -28.3522451 ], [ -48.6011924, -28.3521726 ], [ -48.6012106, -28.3521414 ], [ -48.6012472, -28.3520422 ] ] ], [ [ [ -48.6020828, -28.3523365 ], [ -48.6020596, -28.352284 ], [ -48.6020306, -28.3522052 ], [ -48.6020021, -28.3520847 ], [ -48.6019906, -28.3520427 ], [ -48.601937, -28.3520475 ], [ -48.6019068, -28.3520944 ], [ -48.6019068, -28.3520996 ], [ -48.6018879, -28.3521989 ], [ -48.6018878, -28.3522094 ], [ -48.6018989, -28.3522984 ], [ -48.6019521, -28.3523303 ], [ -48.6019991, -28.3523882 ], [ -48.6020638, -28.352462 ], [ -48.6020696, -28.3524725 ], [ -48.6020985, -28.3525564 ], [ -48.6021457, -28.3525934 ], [ -48.602176, -28.3525361 ], [ -48.6021471, -28.3524521 ], [ -48.6021354, -28.3524363 ], [ -48.6020887, -28.352347 ], [ -48.6020828, -28.3523365 ] ] ], [ [ [ -48.6018514, -28.3516805 ], [ -48.6017753, -28.3515595 ], [ -48.6016985, -28.3515066 ], [ -48.601621, -28.3515322 ], [ -48.6016027, -28.3515739 ], [ -48.6016252, -28.3517049 ], [ -48.6016311, -28.3517155 ], [ -48.6016418, -28.3518359 ], [ -48.6016644, -28.3519565 ], [ -48.6017536, -28.3519519 ], [ -48.6018491, -28.351916 ], [ -48.6018736, -28.3518482 ], [ -48.6018684, -28.3517748 ], [ -48.6018514, -28.3516805 ] ] ] ] } },
{ "type": "Feature", "properties": { "CODIGO": "IPL-018", "NM_ILHA": "Ilha dos Lobos", "NM_MUN": "Laguna", "AREA_KM2": 8.1, "AREA_M2": 81004.55, "LOCALIDADE": "ZEE", "PERT_UC": "SIM", "LATITUDE": -28.447121, "LONGITUDE": -48.708781 }, "geometry": { "type": "MultiPolygon", "coordinates": [ [ [ [ -48.706958, -28.4468555 ], [ -48.7072578, -28.4471233 ], [ -48.7074987, -28.4472313 ], [ -48.707511, -28.4475369 ], [ -48.7075106, -28.4475901 ], [ -48.7076281, -28.4479629 ], [ -48.707673, -28.4480164 ], [ -48.7082132, -28.4484453 ], [ -48.7085441, -28.4486203 ], [ -48.7085893, -28.4486339 ], [ -48.7087554, -28.4486483 ], [ -48.7090288, -28.4484908 ], [ -48.7093171, -28.4483599 ], [ -48.7096663, -28.4481763 ], [ -48.7099072, -28.4482709 ], [ -48.7101788, -28.4483259 ], [ -48.7103311, -28.4481941 ], [ -48.7104847, -28.4479162 ], [ -48.7105929, -28.4476379 ], [ -48.7105947, -28.4474386 ], [ -48.7105225, -28.447066 ], [ -48.7104201, -28.44668 ], [ -48.7102556, -28.4464929 ], [ -48.7097588, -28.4462769 ], [ -48.7096396, -28.44609 ], [ -48.7092926, -28.4460212 ], [ -48.7090652, -28.4460994 ], [ -48.708808, -28.4461375 ], [ -48.7087493, -28.4459378 ], [ -48.708584, -28.4458303 ], [ -48.7083438, -28.4456559 ], [ -48.7079959, -28.4456934 ], [ -48.7078145, -28.4457054 ], [ -48.7077844, -28.4456919 ], [ -48.7075271, -28.44573 ], [ -48.7073904, -28.4458088 ], [ -48.7073752, -28.445822 ], [ -48.7071915, -28.4460864 ], [ -48.7071457, -28.4461393 ], [ -48.7071, -28.4461788 ], [ -48.7069454, -28.4465764 ], [ -48.706958, -28.4468555 ] ] ] ] } },
{ "type": "Feature", "properties": { "CODIGO": "IPL-015", "NM_ILHA": "Ilha Santana de Fora", "NM_MUN": "Imbituba", "AREA_KM2": 4.511, "AREA_M2": 45106.998, "LOCALIDADE": "Praia da Vila", "PERT_UC": "SIM", "LATITUDE": -28.248082, "LONGITUDE": -48.654097 }, "geometry": { "type": "MultiPolygon", "coordinates": [ [ [ [ -48.6550005, -28.249053 ], [ -48.6551086, -28.2488403 ], [ -48.6553376, -28.2486551 ], [ -48.6553393, -28.2484683 ], [ -48.655145, -28.2481867 ], [ -48.6548815, -28.2479479 ], [ -48.654788, -28.2475122 ], [ -48.6548652, -28.2473305 ], [ -48.6549126, -28.2471307 ], [ -48.6548683, -28.2470102 ], [ -48.6546419, -28.2469152 ], [ -48.654219, -28.2467786 ], [ -48.653854, -28.2469228 ], [ -48.6533968, -28.247213 ], [ -48.6533662, -28.2472395 ], [ -48.6530447, -28.2475975 ], [ -48.6528431, -28.2480898 ], [ -48.6529597, -28.2485844 ], [ -48.6529747, -28.2485979 ], [ -48.6532005, -28.2487463 ], [ -48.653545, -28.2488788 ], [ -48.6537521, -28.2491144 ], [ -48.6540753, -28.249113 ], [ -48.6544126, -28.2491875 ], [ -48.6547152, -28.2492732 ], [ -48.6549298, -28.249251 ], [ -48.6550005, -28.249053 ] ] ] ] } },
{ "type": "Feature", "properties": { "CODIGO": "IPL-001", "NM_ILHA": "Ilha Irmã Pequena", "NM_MUN": "Florianópolis", "AREA_KM2": 9.927, "AREA_M2": 99272.569, "LOCALIDADE": "Praia do Saquinho", "PERT_UC": "NÃO", "LATITUDE": -27.831367, "LONGITUDE": -48.528573 }, "geometry": { "type": "MultiPolygon", "coordinates": [ [ [ [ -48.5293295, -27.8327055 ], [ -48.5294453, -27.8325606 ], [ -48.5295457, -27.8326624 ], [ -48.5296713, -27.8327869 ], [ -48.5299627, -27.8328229 ], [ -48.5300917, -27.832622 ], [ -48.5302346, -27.832309 ], [ -48.5302759, -27.8319952 ], [ -48.5302019, -27.8317926 ], [ -48.5302024, -27.8317478 ], [ -48.5301035, -27.8315001 ], [ -48.5301037, -27.8314777 ], [ -48.5299293, -27.8311733 ], [ -48.5297444, -27.8306557 ], [ -48.5295826, -27.8303626 ], [ -48.5293579, -27.830013 ], [ -48.5292838, -27.8298216 ], [ -48.5290564, -27.82973 ], [ -48.5287653, -27.8296603 ], [ -48.52874, -27.8296489 ], [ -48.5284369, -27.8295229 ], [ -48.5281853, -27.8293189 ], [ -48.527908, -27.8291483 ], [ -48.5277429, -27.8291581 ], [ -48.5275899, -27.8292354 ], [ -48.5273486, -27.8292559 ], [ -48.5270819, -27.8292761 ], [ -48.5269259, -27.8296339 ], [ -48.526913, -27.8296562 ], [ -48.5268485, -27.8297566 ], [ -48.5268226, -27.8298013 ], [ -48.5267063, -27.8300023 ], [ -48.5267804, -27.8301937 ], [ -48.5269828, -27.8302514 ], [ -48.5274377, -27.8304347 ], [ -48.5274629, -27.8304462 ], [ -48.5277909, -27.8306284 ], [ -48.5279298, -27.8306857 ], [ -48.5279014, -27.8309771 ], [ -48.5279012, -27.8309996 ], [ -48.5277583, -27.8313125 ], [ -48.5275738, -27.8319617 ], [ -48.5275735, -27.8319954 ], [ -48.5275197, -27.8322867 ], [ -48.5275194, -27.8323091 ], [ -48.5275647, -27.8328256 ], [ -48.5276739, -27.8332977 ], [ -48.5279892, -27.8334799 ], [ -48.5284316, -27.8336406 ], [ -48.5284568, -27.833652 ], [ -48.5287994, -27.8336548 ], [ -48.5289272, -27.8335661 ], [ -48.5289422, -27.8333418 ], [ -48.5291234, -27.8330067 ], [ -48.5293295, -27.8327055 ] ] ] ] } },
{ "type": "Feature", "properties": { "CODIGO": "IPL-014", "NM_ILHA": "Ilha Santana de Dentro", "NM_MUN": "Imbituba", "AREA_KM2": 4.368, "AREA_M2": 43677.171, "LOCALIDADE": "Praia da Vila", "PERT_UC": "SIM", "LATITUDE": -28.241343, "LONGITUDE": -48.651319 }, "geometry": { "type": "MultiPolygon", "coordinates": [ [ [ [ -48.6518139, -28.2420014 ], [ -48.6522819, -28.2418841 ], [ -48.6525296, -28.2416062 ], [ -48.6526288, -28.2413174 ], [ -48.6527299, -28.2410993 ], [ -48.6525492, -28.2408216 ], [ -48.6523964, -28.240629 ], [ -48.652188, -28.2404492 ], [ -48.651829, -28.2402945 ], [ -48.6514442, -28.2402843 ], [ -48.6506512, -28.2406832 ], [ -48.6500861, -28.2410622 ], [ -48.6499498, -28.2412667 ], [ -48.6500598, -28.2417037 ], [ -48.6501558, -28.2418008 ], [ -48.6504351, -28.2420313 ], [ -48.6503353, -28.2421768 ], [ -48.6503361, -28.2423226 ], [ -48.6506238, -28.2424677 ], [ -48.6509916, -28.2424624 ], [ -48.6511889, -28.2424238 ], [ -48.6514179, -28.2422253 ], [ -48.651556, -28.2420395 ], [ -48.6518139, -28.2420014 ] ] ] ] } },
{ "type": "Feature", "properties": { "CODIGO": "IPL-016", "NM_ILHA": "Ilha das Araras", "NM_MUN": "Imbituba", "AREA_KM2": 10.896, "AREA_M2": 108957.941, "LOCALIDADE": "ZEE", "PERT_UC": "SIM", "LATITUDE": -28.321593, "LONGITUDE": -48.648337 }, "geometry": { "type": "MultiPolygon", "coordinates": [ [ [ [ -48.6500007, -28.3246251 ], [ -48.6500713, -28.3241596 ], [ -48.6500316, -28.3236934 ], [ -48.6498193, -28.3228181 ], [ -48.6496283, -28.3220207 ], [ -48.6487154, -28.3205966 ], [ -48.648149, -28.3198546 ], [ -48.6475408, -28.3188599 ], [ -48.6472832, -28.3181202 ], [ -48.6472393, -28.3181005 ], [ -48.646646, -28.3178631 ], [ -48.6464444, -28.3181917 ], [ -48.6464404, -28.3186189 ], [ -48.64644, -28.3186577 ], [ -48.6463913, -28.3191427 ], [ -48.6465423, -28.3194934 ], [ -48.64685, -28.3196121 ], [ -48.6471786, -28.3198475 ], [ -48.6471327, -28.3200414 ], [ -48.6468981, -28.3200879 ], [ -48.6468045, -28.3203278 ], [ -48.6466791, -28.3206485 ], [ -48.6471457, -28.3209928 ], [ -48.6474258, -28.3216939 ], [ -48.6484289, -28.322905 ], [ -48.6484724, -28.3229635 ], [ -48.6487316, -28.3235479 ], [ -48.6490781, -28.32423 ], [ -48.6491437, -28.3242888 ], [ -48.6492516, -28.324542 ], [ -48.6492512, -28.3245808 ], [ -48.6491602, -28.3248714 ], [ -48.6491595, -28.324949 ], [ -48.6492009, -28.3252406 ], [ -48.6493305, -28.3255328 ], [ -48.6493521, -28.3255718 ], [ -48.6496157, -28.3256902 ], [ -48.649882, -28.3255174 ], [ -48.6499043, -28.3254981 ], [ -48.6499065, -28.3252652 ], [ -48.649778, -28.3248565 ], [ -48.6500007, -28.3246251 ] ] ] ] } },
{ "type": "Feature", "properties": { "CODIGO": "IPL-012", "NM_ILHA": "Ilha do Batuta", "NM_MUN": "Imbituba", "AREA_KM2": 8.644, "AREA_M2": 86436.335, "LOCALIDADE": "Praia do Luz", "PERT_UC": "SIM", "LATITUDE": -28.152756, "LONGITUDE": -48.642029 }, "geometry": { "type": "MultiPolygon", "coordinates": [ [ [ [ -48.6438323, -28.1520538 ], [ -48.6434379, -28.1518471 ], [ -48.6430426, -28.1517277 ], [ -48.6425981, -28.1515788 ], [ -48.6423183, -28.1514748 ], [ -48.6418573, -28.1513258 ], [ -48.6411807, -28.1512771 ], [ -48.640883, -28.1513186 ], [ -48.6408664, -28.151333 ], [ -48.6406822, -28.1515937 ], [ -48.6405136, -28.1519565 ], [ -48.6403448, -28.1523484 ], [ -48.6403274, -28.1524357 ], [ -48.6403413, -28.1527124 ], [ -48.6403739, -28.1527564 ], [ -48.6405854, -28.1530928 ], [ -48.6406344, -28.1531514 ], [ -48.6408295, -28.1534732 ], [ -48.6408459, -28.1534879 ], [ -48.6409923, -28.1537219 ], [ -48.6410085, -28.1537512 ], [ -48.6410721, -28.1540138 ], [ -48.6412344, -28.1543062 ], [ -48.6414469, -28.1545408 ], [ -48.6419108, -28.154384 ], [ -48.6425901, -28.154156 ], [ -48.643006, -28.1538388 ], [ -48.643457, -28.1533034 ], [ -48.6438251, -28.152811 ], [ -48.6439604, -28.1524771 ], [ -48.6438323, -28.1520538 ] ] ] ] } },
{ "type": "Feature", "properties": { "CODIGO": "IPL-013", "NM_ILHA": "Sem nome1", "NM_MUN": "Imbituba", "AREA_KM2": 0.335, "AREA_M2": 3354.828, "LOCALIDADE": "Praia da Ribanceira", "PERT_UC": "SIM", "LATITUDE": -28.189099, "LONGITUDE": -48.656391 }, "geometry": { "type": "MultiPolygon", "coordinates": [ [ [ [ -48.6559341, -28.1888701 ], [ -48.6560777, -28.1889605 ], [ -48.6563035, -28.1891052 ], [ -48.656324, -28.1893042 ], [ -48.6564266, -28.1895032 ], [ -48.6566113, -28.1895032 ], [ -48.656755, -28.1894308 ], [ -48.6567139, -28.1891776 ], [ -48.6565292, -28.1889243 ], [ -48.656283, -28.1887977 ], [ -48.6561393, -28.1886892 ], [ -48.6559546, -28.1887254 ], [ -48.6559341, -28.1888701 ] ] ] ] } },
{ "type": "Feature", "properties": { "CODIGO": "IPL-009", "NM_ILHA": "Ilhota do Siriú", "NM_MUN": "Garopaba", "AREA_KM2": 2.392, "AREA_M2": 23918.904, "LOCALIDADE": "Praia do Siriú", "PERT_UC": "NÃO", "LATITUDE": -27.987293, "LONGITUDE": -48.617401 }, "geometry": { "type": "MultiPolygon", "coordinates": [ [ [ [ -48.6184595, -27.9876836 ], [ -48.6182908, -27.987595 ], [ -48.6181503, -27.9875191 ], [ -48.6179542, -27.9873555 ], [ -48.6178589, -27.9869931 ], [ -48.6173705, -27.9863782 ], [ -48.6171471, -27.9861146 ], [ -48.6169065, -27.9861627 ], [ -48.6167917, -27.9863489 ], [ -48.616763, -27.9863986 ], [ -48.6166627, -27.9865475 ], [ -48.6166341, -27.9865847 ], [ -48.6165187, -27.9868332 ], [ -48.6165181, -27.9868956 ], [ -48.6166015, -27.9870334 ], [ -48.6166575, -27.9870837 ], [ -48.6168115, -27.9872221 ], [ -48.6168815, -27.987285 ], [ -48.6169362, -27.9874725 ], [ -48.6169357, -27.9875224 ], [ -48.6169476, -27.9877469 ], [ -48.6170727, -27.9879599 ], [ -48.6171842, -27.9881104 ], [ -48.6172119, -27.9881605 ], [ -48.6172398, -27.9881981 ], [ -48.6174791, -27.9882873 ], [ -48.6175497, -27.9882878 ], [ -48.6176062, -27.9882882 ], [ -48.6179035, -27.9882156 ], [ -48.6179462, -27.9881785 ], [ -48.6182165, -27.987981 ], [ -48.6184581, -27.9878207 ], [ -48.6184595, -27.9876836 ] ] ] ] } },
{ "type": "Feature", "properties": { "CODIGO": "IPL-008", "NM_ILHA": "Ilha de Coral", "NM_MUN": "Paulo Lopes", "AREA_KM2": 34.824, "AREA_M2": 348241.014, "LOCALIDADE": "ZEE", "PERT_UC": "NÃO", "LATITUDE": -27.936539, "LONGITUDE": -48.542785 }, "geometry": { "type": "MultiPolygon", "coordinates": [ [ [ [ -48.5404506, -27.9370066 ], [ -48.5404149, -27.9369904 ], [ -48.5400592, -27.9367024 ], [ -48.5399877, -27.936686 ], [ -48.5396473, -27.9366515 ], [ -48.5397339, -27.9369532 ], [ -48.5397335, -27.9369849 ], [ -48.5400156, -27.9374466 ], [ -48.5403681, -27.9380356 ], [ -48.5404646, -27.9390977 ], [ -48.5404725, -27.9400641 ], [ -48.5406463, -27.9405883 ], [ -48.5406462, -27.9406041 ], [ -48.5406812, -27.9406836 ], [ -48.5408547, -27.9412395 ], [ -48.5408725, -27.9412555 ], [ -48.5411552, -27.9416539 ], [ -48.5411906, -27.9417017 ], [ -48.541226, -27.9417495 ], [ -48.5417086, -27.9418959 ], [ -48.5422483, -27.9417261 ], [ -48.5425916, -27.9414754 ], [ -48.542628, -27.9414282 ], [ -48.5428124, -27.9409386 ], [ -48.5428683, -27.9407331 ], [ -48.5428871, -27.940654 ], [ -48.5429782, -27.9405122 ], [ -48.5433557, -27.9404202 ], [ -48.5435956, -27.9397727 ], [ -48.5436558, -27.9391553 ], [ -48.5438085, -27.9382695 ], [ -48.5438872, -27.9375889 ], [ -48.5440361, -27.9370674 ], [ -48.5443124, -27.9363568 ], [ -48.544728, -27.9360155 ], [ -48.5452654, -27.9354098 ], [ -48.5456435, -27.9348028 ], [ -48.5457044, -27.9340526 ], [ -48.5455023, -27.9330655 ], [ -48.5448761, -27.9319812 ], [ -48.5439472, -27.9318232 ], [ -48.5429598, -27.9319419 ], [ -48.5424369, -27.9322228 ], [ -48.5418545, -27.9330577 ], [ -48.5418543, -27.9330735 ], [ -48.5418533, -27.9331685 ], [ -48.5418786, -27.9341826 ], [ -48.541742, -27.9352428 ], [ -48.5416878, -27.9352899 ], [ -48.5416331, -27.9353687 ], [ -48.5415422, -27.9354947 ], [ -48.5415236, -27.9355579 ], [ -48.5412152, -27.9359039 ], [ -48.541179, -27.9359353 ], [ -48.5409192, -27.9367727 ], [ -48.5407894, -27.9371836 ], [ -48.5404506, -27.9370066 ] ] ] ] } },
{ "type": "Feature", "properties": { "CODIGO": "IPL-003", "NM_ILHA": "Ilha Irmã do Meio", "NM_MUN": "Florianópolis", "AREA_KM2": 59.065, "AREA_M2": 590646.899, "LOCALIDADE": "Praia do Saquinho", "PERT_UC": "NÃO", "LATITUDE": -27.839261, "LONGITUDE": -48.525134 }, "geometry": { "type": "MultiPolygon", "coordinates": [ [ [ [ -48.5205607, -27.8378782 ], [ -48.5209261, -27.8381168 ], [ -48.5216866, -27.8382016 ], [ -48.522762, -27.838491 ], [ -48.5234329, -27.8386424 ], [ -48.5234454, -27.8386538 ], [ -48.5238992, -27.838938 ], [ -48.523937, -27.8389607 ], [ -48.5239874, -27.8389948 ], [ -48.5240748, -27.8391302 ], [ -48.5240999, -27.8391528 ], [ -48.5241986, -27.8394229 ], [ -48.5242106, -27.8394791 ], [ -48.524184, -27.8396023 ], [ -48.5241839, -27.8396135 ], [ -48.5240285, -27.839904 ], [ -48.5241132, -27.8402974 ], [ -48.5243636, -27.8408825 ], [ -48.5249765, -27.8417291 ], [ -48.5250015, -27.8417629 ], [ -48.5252918, -27.8419112 ], [ -48.5253045, -27.8419113 ], [ -48.5254942, -27.8419801 ], [ -48.5254907, -27.8423055 ], [ -48.525321, -27.8427529 ], [ -48.5250522, -27.8429639 ], [ -48.5248734, -27.8430746 ], [ -48.5249812, -27.8436813 ], [ -48.5249811, -27.8436926 ], [ -48.5250782, -27.8440973 ], [ -48.525078, -27.8441198 ], [ -48.5253673, -27.8443578 ], [ -48.5261755, -27.8447346 ], [ -48.5261881, -27.8447459 ], [ -48.5265919, -27.8449624 ], [ -48.5266677, -27.8449855 ], [ -48.5270359, -27.8449661 ], [ -48.5270742, -27.8449439 ], [ -48.5274684, -27.8448686 ], [ -48.5276077, -27.8448922 ], [ -48.5276456, -27.8449038 ], [ -48.5276835, -27.8449265 ], [ -48.5277577, -27.8451067 ], [ -48.5277557, -27.8452974 ], [ -48.5278438, -27.8453655 ], [ -48.5279455, -27.8453439 ], [ -48.5279583, -27.8453328 ], [ -48.5280094, -27.8452995 ], [ -48.5280997, -27.8451656 ], [ -48.5281382, -27.8451211 ], [ -48.5281896, -27.8450654 ], [ -48.5282282, -27.8450096 ], [ -48.5282542, -27.8449537 ], [ -48.5283573, -27.8447975 ], [ -48.5289574, -27.8444434 ], [ -48.5290084, -27.8444213 ], [ -48.5295964, -27.844011 ], [ -48.5296222, -27.8439663 ], [ -48.5299413, -27.8437895 ], [ -48.5300304, -27.8437679 ], [ -48.5303116, -27.8435794 ], [ -48.5304672, -27.8432553 ], [ -48.5305739, -27.8427625 ], [ -48.5305742, -27.8427401 ], [ -48.5305398, -27.842392 ], [ -48.53054, -27.8423696 ], [ -48.5305053, -27.8420551 ], [ -48.5302521, -27.8419969 ], [ -48.5300748, -27.8419618 ], [ -48.5300125, -27.8418491 ], [ -48.5299756, -27.8417366 ], [ -48.5298241, -27.841668 ], [ -48.5297733, -27.8416676 ], [ -48.5296209, -27.8416776 ], [ -48.5294562, -27.8416538 ], [ -48.5294308, -27.8416536 ], [ -48.5293815, -27.8415185 ], [ -48.5292692, -27.8413381 ], [ -48.5292694, -27.8413269 ], [ -48.5292064, -27.8412815 ], [ -48.5290168, -27.8412126 ], [ -48.5289915, -27.8412012 ], [ -48.5287512, -27.8411319 ], [ -48.5283643, -27.8408531 ], [ -48.5282263, -27.8407061 ], [ -48.5282011, -27.8406947 ], [ -48.5281889, -27.8406497 ], [ -48.5281019, -27.8404695 ], [ -48.5281021, -27.8404583 ], [ -48.5281046, -27.8402227 ], [ -48.5281083, -27.839875 ], [ -48.5279972, -27.8395824 ], [ -48.5277873, -27.8390196 ], [ -48.5277874, -27.8390084 ], [ -48.5278182, -27.8385038 ], [ -48.5278184, -27.8384814 ], [ -48.5278226, -27.8380888 ], [ -48.5278232, -27.8380327 ], [ -48.5278268, -27.8376961 ], [ -48.5278271, -27.8376625 ], [ -48.5278293, -27.8374606 ], [ -48.5277043, -27.83728 ], [ -48.5274177, -27.8367952 ], [ -48.5270145, -27.8365226 ], [ -48.5263082, -27.8361241 ], [ -48.5259044, -27.8359349 ], [ -48.5258284, -27.8359231 ], [ -48.5254738, -27.8358528 ], [ -48.5254484, -27.8358526 ], [ -48.5250558, -27.835782 ], [ -48.5250432, -27.8357707 ], [ -48.5249175, -27.8356687 ], [ -48.52478, -27.8354768 ], [ -48.524755, -27.835443 ], [ -48.5246176, -27.8352399 ], [ -48.524605, -27.8352286 ], [ -48.5242004, -27.8350906 ], [ -48.5241879, -27.8350793 ], [ -48.5236068, -27.8348389 ], [ -48.5232524, -27.8347574 ], [ -48.5226438, -27.8347187 ], [ -48.5226057, -27.8347184 ], [ -48.5224771, -27.8348856 ], [ -48.5224767, -27.8349192 ], [ -48.522412, -27.8350421 ], [ -48.5222093, -27.8350068 ], [ -48.5220708, -27.8349159 ], [ -48.5220329, -27.8348931 ], [ -48.5219952, -27.8348592 ], [ -48.5219701, -27.8348365 ], [ -48.5218191, -27.8347231 ], [ -48.5217937, -27.8347229 ], [ -48.5217433, -27.8346888 ], [ -48.5214906, -27.8345857 ], [ -48.5214654, -27.8345743 ], [ -48.5208467, -27.8342887 ], [ -48.5207962, -27.8342658 ], [ -48.5207456, -27.8342542 ], [ -48.5202271, -27.8340928 ], [ -48.5201639, -27.8340698 ], [ -48.5201132, -27.8340582 ], [ -48.5197464, -27.8339542 ], [ -48.5197086, -27.8339314 ], [ -48.51952, -27.8337615 ], [ -48.5195076, -27.833739 ], [ -48.5191911, -27.833669 ], [ -48.5189242, -27.8337117 ], [ -48.5188445, -27.8340476 ], [ -48.518774, -27.834709 ], [ -48.5191545, -27.8352634 ], [ -48.5195181, -27.8356929 ], [ -48.5201192, -27.8364496 ], [ -48.5202909, -27.8370008 ], [ -48.5202902, -27.8370681 ], [ -48.5203111, -27.8374834 ], [ -48.5203234, -27.8375172 ], [ -48.5203609, -27.8375736 ], [ -48.5205358, -27.8378331 ], [ -48.5205607, -27.8378782 ] ] ], [ [ [ -48.5174673, -27.8347953 ], [ -48.5176472, -27.835016 ], [ -48.517807, -27.8351307 ], [ -48.5179667, -27.8350953 ], [ -48.5179966, -27.8349894 ], [ -48.5180423, -27.8348213 ], [ -48.518042, -27.834649 ], [ -48.5176469, -27.8345039 ], [ -48.5174972, -27.8345569 ], [ -48.5173774, -27.8345746 ], [ -48.5173674, -27.8346629 ], [ -48.5174673, -27.8347953 ] ] ] ] } },
{ "type": "Feature", "properties": { "CODIGO": "IPL-004", "NM_ILHA": "Ilha dos Moleques do Sul", "NM_MUN": "Florianópolis", "AREA_KM2": 16.682, "AREA_M2": 166818.397, "LOCALIDADE": "ZEE", "PERT_UC": "NÃO", "LATITUDE": -27.845071, "LONGITUDE": -48.430911 }, "geometry": { "type": "MultiPolygon", "coordinates": [ [ [ [ -48.4313819, -27.8392379 ], [ -48.4313703, -27.8391558 ], [ -48.4312949, -27.839048 ], [ -48.4311846, -27.8390634 ], [ -48.431115, -27.839166 ], [ -48.4310917, -27.8392532 ], [ -48.4311497, -27.8393046 ], [ -48.431318, -27.8393097 ], [ -48.4313354, -27.8393097 ], [ -48.4313819, -27.8392379 ] ] ], [ [ [ -48.4305536, -27.8398328 ], [ -48.4305391, -27.8399896 ], [ -48.4305389, -27.840012 ], [ -48.4305614, -27.8402589 ], [ -48.4307346, -27.8406416 ], [ -48.4310365, -27.8408461 ], [ -48.4313809, -27.8406698 ], [ -48.4315354, -27.8404582 ], [ -48.4316144, -27.840201 ], [ -48.431466, -27.8398746 ], [ -48.4313277, -27.8397724 ], [ -48.4309738, -27.8396796 ], [ -48.4306568, -27.8396768 ], [ -48.4305536, -27.8398328 ] ] ], [ [ [ -48.4327649, -27.847951 ], [ -48.4328026, -27.8479738 ], [ -48.4333201, -27.8481915 ], [ -48.4340658, -27.8484 ], [ -48.4347633, -27.8483951 ], [ -48.4346766, -27.8482149 ], [ -48.4344133, -27.8479547 ], [ -48.434162, -27.8477506 ], [ -48.4336584, -27.8474322 ], [ -48.4332312, -27.847092 ], [ -48.433181, -27.8470467 ], [ -48.4328937, -27.846663 ], [ -48.4328562, -27.8466178 ], [ -48.4328312, -27.846584 ], [ -48.432695, -27.8463025 ], [ -48.43247, -27.8460202 ], [ -48.4322438, -27.8458388 ], [ -48.4318907, -27.8456674 ], [ -48.431667, -27.8452731 ], [ -48.4314605, -27.844785 ], [ -48.4313958, -27.844598 ], [ -48.4312106, -27.8441591 ], [ -48.4311983, -27.8441253 ], [ -48.4310744, -27.8438776 ], [ -48.4310493, -27.8438549 ], [ -48.4308105, -27.8436734 ], [ -48.4307979, -27.8436621 ], [ -48.4305454, -27.8435702 ], [ -48.4304821, -27.8435584 ], [ -48.4304314, -27.843558 ], [ -48.4301525, -27.8435555 ], [ -48.4300511, -27.8435546 ], [ -48.4299624, -27.8435538 ], [ -48.4298226, -27.8435862 ], [ -48.4297463, -27.843608 ], [ -48.4294276, -27.8437621 ], [ -48.4293766, -27.843784 ], [ -48.4290966, -27.8438712 ], [ -48.4290582, -27.8439044 ], [ -48.4288413, -27.8440146 ], [ -48.428803, -27.8440367 ], [ -48.428713, -27.844148 ], [ -48.4287234, -27.8443499 ], [ -48.4286839, -27.8444728 ], [ -48.4284513, -27.8448519 ], [ -48.4284507, -27.844908 ], [ -48.428536, -27.8452114 ], [ -48.4285735, -27.8452566 ], [ -48.4286985, -27.8454147 ], [ -48.428736, -27.8454599 ], [ -48.4291019, -27.8456201 ], [ -48.4291145, -27.8456314 ], [ -48.4296068, -27.8458264 ], [ -48.4296573, -27.8458492 ], [ -48.4298828, -27.8460867 ], [ -48.4299075, -27.8461429 ], [ -48.4299576, -27.8461994 ], [ -48.4301064, -27.8464811 ], [ -48.4301564, -27.8465488 ], [ -48.4301936, -27.8466164 ], [ -48.4302548, -27.8468075 ], [ -48.4303291, -27.8469652 ], [ -48.4303539, -27.8470102 ], [ -48.4303662, -27.847044 ], [ -48.4305159, -27.8472583 ], [ -48.4305158, -27.8472696 ], [ -48.430856, -27.847452 ], [ -48.4311867, -27.8473652 ], [ -48.431287, -27.847467 ], [ -48.4312868, -27.8474782 ], [ -48.4312598, -27.8476237 ], [ -48.4313082, -27.847826 ], [ -48.4315476, -27.8479627 ], [ -48.431801, -27.8479761 ], [ -48.4319292, -27.8478539 ], [ -48.43217, -27.847856 ], [ -48.4327649, -27.847951 ] ] ], [ [ [ -48.4290431, -27.842196 ], [ -48.4290543, -27.8423307 ], [ -48.4289773, -27.8424085 ], [ -48.4289514, -27.8424531 ], [ -48.4289124, -27.8425424 ], [ -48.4289213, -27.8428676 ], [ -48.4295918, -27.8429969 ], [ -48.4296297, -27.8430084 ], [ -48.4300605, -27.8430347 ], [ -48.4300859, -27.8430349 ], [ -48.4303406, -27.8429363 ], [ -48.4305719, -27.8426694 ], [ -48.4307144, -27.8424016 ], [ -48.4307303, -27.8421215 ], [ -48.4305931, -27.8419184 ], [ -48.4303666, -27.8417707 ], [ -48.4300118, -27.8417563 ], [ -48.4293395, -27.8417839 ], [ -48.429276, -27.8417945 ], [ -48.428718, -27.8418008 ], [ -48.4285278, -27.8417991 ], [ -48.4285024, -27.84181 ], [ -48.4284388, -27.8418207 ], [ -48.4283486, -27.8419544 ], [ -48.4284228, -27.842112 ], [ -48.4287651, -27.8421151 ], [ -48.4288284, -27.8421269 ], [ -48.4288788, -27.8421497 ], [ -48.429018, -27.8421734 ], [ -48.4290431, -27.842196 ] ] ] ] } },
{ "type": "Feature", "properties": { "CODIGO": "IPL-011", "NM_ILHA": "Ilhota do Ouvidor", "NM_MUN": "Garopaba", "AREA_KM2": 0.734, "AREA_M2": 7337.376, "LOCALIDADE": "Praia do Ouvidor", "PERT_UC": "NÃO", "LATITUDE": -28.102209, "LONGITUDE": -48.627097 }, "geometry": { "type": "MultiPolygon", "coordinates": [ [ [ [ -48.6268089, -28.1015748 ], [ -48.6267126, -28.1014758 ], [ -48.6266475, -28.1015079 ], [ -48.6265772, -28.1016187 ], [ -48.6265489, -28.1017606 ], [ -48.6264312, -28.1018823 ], [ -48.6264253, -28.1018928 ], [ -48.6263604, -28.1019406 ], [ -48.6263486, -28.1019512 ], [ -48.6263015, -28.1020093 ], [ -48.6263016, -28.1020145 ], [ -48.6264215, -28.1020976 ], [ -48.6265765, -28.1021331 ], [ -48.6265885, -28.1021382 ], [ -48.6266668, -28.1022321 ], [ -48.6266788, -28.1022425 ], [ -48.6268348, -28.1023672 ], [ -48.6269964, -28.1024552 ], [ -48.6270024, -28.1024604 ], [ -48.6271928, -28.1024589 ], [ -48.6272146, -28.1022592 ], [ -48.6272145, -28.1022487 ], [ -48.6271836, -28.1021387 ], [ -48.6270757, -28.1020609 ], [ -48.6269667, -28.101878 ], [ -48.6268637, -28.1017004 ], [ -48.6268149, -28.1015853 ], [ -48.6268089, -28.1015748 ] ] ], [ [ [ -48.628451, -28.1028047 ], [ -48.628439, -28.1027943 ], [ -48.6283554, -28.1027687 ], [ -48.6283315, -28.1027584 ], [ -48.6282834, -28.1027063 ], [ -48.6282712, -28.1026749 ], [ -48.6282407, -28.1026069 ], [ -48.6281625, -28.1025236 ], [ -48.6281384, -28.1024975 ], [ -48.6281023, -28.1024558 ], [ -48.6280775, -28.1023615 ], [ -48.6280652, -28.1023249 ], [ -48.6280646, -28.1022619 ], [ -48.6280645, -28.1022514 ], [ -48.6280583, -28.1022252 ], [ -48.6280335, -28.1021256 ], [ -48.6280214, -28.10211 ], [ -48.6279555, -28.1020685 ], [ -48.6279019, -28.1020637 ], [ -48.6278906, -28.1021215 ], [ -48.627897, -28.1021635 ], [ -48.6279454, -28.1022471 ], [ -48.6279577, -28.1022785 ], [ -48.6279822, -28.1023465 ], [ -48.6279823, -28.1023623 ], [ -48.6279826, -28.1023885 ], [ -48.6279833, -28.102462 ], [ -48.6279425, -28.1025411 ], [ -48.627973, -28.1026143 ], [ -48.628003, -28.1026351 ], [ -48.6280812, -28.1027237 ], [ -48.6280933, -28.1027393 ], [ -48.6281235, -28.1027811 ], [ -48.6281897, -28.102854 ], [ -48.6283218, -28.1029685 ], [ -48.6283456, -28.1029683 ], [ -48.6284231, -28.1029887 ], [ -48.628435, -28.1029886 ], [ -48.6285359, -28.1029615 ], [ -48.6286073, -28.102961 ], [ -48.6286364, -28.1028925 ], [ -48.6285346, -28.1028303 ], [ -48.628451, -28.1028047 ] ] ], [ [ [ -48.6257394, -28.1023235 ], [ -48.6258236, -28.1024068 ], [ -48.625925, -28.102427 ], [ -48.62599, -28.1023845 ], [ -48.6259716, -28.1023269 ], [ -48.6259888, -28.102269 ], [ -48.6260119, -28.1021953 ], [ -48.6259638, -28.1021485 ], [ -48.6258566, -28.1021441 ], [ -48.6257796, -28.1021762 ], [ -48.6257326, -28.1022395 ], [ -48.6257394, -28.1023235 ] ] ] ] } },
{ "type": "Feature", "properties": { "CODIGO": "IPL-019", "NM_ILHA": "Ilha Marta Pequeno", "NM_MUN": "Laguna", "AREA_KM2": 2.954, "AREA_M2": 29538.674, "LOCALIDADE": "Praia de Santa Marta Pequeno", "PERT_UC": "SIM", "LATITUDE": -28.539555, "LONGITUDE": -48.758963 }, "geometry": { "type": "MultiPolygon", "coordinates": [ [ [ [ -48.7566468, -28.5410556 ], [ -48.7566879, -28.5409655 ], [ -48.7565237, -28.5408032 ], [ -48.7563184, -28.5407311 ], [ -48.7561132, -28.5408212 ], [ -48.7560106, -28.5409294 ], [ -48.755949, -28.5411277 ], [ -48.7560927, -28.5412539 ], [ -48.7562158, -28.5412179 ], [ -48.7564621, -28.5411097 ], [ -48.7566468, -28.5410556 ] ] ], [ [ [ -48.7592111, -28.5404125 ], [ -48.7592245, -28.540389 ], [ -48.7593719, -28.540242 ], [ -48.7593853, -28.5402302 ], [ -48.7596131, -28.5400891 ], [ -48.7596466, -28.5400715 ], [ -48.7598945, -28.5398892 ], [ -48.7601157, -28.5396363 ], [ -48.7602498, -28.5393951 ], [ -48.7602699, -28.5393716 ], [ -48.7602298, -28.5391362 ], [ -48.7602164, -28.5391303 ], [ -48.7599754, -28.5389831 ], [ -48.759962, -28.5389714 ], [ -48.7596674, -28.5388124 ], [ -48.7594532, -28.5386946 ], [ -48.7591854, -28.5385121 ], [ -48.759172, -28.5385003 ], [ -48.7588639, -28.5384708 ], [ -48.7588572, -28.5384708 ], [ -48.7585625, -28.5385471 ], [ -48.7583682, -28.5387294 ], [ -48.7583412, -28.5389706 ], [ -48.758455, -28.5391884 ], [ -48.758455, -28.5392001 ], [ -48.7585352, -28.5393414 ], [ -48.7585419, -28.5393532 ], [ -48.7586289, -28.5395238 ], [ -48.758756, -28.5397239 ], [ -48.7587425, -28.5398828 ], [ -48.7586085, -28.5399945 ], [ -48.7584812, -28.5401415 ], [ -48.7585012, -28.5403004 ], [ -48.7586082, -28.5404652 ], [ -48.7588762, -28.5403947 ], [ -48.7589699, -28.5404713 ], [ -48.7592111, -28.5404125 ] ] ] ] } },
{ "type": "Feature", "properties": { "CODIGO": "IPL-006", "NM_ILHA": "Ilha dos Papagaios Pequena", "NM_MUN": "Palhoça", "AREA_KM2": 15.693, "AREA_M2": 156932.569, "LOCALIDADE": "Praia da Pinheira", "PERT_UC": "NÃO", "LATITUDE": -27.855161, "LONGITUDE": -48.578701 }, "geometry": { "type": "MultiPolygon", "coordinates": [ [ [ [ -48.577519340117071, -27.852644655511178 ], [ -48.577509590496497, -27.852635636379063 ], [ -48.577500034963649, -27.852617776380711 ], [ -48.577500231605633, -27.852608933770146 ], [ -48.577490671518476, -27.852591073243804 ], [ -48.577470972588586, -27.852581881111998 ], [ -48.577471365917141, -27.852564194067615 ], [ -48.577451861576812, -27.852546159768742 ], [ -48.577442107401474, -27.8525371423422 ], [ -48.577422406474533, -27.852527948344687 ], [ -48.577353352737688, -27.852500196983964 ], [ -48.577333453117689, -27.85249984737241 ], [ -48.577313555510976, -27.852499497793353 ], [ -48.577283707088647, -27.852498973384023 ], [ -48.577243715718751, -27.852507116826576 ], [ -48.5772435190568, -27.852515959435596 ], [ -48.577233176383025, -27.852533471672391 ], [ -48.577223030913473, -27.852542139484651 ], [ -48.57722263759625, -27.85255982422062 ], [ -48.577212096701011, -27.852586179036798 ], [ -48.577201361216233, -27.852621375120147 ], [ -48.57718107021352, -27.85263871252668 ], [ -48.577180873545394, -27.852647555135114 ], [ -48.577180480218821, -27.852665239904663 ], [ -48.577180283499928, -27.852674084783878 ], [ -48.577180086842155, -27.852682926910578 ], [ -48.577169941353802, -27.852691594717605 ], [ -48.57716974468434, -27.852700437325893 ], [ -48.577169548004832, -27.852709280381458 ], [ -48.577159400500136, -27.852717948152105 ], [ -48.577128765288471, -27.852752795961106 ], [ -48.577128568615159, -27.852761638569053 ], [ -48.57711822891725, -27.852779150812665 ], [ -48.577077644381411, -27.852813821969228 ], [ -48.577057746721167, -27.852813472349673 ], [ -48.577027898179807, -27.852812947878913 ], [ -48.577017947337133, -27.852812773030529 ], [ -48.577007998507504, -27.852812598216811 ], [ -48.576959041110335, -27.852776353710325 ], [ -48.576949092284465, -27.852776178892569 ], [ -48.576909294968914, -27.852775479578998 ], [ -48.576849993939796, -27.852756743612343 ], [ -48.576840044613284, -27.852756568777995 ], [ -48.576820145418573, -27.852756219097618 ], [ -48.576780349623832, -27.852755519773844 ], [ -48.576740550307861, -27.852754820376703 ], [ -48.576730604001746, -27.852754645587531 ], [ -48.576720655179543, -27.852754470753428 ], [ -48.576690806197277, -27.852753946202597 ], [ -48.576631109202921, -27.852752897098597 ], [ -48.576591115148545, -27.852761042087398 ], [ -48.576580972125157, -27.85276970989176 ], [ -48.5765606805479, -27.852787044953349 ], [ -48.576550535003499, -27.852795712710922 ], [ -48.576540584165926, -27.852795537828214 ], [ -48.576530241886964, -27.852813048635383 ], [ -48.576510145419498, -27.852821543293775 ], [ -48.576479903473697, -27.852838703912283 ], [ -48.576479706747023, -27.852847546515871 ], [ -48.576459811644334, -27.852847196854597 ], [ -48.576439716715193, -27.852855689739336 ], [ -48.576429766376201, -27.85285551485714 ], [ -48.576419817043771, -27.852855339991923 ], [ -48.576409671441603, -27.852864009561461 ], [ -48.57638957704787, -27.852872502447955 ], [ -48.576379626204471, -27.8528723275532 ], [ -48.576369677374117, -27.852872152693109 ], [ -48.576349580924514, -27.852880645537407 ], [ -48.576339632093614, -27.85288047067511 ], [ -48.576309589412546, -27.852888788248553 ], [ -48.576279545672236, -27.852897106244068 ], [ -48.576269596840355, -27.852896931376616 ], [ -48.576249697125199, -27.85289658160351 ], [ -48.576239549534776, -27.852905249266058 ], [ -48.576229600702447, -27.852905074395679 ], [ -48.576219651870211, -27.852904899524582 ], [ -48.576209705554234, -27.852904724697002 ], [ -48.57616951416496, -27.852921712184809 ], [ -48.576149220967139, -27.852939048047549 ], [ -48.576139075377256, -27.85294771577168 ], [ -48.576129126541787, -27.852947540893815 ], [ -48.576087949749919, -27.853008742640604 ], [ -48.576086769138783, -27.853061800515984 ], [ -48.576075639694771, -27.853114682579253 ], [ -48.576075246171172, -27.853132367780397 ], [ -48.576034270625506, -27.853184726088781 ], [ -48.576024321265947, -27.853184551193145 ], [ -48.576013978834432, -27.853202063329324 ], [ -48.576003833208389, -27.853210731040974 ], [ -48.575983736708594, -27.853219223826461 ], [ -48.575953297772095, -27.853245226467966 ], [ -48.57595192027128, -27.853307128690478 ], [ -48.575961475592997, -27.853324988782347 ], [ -48.575961082057333, -27.853342673534165 ], [ -48.575970639394349, -27.853360535485198 ], [ -48.575988964933472, -27.853431628336885 ], [ -48.57598876817201, -27.853440470489208 ], [ -48.576027383532647, -27.853494227892362 ], [ -48.576075750017544, -27.853557004131176 ], [ -48.576095256294238, -27.853575038689272 ], [ -48.57610501047521, -27.853584056209439 ], [ -48.576124908262074, -27.853584405975251 ], [ -48.576134463623887, -27.853602266505085 ], [ -48.576153969868734, -27.853620303292285 ], [ -48.576153576349441, -27.853637988493162 ], [ -48.576163131730077, -27.853655848574196 ], [ -48.576172687576324, -27.85367371048709 ], [ -48.576172490828519, -27.8536825526059 ], [ -48.576182244483306, -27.853691570111948 ], [ -48.576182047725403, -27.853700412712488 ], [ -48.576191800335465, -27.853709432023834 ], [ -48.576191603578195, -27.853718274624409 ], [ -48.576201353201768, -27.853727292505894 ], [ -48.576201156445123, -27.853736135106509 ], [ -48.576200762931563, -27.853753820307702 ], [ -48.576210711841149, -27.853753995185038 ], [ -48.576210515045233, -27.853762839574809 ], [ -48.576238986481734, -27.853825263785463 ], [ -48.576238592962888, -27.85384294943421 ], [ -48.576258296097684, -27.853852141820646 ], [ -48.576267851471492, -27.853870003719706 ], [ -48.576267654719061, -27.85387884632058 ], [ -48.576267457966537, -27.853887688921436 ], [ -48.576267064421415, -27.853905375912234 ], [ -48.576266670925698, -27.853923060666574 ], [ -48.576255934944811, -27.85395825798426 ], [ -48.576245198986001, -27.853993453958676 ], [ -48.57623505124652, -27.854002121646882 ], [ -48.576225102314105, -27.85400194676987 ], [ -48.576224905516533, -27.854010791193815 ], [ -48.576214954570425, -27.854010616280643 ], [ -48.576204808878686, -27.854019284002408 ], [ -48.576184716777789, -27.854027776405793 ], [ -48.576174570578864, -27.854036444116215 ], [ -48.576154277129113, -27.854053781340326 ], [ -48.576154080365946, -27.854062623940216 ], [ -48.576133985716524, -27.854071117220137 ], [ -48.576123837999816, -27.854079784899721 ], [ -48.57611369229447, -27.854088452613837 ], [ -48.576103349819853, -27.854105962926596 ], [ -48.576083056307816, -27.854123300103424 ], [ -48.576072713834648, -27.854140809966005 ], [ -48.57607212348303, -27.854167339552816 ], [ -48.576071926712245, -27.854176182152024 ], [ -48.576071533160466, -27.854193867797676 ], [ -48.576071139577692, -27.854211554819525 ], [ -48.57607094280646, -27.854220397418676 ], [ -48.576080694987162, -27.854229414907252 ], [ -48.576090055641494, -27.854256119418867 ], [ -48.576089662111229, -27.854273804169992 ], [ -48.576099414298021, -27.854282821657584 ], [ -48.576118918636638, -27.854300858420082 ], [ -48.576128869608532, -27.854301033341859 ], [ -48.576158716989063, -27.854301558005563 ], [ -48.576168667458063, -27.854301732915619 ], [ -48.576178616920672, -27.854301907807272 ], [ -48.576188563363914, -27.85430208264513 ], [ -48.576208461283088, -27.854302432407156 ], [ -48.57621860904559, -27.854293763380632 ], [ -48.576228558004594, -27.85429393825979 ], [ -48.576238705783574, -27.854285270126866 ], [ -48.576249048256571, -27.854267759804067 ], [ -48.576259193959842, -27.854259092527844 ], [ -48.576269142915976, -27.854259267403872 ], [ -48.57628943638894, -27.854241930198992 ], [ -48.576299582599859, -27.854233262480975 ], [ -48.576299779352645, -27.854224419880346 ], [ -48.576309922502887, -27.854215752107642 ], [ -48.576310119254693, -27.854206909506924 ], [ -48.576310316046978, -27.854198065082667 ], [ -48.576330804208681, -27.854171886576008 ], [ -48.576340951958002, -27.854163218881464 ], [ -48.576351097643325, -27.854154551631687 ], [ -48.576361048603573, -27.854154726535867 ], [ -48.576380946498389, -27.854155076271326 ], [ -48.576400844896817, -27.85415542601276 ], [ -48.576430497061054, -27.854164792762216 ], [ -48.576440443454928, -27.854164967580449 ], [ -48.576459753137733, -27.85419184559246 ], [ -48.576469505350488, -27.854200863055421 ], [ -48.57647906078617, -27.854218724943131 ], [ -48.576478864047978, -27.854227567544942 ], [ -48.576488618317072, -27.854236585042873 ], [ -48.576488421579498, -27.854245427644727 ], [ -48.576498173759425, -27.854254446895169 ], [ -48.576507925980771, -27.854263464355899 ], [ -48.576517286755553, -27.854290166608095 ], [ -48.576527038971605, -27.854299184515003 ], [ -48.57653679116936, -27.854308203315881 ], [ -48.576536397690816, -27.854325888967296 ], [ -48.576546150424718, -27.854334906434676 ], [ -48.576555900140768, -27.854343923848393 ], [ -48.57655570340777, -27.854352766450546 ], [ -48.576575406582542, -27.854361960621386 ], [ -48.57658496209875, -27.854379820232555 ], [ -48.576594714338185, -27.854388837688152 ], [ -48.576604468592201, -27.854397855178529 ], [ -48.576604075093293, -27.854415542172443 ], [ -48.576623778352982, -27.854424734961693 ], [ -48.576652444879478, -27.854478316916687 ], [ -48.576671951411178, -27.854496351407413 ], [ -48.57668190089526, -27.854496526263887 ], [ -48.576681704120695, -27.854505371137485 ], [ -48.576701402855477, -27.854514562942125 ], [ -48.576720712660773, -27.854541440924304 ], [ -48.576749577995031, -27.854586180295531 ], [ -48.576778835276684, -27.854613234428882 ], [ -48.576788195678098, -27.854639936659378 ], [ -48.576817056988723, -27.854684676429535 ], [ -48.576816860274079, -27.854693519032963 ], [ -48.576816663559349, -27.854702361636381 ], [ -48.576816466804729, -27.854711206028906 ], [ -48.576816073384776, -27.854728890788397 ], [ -48.576805536778771, -27.854755244251148 ], [ -48.576784457917093, -27.854807951968908 ], [ -48.576784261158984, -27.854816796361085 ], [ -48.576764164365699, -27.854825289243045 ], [ -48.576763967645604, -27.854834131845948 ], [ -48.576763770935358, -27.854842974001556 ], [ -48.576763574215086, -27.854851816604434 ], [ -48.576751854617115, -27.854931229245313 ], [ -48.576751657895137, -27.854940071847999 ], [ -48.576751264411108, -27.85495775884246 ], [ -48.576751067698815, -27.854966600997827 ], [ -48.576750870976483, -27.854975443600456 ], [ -48.576750674254065, -27.854984286203077 ], [ -48.57674988731295, -27.855019658884242 ], [ -48.576749493867119, -27.85503734408935 ], [ -48.576758852691114, -27.855064048531382 ], [ -48.576758655978558, -27.855072890686664 ], [ -48.576758459255956, -27.855081733289211 ], [ -48.576768408794123, -27.855081908142814 ], [ -48.576797667752643, -27.855108962306325 ], [ -48.5768173665451, -27.855118154995051 ], [ -48.576827120918068, -27.855127172474763 ], [ -48.576847018958595, -27.855127522153506 ], [ -48.576856773334967, -27.855136539631321 ], [ -48.576886227031586, -27.855154749349722 ], [ -48.576906127129718, -27.855155099056308 ], [ -48.576915879924591, -27.855164118326687 ], [ -48.576925629742156, -27.855173135719888 ], [ -48.576945529844231, -27.855173485420998 ], [ -48.576985328036457, -27.855174184779262 ], [ -48.57699527708148, -27.855174359608196 ], [ -48.577025126268822, -27.855174884126733 ], [ -48.57704502637268, -27.855175233813526 ], [ -48.577074871496663, -27.855175758249899 ], [ -48.577094771601409, -27.85517610792952 ], [ -48.577114671706525, -27.855176457606273 ], [ -48.577144518845373, -27.855176982062975 ], [ -48.577154467891837, -27.855177156880444 ], [ -48.577174368036729, -27.855177506549282 ], [ -48.577194264078578, -27.855177856143147 ], [ -48.577204213125491, -27.855178030957031 ], [ -48.577214164224188, -27.855178205806251 ], [ -48.577224113271271, -27.8551783806187 ], [ -48.57724401337871, -27.855178730276826 ], [ -48.577253962426063, -27.855178905087126 ], [ -48.577263714791016, -27.855187922502441 ], [ -48.577273663839364, -27.855188097311373 ], [ -48.57729336727985, -27.855197289086686 ], [ -48.57731306668714, -27.855206481270326 ], [ -48.577323015737534, -27.855206656075808 ], [ -48.577342915851588, -27.85520700571999 ], [ -48.577352471510601, -27.855224867559389 ], [ -48.577372174993052, -27.855234059806591 ], [ -48.577391681757703, -27.855252095104259 ], [ -48.577401434140924, -27.855261112510867 ], [ -48.57744103621306, -27.855270654355259 ], [ -48.577460735104253, -27.855279848299599 ], [ -48.577470684162435, -27.855280023094856 ], [ -48.577500142073866, -27.855298232762021 ], [ -48.577539741625166, -27.855307774087219 ], [ -48.577579341162519, -27.855317318120239 ], [ -48.577589093578467, -27.855326335033151 ], [ -48.577608993757018, -27.855326684641017 ], [ -48.577638646307641, -27.855336051636723 ], [ -48.57766810069306, -27.855354261655286 ], [ -48.577687607578703, -27.855372296468619 ], [ -48.577687410888437, -27.855381140900398 ], [ -48.577706913175298, -27.855399175630517 ], [ -48.577735779140738, -27.855443914382736 ], [ -48.577745336966402, -27.855461774859499 ], [ -48.577745140320623, -27.855470617468011 ], [ -48.577744746989019, -27.855488304474143 ], [ -48.577744550342977, -27.85549714708262 ], [ -48.57776326860423, -27.855550553661637 ], [ -48.577772824360977, -27.855568415442921 ], [ -48.577772234417473, -27.85559494371585 ], [ -48.577771841127984, -27.855612628932896 ], [ -48.577771251153301, -27.855639158547476 ], [ -48.577771054508155, -27.855648001155938 ], [ -48.577770661177048, -27.855665688196357 ], [ -48.57777046454158, -27.855674530357494 ], [ -48.577770267896078, -27.85568337296591 ], [ -48.577780219006385, -27.855683547776525 ], [ -48.57778977480578, -27.855701408215388 ], [ -48.57779913443801, -27.855728112612965 ], [ -48.577808690253896, -27.855745972603579 ], [ -48.577808100284862, -27.855772502218379 ], [ -48.577827213942264, -27.855808222233676 ], [ -48.57783696389393, -27.855817239570015 ], [ -48.577845929760841, -27.855861629173877 ], [ -48.577855290926784, -27.855888333629746 ], [ -48.577855094296339, -27.855897175791153 ], [ -48.577854897655854, -27.855906018399843 ], [ -48.577854701015283, -27.855914861008504 ], [ -48.577864453454694, -27.855923880176849 ], [ -48.577864256814756, -27.855932722785553 ], [ -48.577873812647027, -27.855950583220253 ], [ -48.577873616007615, -27.855959425828992 ], [ -48.577873419368117, -27.855968268437717 ], [ -48.577873222688751, -27.855977112835546 ], [ -48.577882977226473, -27.855986130249867 ], [ -48.577892533085794, -27.85600398978907 ], [ -48.577892139768494, -27.856021676830164 ], [ -48.577901695622089, -27.856039536816226 ], [ -48.57791085815429, -27.856075084255853 ], [ -48.57791066151686, -27.856083926864667 ], [ -48.577910464879338, -27.856092769473477 ], [ -48.577909481660534, -27.856136983859166 ], [ -48.577909088374376, -27.856154669523889 ], [ -48.577908498418843, -27.856181199173498 ], [ -48.57790830178034, -27.856190041782163 ], [ -48.57790790850305, -27.856207726999461 ], [ -48.577907515185629, -27.856225414005834 ], [ -48.577907318546671, -27.856234256614432 ], [ -48.577896976128322, -27.856251766614939 ], [ -48.577896779488292, -27.85626060922344 ], [ -48.577896386168177, -27.856278296229537 ], [ -48.577896189517936, -27.856287139285282 ], [ -48.577895992877558, -27.856295981893734 ], [ -48.577885650440841, -27.856313492340039 ], [ -48.577885453799382, -27.856322334948381 ], [ -48.577875307960078, -27.856331004608851 ], [ -48.577854620987623, -27.856366026802139 ], [ -48.577854227698708, -27.856383712018282 ], [ -48.577854031044176, -27.856392555073608 ], [ -48.577853637754721, -27.856410240289676 ], [ -48.577853441109866, -27.856419082897688 ], [ -48.577853244425128, -27.856427927294813 ], [ -48.577853047780089, -27.856436769902807 ], [ -48.577852851134963, -27.856445612510782 ], [ -48.57785226115849, -27.856472142158164 ], [ -48.577852064523718, -27.856480984284406 ], [ -48.57786181704968, -27.856490001666323 ], [ -48.577881324148201, -27.856508036911684 ], [ -48.577900829170844, -27.856526073494852 ], [ -48.57792053289397, -27.856535265679167 ], [ -48.577940232594543, -27.85654445779014 ], [ -48.5779696888264, -27.856562669133506 ], [ -48.577979244733562, -27.856580529116709 ], [ -48.578018453581215, -27.856607755588445 ], [ -48.578018256938137, -27.856616598644568 ], [ -48.578037960697174, -27.856625792156159 ], [ -48.578057267115703, -27.856652669916603 ], [ -48.578066823044445, -27.856670529894927 ], [ -48.578086526768118, -27.856679723881392 ], [ -48.578085740264733, -27.856715093870811 ], [ -48.578085543596387, -27.856723938269088 ], [ -48.578075201132918, -27.856741449175274 ], [ -48.578065053293408, -27.856750116988831 ], [ -48.578064856662877, -27.856758959597794 ], [ -48.578054514162588, -27.856776471843773 ], [ -48.578044370886069, -27.856785139735695 ], [ -48.57803422454969, -27.856793807573041 ], [ -48.57803402792625, -27.856802649734469 ], [ -48.578023880542148, -27.856811317552516 ], [ -48.578003588322254, -27.856828655055125 ], [ -48.578003391686849, -27.856837497629176 ], [ -48.577992655883286, -27.856872695567652 ], [ -48.577992262608369, -27.856890380784311 ], [ -48.577992065970768, -27.85689922339262 ], [ -48.578010981179638, -27.856943787308236 ], [ -48.578020537615579, -27.856961647746338 ], [ -48.578030095069089, -27.856979509578537 ], [ -48.578029701799238, -27.856997194761 ], [ -48.578049008243589, -27.857024073901567 ], [ -48.578058760832057, -27.857033091272996 ], [ -48.578068318812434, -27.857050950840527 ], [ -48.57808762732774, -27.857077829978323 ], [ -48.578087430686381, -27.857086673034292 ], [ -48.578106937933853, -27.857104707808109 ], [ -48.578116887163397, -27.857104882567256 ], [ -48.578126443136021, -27.857122742543503 ], [ -48.578136197712773, -27.857131761734774 ], [ -48.578145753700632, -27.857149621262685 ], [ -48.578155310134257, -27.857167483517017 ], [ -48.578165259369896, -27.857167658273035 ], [ -48.578165062753982, -27.857176500434839 ], [ -48.578164866128034, -27.857185343043913 ], [ -48.578174620288621, -27.857194360435663 ], [ -48.578184570030103, -27.857194535199277 ], [ -48.578194320079767, -27.857203552964982 ], [ -48.578204072695989, -27.857212570327693 ], [ -48.578213827326849, -27.85722158772516 ], [ -48.578233529148406, -27.857230781627244 ], [ -48.578262985689449, -27.857248991132629 ], [ -48.578282688063538, -27.857258183247936 ], [ -48.578292442162102, -27.857267202420736 ], [ -48.578302195295542, -27.857276219786133 ], [ -48.578322091272632, -27.857276569233314 ], [ -48.578341795176918, -27.857285760920004 ], [ -48.578351547813014, -27.857294778273403 ], [ -48.578361499074738, -27.857294953051351 ], [ -48.578381397572414, -27.857295302534396 ], [ -48.578381200963037, -27.857304145144731 ], [ -48.578410657540232, -27.857322355068462 ], [ -48.578479585690786, -27.857400740406455 ], [ -48.578572073406228, -27.857445337216937 ], [ -48.578735186547917, -27.857502631534075 ], [ -48.578843524354625, -27.857551117030262 ], [ -48.578863424919213, -27.857551466482072 ], [ -48.578873374195126, -27.857551641189225 ], [ -48.578943019128992, -27.857552864119242 ], [ -48.579013061252368, -27.857536401857196 ], [ -48.579023012541036, -27.857536576588817 ], [ -48.579033158365249, -27.857527909117351 ], [ -48.579093443716651, -27.857502427641961 ], [ -48.579113540827656, -27.857493934442275 ], [ -48.579183779479756, -27.857468627650476 ], [ -48.579193729253724, -27.85746880234289 ], [ -48.579203675969516, -27.857468976980893 ], [ -48.579213625240406, -27.857469151663032 ], [ -48.579233525834191, -27.857469501061185 ], [ -48.579243475105343, -27.857469675741182 ], [ -48.57927332493238, -27.857470199812209 ], [ -48.57930317479893, -27.857470723877455 ], [ -48.579323073845849, -27.857471073235534 ], [ -48.579421783945712, -27.857508192291764 ], [ -48.579470940718863, -27.857535595258501 ], [ -48.579480693485579, -27.857544612091708 ], [ -48.579490446243973, -27.857553629371594 ], [ -48.579500397537743, -27.857553804068878 ], [ -48.579510150298631, -27.857562821347521 ], [ -48.579519905102956, -27.857571839108854 ], [ -48.579529657867077, -27.857580856386296 ], [ -48.579539410632812, -27.85758987366313 ], [ -48.57954916336039, -27.857598892728497 ], [ -48.57957881721812, -27.857608259362237 ], [ -48.579588766504486, -27.857608434018129 ], [ -48.579608662561192, -27.857608783283585 ], [ -48.579628563147594, -27.857609132625676 ], [ -48.579638514447446, -27.857609307313322 ], [ -48.579759283497296, -27.857549502551681 ], [ -48.57976943128152, -27.857540835057719 ], [ -48.579779773598595, -27.857523322671938 ], [ -48.579789722878687, -27.857523497312847 ], [ -48.57979986865498, -27.857514829333688 ], [ -48.579810016442693, -27.857506161389001 ], [ -48.579819965721441, -27.857506336027633 ], [ -48.579840058799398, -27.857497840824237 ], [ -48.579879857925818, -27.857498539400922 ], [ -48.579889809256137, -27.857498714070488 ], [ -48.579919659105421, -27.857499238002166 ], [ -48.579959458234697, -27.857499936555929 ], [ -48.579989500540307, -27.857491617781271 ], [ -48.580029301681897, -27.857492316350037 ], [ -48.580069098798845, -27.857493014836681 ], [ -48.580088999409604, -27.857493364111708 ], [ -48.580228684267801, -27.857478123495532 ], [ -48.580248584839481, -27.857478472746696 ], [ -48.580268679856168, -27.857469979337182 ], [ -48.580298922664888, -27.857452817494408 ], [ -48.580328969002977, -27.857444496924742 ], [ -48.580359015800454, -27.857436178146184 ], [ -48.580379108285449, -27.857427684675322 ], [ -48.580449543082437, -27.857393535074742 ], [ -48.580540660085582, -27.857324363144986 ], [ -48.58055100422316, -27.857306852963429 ], [ -48.580560953489183, -27.857307027547474 ], [ -48.580571295658395, -27.857289515092308 ], [ -48.580622613449549, -27.857219644760562 ], [ -48.580623006343586, -27.857201957686751 ], [ -48.580655213291926, -27.85709636637139 ], [ -48.580665358961831, -27.857087698321152 ], [ -48.580665751796296, -27.857070013517255 ], [ -48.580666144680855, -27.857052326442499 ], [ -48.580676488818298, -27.857034815801377 ], [ -48.580676685238437, -27.857025973210067 ], [ -48.580686830910444, -27.857017304675956 ], [ -48.580696976599945, -27.857008635280824 ], [ -48.580697173028909, -27.856999792207649 ], [ -48.580737758154342, -27.856965120477046 ], [ -48.580747707390536, -27.856965295045661 ], [ -48.580757854590068, -27.85695662522458 ], [ -48.580777947460298, -27.856948131696306 ], [ -48.580787896695242, -27.856948306261927 ], [ -48.580807993587939, -27.856939812799652 ], [ -48.580828090516405, -27.856931319334915 ], [ -48.580857938217981, -27.856931843018494 ], [ -48.580878035102899, -27.85692334954544 ], [ -48.580908077231321, -27.856915028766259 ], [ -48.580928174109694, -27.856906535285432 ], [ -48.580948074587297, -27.856906884429129 ], [ -48.580968169459133, -27.856898390425169 ], [ -48.580998411993058, -27.856881228892263 ], [ -48.581018308402314, -27.85688157795423 ], [ -48.581028257632944, -27.856881752502133 ], [ -48.581028454014103, -27.856872910321197 ], [ -48.581048354525755, -27.856873259450722 ], [ -48.581058696544659, -27.85685574646806 ], [ -48.581068647824971, -27.856855921048897 ], [ -48.581078597053633, -27.85685609559302 ], [ -48.581088546282373, -27.85685627013644 ], [ -48.58109869188646, -27.856847602497705 ], [ -48.581108839511906, -27.856838934446138 ], [ -48.581128934852643, -27.856830440907586 ], [ -48.581148834854773, -27.856830790013305 ], [ -48.581209708483783, -27.856778779217709 ], [ -48.581219856172616, -27.856770109368487 ], [ -48.581230001768375, -27.856761441271534 ], [ -48.581301217291553, -27.856691920562351 ], [ -48.581322492333648, -27.856630369447728 ], [ -48.581353716594137, -27.856568991026911 ], [ -48.581364058531115, -27.856551479839911 ], [ -48.581364254892229, -27.856542637209067 ], [ -48.581364647603479, -27.856524952429041 ], [ -48.58137459680411, -27.856525126949922 ], [ -48.581374989564587, -27.856507439864487 ], [ -48.581375185924443, -27.856498597233514 ], [ -48.581375382284207, -27.856489754602539 ], [ -48.58137557868362, -27.85648091018242 ], [ -48.581375775043213, -27.856472067551415 ], [ -48.581375971402714, -27.856463224920386 ], [ -48.581376167762123, -27.856454382289357 ], [ -48.581376756849757, -27.856427853948912 ], [ -48.581377149608265, -27.856410166863196 ], [ -48.581377542315231, -27.856392482082658 ], [ -48.581377935073029, -27.856374794996846 ], [ -48.581378327789984, -27.856357109734518 ], [ -48.581378524148327, -27.856348267103336 ], [ -48.581378916874669, -27.856330581393646 ], [ -48.581379113272476, -27.856321736973296 ], [ -48.581379309630456, -27.856312894342068 ], [ -48.581379702336228, -27.856295209526841 ], [ -48.581380291448845, -27.856268679843865 ], [ -48.581371127714007, -27.856233134352525 ], [ -48.581361374929322, -27.856224115825583 ], [ -48.58124728291461, -27.855983262801217 ], [ -48.581228168061749, -27.855947541845978 ], [ -48.581180583038531, -27.855849396212641 ], [ -48.581170633397775, -27.855849221672813 ], [ -48.581161271817052, -27.855822519669953 ], [ -48.581151322682139, -27.855822345137717 ], [ -48.581141962202935, -27.855795640915819 ], [ -48.581122258299864, -27.855786449182617 ], [ -48.581102752828933, -27.855768413062862 ], [ -48.581073296193892, -27.855750203709789 ], [ -48.581053788646201, -27.85573216933707 ], [ -48.58103448212313, -27.855705291036763 ], [ -48.581014974589756, -27.855687256659358 ], [ -48.581005221387834, -27.855678237689791 ], [ -48.580995665034742, -27.855660377888029 ], [ -48.580985715915851, -27.85566020334479 ], [ -48.580976159577354, -27.855642343094644 ], [ -48.580966208447244, -27.855642168514777 ], [ -48.580946700975154, -27.855624134129656 ], [ -48.580936948287764, -27.855615115164728 ], [ -48.58091744534466, -27.855597081302751 ], [ -48.580887791882922, -27.855587714981944 ], [ -48.580868482880454, -27.855560836169953 ], [ -48.580800408847686, -27.855488871001437 ], [ -48.580751642823877, -27.855443783684819 ], [ -48.580722579175301, -27.855407887632715 ], [ -48.580713219304599, -27.85538118473978 ], [ -48.580703464555889, -27.855372167995444 ], [ -48.58069371192164, -27.855363148534 ], [ -48.580684352041274, -27.855336446534203 ], [ -48.580684548487206, -27.855327602117132 ], [ -48.580674990201707, -27.855309742262236 ], [ -48.580665433942102, -27.855291881994866 ], [ -48.580665630349458, -27.855283039366984 ], [ -48.580666612414696, -27.855238824885557 ], [ -48.580666808821519, -27.855229982257597 ], [ -48.580667005268751, -27.85522113780609 ], [ -48.580667398081943, -27.855203452550114 ], [ -48.580667594488411, -27.855194609922105 ], [ -48.580667790894779, -27.855185767294092 ], [ -48.580667987311003, -27.855176924218775 ], [ -48.580658433647265, -27.855159062654401 ], [ -48.580658630054081, -27.855150220026399 ], [ -48.580648876849828, -27.855141202824313 ], [ -48.5806492696547, -27.855123518015649 ], [ -48.580639909889783, -27.855096813778239 ], [ -48.580622366695927, -27.854990349462696 ], [ -48.580622563104271, -27.854981506834715 ], [ -48.580622955960443, -27.854963819789575 ], [ -48.580613203316773, -27.85495480259549 ], [ -48.580613399735512, -27.85494595952024 ], [ -48.580613596144218, -27.854937116892259 ], [ -48.580613792552832, -27.854928274264257 ], [ -48.580613989001876, -27.854919429812721 ], [ -48.580604432761902, -27.854901570437562 ], [ -48.580604629170971, -27.854892727809577 ], [ -48.580605022028578, -27.854875040764455 ], [ -48.580605414846097, -27.8548573555084 ], [ -48.580596053028344, -27.854830652575043 ], [ -48.58059624946732, -27.854821808605177 ], [ -48.580586496847729, -27.854812790962693 ], [ -48.580567775215982, -27.854759384681085 ], [ -48.580568168037622, -27.854741699425222 ], [ -48.580558415417229, -27.854732682228541 ], [ -48.58055880828045, -27.854714995149202 ], [ -48.580549254639934, -27.854697134921697 ], [ -48.58054945105178, -27.854688292293812 ], [ -48.580540090788915, -27.854661588489769 ], [ -48.580530338177667, -27.854652571291602 ], [ -48.580510634532466, -27.854643379485843 ], [ -48.580500881925332, -27.854634362285818 ], [ -48.580491129359551, -27.854625343296078 ], [ -48.580412910150336, -27.854562045989908 ], [ -48.580335079851189, -27.854481063802105 ], [ -48.58032552374096, -27.854463202175467 ], [ -48.580315574736289, -27.854463027590764 ], [ -48.580305824716326, -27.854454010423602 ], [ -48.580296263995479, -27.854436150951571 ], [ -48.5802572537618, -27.854400080271851 ], [ -48.580227406766859, -27.854399556501917 ], [ -48.580207506757702, -27.854399207283056 ], [ -48.580187606710183, -27.854398858060645 ], [ -48.580177657712404, -27.854398683466371 ], [ -48.580157761768803, -27.854398334311679 ], [ -48.580137861722186, -27.854397985082109 ], [ -48.580127716281204, -27.854406653109738 ], [ -48.580117570838617, -27.854415321136514 ], [ -48.580087132457635, -27.854441326552617 ], [ -48.580076987008596, -27.854449994575962 ], [ -48.580067035993984, -27.854449819938086 ], [ -48.580016505628024, -27.854484319658585 ], [ -48.580006556120459, -27.854484145042651 ], [ -48.579986461656276, -27.854492638450751 ], [ -48.579946661572713, -27.854491939937841 ], [ -48.579857314988736, -27.854481525743445 ], [ -48.579837613460789, -27.85447233343481 ], [ -48.579827858914435, -27.854463316156103 ], [ -48.579818302891582, -27.854445454499587 ], [ -48.579808353892268, -27.854445279878416 ], [ -48.579788650313709, -27.854436087974683 ], [ -48.57976895083209, -27.85442689658764 ], [ -48.57972954578463, -27.854408510979567 ], [ -48.579719793266122, -27.854399493729385 ], [ -48.579710040749212, -27.854390476478606 ], [ -48.579700482699053, -27.854372616569169 ], [ -48.579680779192152, -27.854363424204728 ], [ -48.579670830201344, -27.854363249574103 ], [ -48.579660883726845, -27.854363074986939 ], [ -48.57963083824864, -27.854371394122865 ], [ -48.579620888754228, -27.854371219479763 ], [ -48.579570355793145, -27.854405716749124 ], [ -48.579560208256048, -27.854414386520265 ], [ -48.579539917293928, -27.854431722036288 ], [ -48.579509874315384, -27.854440040740872 ], [ -48.579460126817338, -27.854439167472623 ], [ -48.579440423273226, -27.854429975521008 ], [ -48.579400625280336, -27.854429276888034 ], [ -48.579380925837093, -27.85442008544765 ], [ -48.579351469858317, -27.85440187438746 ], [ -48.57931186838811, -27.854392333109313 ], [ -48.579291968355051, -27.854391983757804 ], [ -48.579282215876638, -27.854382966479019 ], [ -48.579232864000019, -27.854364407935833 ], [ -48.579223308085488, -27.854346546244535 ], [ -48.579203410113784, -27.854346196916794 ], [ -48.579193655605259, -27.854337179149102 ], [ -48.579184099659656, -27.854319319244691 ], [ -48.579174148663554, -27.854319144543172 ], [ -48.579164396191672, -27.854310127704267 ], [ -48.579154643731336, -27.854301110417474 ], [ -48.579135140868246, -27.854283074088308 ], [ -48.579135337391392, -27.854274231469155 ], [ -48.579106274584632, -27.854238335123867 ], [ -48.579106667644723, -27.854220649438538 ], [ -48.579106864169667, -27.854211806819496 ], [ -48.579097111711881, -27.854202790011062 ], [ -48.579087357303905, -27.854193770414184 ], [ -48.579068442030497, -27.85414920663251 ], [ -48.579048935103451, -27.854131172011165 ], [ -48.579029432799409, -27.854113137021017 ], [ -48.578999976461169, -27.854094925885054 ], [ -48.578990224033241, -27.854085908588441 ], [ -48.578980666620481, -27.854068049128017 ], [ -48.578961161311419, -27.854050012699535 ], [ -48.5789416564715, -27.85403197810103 ], [ -48.578932098578477, -27.854014118147379 ], [ -48.578912591737748, -27.853996081720236 ], [ -48.578903035875243, -27.853978221353046 ], [ -48.578893086925333, -27.853978046668558 ], [ -48.578883533602522, -27.8539601872397 ], [ -48.57888373014341, -27.853951344621791 ], [ -48.578873977234444, -27.853942327309365 ], [ -48.578864223360377, -27.853933308189536 ], [ -48.57886461644474, -27.853915622953878 ], [ -48.578845700782914, -27.853871058210316 ], [ -48.578846290402346, -27.853844530804214 ], [ -48.578846486995005, -27.853835685949988 ], [ -48.578846880070685, -27.853818001161592 ], [ -48.578847076613364, -27.853809158543736 ], [ -48.57884727319572, -27.853800314136738 ], [ -48.578847469738214, -27.853791471518857 ], [ -48.578847666280623, -27.853782628900962 ], [ -48.57884786282294, -27.853773786283053 ], [ -48.578869137049082, -27.853712235549263 ], [ -48.578869333629605, -27.853703391107597 ], [ -48.578869530169513, -27.853694548489447 ], [ -48.578869726709328, -27.853685705871282 ], [ -48.578890412760195, -27.853650683012468 ], [ -48.578890805845553, -27.853632997328457 ], [ -48.578891002383138, -27.853624154710076 ], [ -48.578891395448089, -27.853606469920557 ], [ -48.578892378173514, -27.853562255039204 ], [ -48.57889257475091, -27.853553410597186 ], [ -48.578892771287684, -27.853544567978698 ], [ -48.578892967824366, -27.853535725360182 ], [ -48.578893950556171, -27.853491510031052 ], [ -48.578894343618444, -27.853473825241146 ], [ -48.578894736730057, -27.853456138214796 ], [ -48.578885180397727, -27.853438278286717 ], [ -48.578865673631071, -27.853420243200411 ], [ -48.578866066706688, -27.853402557963413 ], [ -48.578866459822478, -27.853384870902833 ], [ -48.578866852887444, -27.853367186113026 ], [ -48.578856903993568, -27.853367011429437 ], [ -48.578847151638712, -27.853357994126696 ], [ -48.578837792442968, -27.853331289798106 ], [ -48.578828431131143, -27.853304586774218 ], [ -48.57880892446525, -27.853286550340489 ], [ -48.578804144476443, -27.853277616727947 ], [ -48.578799368653449, -27.853268690864002 ], [ -48.578799565195425, -27.853259848245759 ], [ -48.578779866488041, -27.85325065629544 ], [ -48.578780063071981, -27.853241811853763 ], [ -48.5787802596153, -27.853232969235609 ], [ -48.578770310231079, -27.853232794537711 ], [ -48.578760752930059, -27.853214934585331 ], [ -48.578760949484668, -27.853206091519983 ], [ -48.57875119667824, -27.853197072860993 ], [ -48.578751393223534, -27.853188230242964 ], [ -48.578741640902791, -27.853179212486825 ], [ -48.578712578495292, -27.853143316114352 ], [ -48.578693073839929, -27.853125281938631 ], [ -48.578683122917745, -27.853125107207866 ], [ -48.578673370598345, -27.853116089894822 ], [ -48.578653667398974, -27.853106897849074 ], [ -48.578614267089321, -27.853088512066638 ], [ -48.578594563900417, -27.853079320013038 ], [ -48.578574666169331, -27.853078970609186 ], [ -48.57855515955675, -27.853060935451627 ], [ -48.578525507476968, -27.853051568683824 ], [ -48.578486105198223, -27.85303318283189 ], [ -48.578456651742428, -27.85301497391702 ], [ -48.578407493178531, -27.852987570646267 ], [ -48.578377843688379, -27.852978203893521 ], [ -48.578328883221673, -27.852941957525388 ], [ -48.578309378676821, -27.85292392288828 ], [ -48.578289872116279, -27.852905888626307 ], [ -48.578260419283126, -27.852887677411459 ], [ -48.57823096541307, -27.852869467996751 ], [ -48.578231161997856, -27.852860625381716 ], [ -48.578211655511375, -27.852842588873646 ], [ -48.578211852097503, -27.8528337462587 ], [ -48.578212048693473, -27.85282490319646 ], [ -48.57819234760202, -27.852815711125526 ], [ -48.578144368736076, -27.852735250705123 ], [ -48.578095607554573, -27.852690164000396 ], [ -48.578085855373743, -27.852681144379957 ], [ -48.578065955709896, -27.852680794871961 ], [ -48.57805600688458, -27.852680620134567 ], [ -48.578036107182555, -27.852680270621594 ], [ -48.578016212087441, -27.85267992118667 ], [ -48.577996117281742, -27.852688416579703 ], [ -48.577955926766691, -27.852705402315358 ], [ -48.577935830454187, -27.852713895400967 ], [ -48.577925881626811, -27.852713720654002 ], [ -48.577915734167497, -27.852722388931397 ], [ -48.577905588729472, -27.852731056796017 ], [ -48.57787554613428, -27.852739375167843 ], [ -48.577855451317838, -27.852747870091619 ], [ -48.577815260750704, -27.852764856265033 ], [ -48.577805311919562, -27.852764681509083 ], [ -48.577785412205891, -27.85276433195898 ], [ -48.577755563700599, -27.852763807647165 ], [ -48.577735668052426, -27.852763458161302 ], [ -48.57770581954847, -27.852762933838733 ], [ -48.577695870718316, -27.852762759074903 ], [ -48.577675971045323, -27.852762409509726 ], [ -48.577666022215432, -27.852762234743743 ], [ -48.577616278067325, -27.852761360903081 ], [ -48.577606329237966, -27.852761186132792 ], [ -48.577596378357043, -27.852761011325761 ], [ -48.577586429527869, -27.852760836554044 ], [ -48.577566728546273, -27.852751644398325 ], [ -48.577527912423953, -27.852706729903623 ], [ -48.577528109064417, -27.852697887292983 ], [ -48.57752850233436, -27.852680202553366 ], [ -48.577518553513059, -27.852680027777222 ], [ -48.577519143476337, -27.852653498121825 ], [ -48.577519340117071, -27.852644655511178 ] ] ] ] } },
{ "type": "Feature", "properties": { "CODIGO": "IPL-007", "NM_ILHA": "Laje da Pinheira", "NM_MUN": "Palhoça", "AREA_KM2": 1.445, "AREA_M2": 14453.455, "LOCALIDADE": "Ponta da Pinheira", "PERT_UC": "SIM", "LATITUDE": -27.863486, "LONGITUDE": -48.570837 }, "geometry": { "type": "MultiPolygon", "coordinates": [ [ [ [ -48.57086242793283, -27.86271918147138 ], [ -48.569969816899011, -27.863507033748242 ], [ -48.57085709245959, -27.864265769306957 ], [ -48.571682635766194, -27.863433526571583 ], [ -48.57086242793283, -27.86271918147138 ] ] ] ] } },
{ "type": "Feature", "properties": { "CODIGO": "IPL-010", "NM_ILHA": "Parcel de Garopaba", "NM_MUN": "Garopaba", "AREA_KM2": 3.79, "AREA_M2": 37904.973, "LOCALIDADE": "Ponta do Galeão", "PERT_UC": "SIM", "LATITUDE": -28.018707, "LONGITUDE": -48.590356 }, "geometry": { "type": "MultiPolygon", "coordinates": [ [ [ [ -48.591895957631635, -28.02021054287761 ], [ -48.589434466850676, -28.016677364142151 ], [ -48.58877310529045, -28.016828713740843 ], [ -48.59101467992361, -28.020616062367377 ], [ -48.591895957631635, -28.02021054287761 ] ] ] ] } }
]
}
