{
"type": "FeatureCollection",
"name": "ilhas_apabf_ponto",
"crs": { "type": "name", "properties": { "name": "urn:ogc:def:crs:EPSG::4674" } },
"features": [
{ "type": "Feature", "properties": { "CODIGO": "IPL-005", "NM_ILHA": "Laje Moleques do Sul", "NM_MUN": "Florianópolis", "AREA_KM2": 0.411, "AREA_M2": 4107.541, "LOCALIDADE": "ZEE", "PERT_UC": "NÃO", "LATITUDE": -27.853196, "LONGITUDE": -48.444362 }, "geometry": { "type": "Point", "coordinates": [ -48.444362055345948, -27.85319626310779 ] } },
{ "type": "Feature", "properties": { "CODIGO": "IPL-002", "NM_ILHA": "Ilha Irmã de Fora", "NM_MUN": "Florianópolis", "AREA_KM2": 40.214, "AREA_M2": 402136.382, "LOCALIDADE": "Praia do Saquinho", "PERT_UC": "NÃO", "LATITUDE": -27.83766, "LONGITUDE": -48.504465 }, "geometry": { "type": "Point", "coordinates": [ -48.504465271082978, -27.837660244483907 ] } },
{ "type": "Feature", "properties": { "CODIGO": "IPL-017", "NM_ILHA": "Ilha Tacami", "NM_MUN": "Imbituba", "AREA_KM2": 0.705, "AREA_M2": 7049.017, "LOCALIDADE": "ZEE", "PERT_UC": "SIM", "LATITUDE": -28.351884, "LONGITUDE": -48.60112 }, "geometry": { "type": "Point", "coordinates": [ -48.601119729901136, -28.351884141994059 ] } },
{ "type": "Feature", "properties": { "CODIGO": "IPL-018", "NM_ILHA": "Ilha dos Lobos", "NM_MUN": "Laguna", "AREA_KM2": 8.1, "AREA_M2": 81004.55, "LOCALIDADE": "ZEE", "PERT_UC": "SIM", "LATITUDE": -28.447121, "LONGITUDE": -48.708781 }, "geometry": { "type": "Point", "coordinates": [ -48.708780987258152, -28.447121132089332 ] } },
{ "type": "Feature", "properties": { "CODIGO": "IPL-015", "NM_ILHA": "Ilha Santana de Fora", "NM_MUN": "Imbituba", "AREA_KM2": 4.511, "AREA_M2": 45106.998, "LOCALIDADE": "Praia da Vila", "PERT_UC": "SIM", "LATITUDE": -28.248082, "LONGITUDE": -48.654097 }, "geometry": { "type": "Point", "coordinates": [ -48.654096964440939, -28.248081921618301 ] } },
{ "type": "Feature", "properties": { "CODIGO": "IPL-001", "NM_ILHA": "Ilha Irmã Pequena", "NM_MUN": "Florianópolis", "AREA_KM2": 9.927, "AREA_M2": 99272.569, "LOCALIDADE": "Praia do Saquinho", "PERT_UC": "NÃO", "LATITUDE": -27.831367, "LONGITUDE": -48.528573 }, "geometry": { "type": "Point", "coordinates": [ -48.528572820282903, -27.831367391495178 ] } },
{ "type": "Feature", "properties": { "CODIGO": "IPL-014", "NM_ILHA": "Ilha Santana de Dentro", "NM_MUN": "Imbituba", "AREA_KM2": 4.368, "AREA_M2": 43677.171, "LOCALIDADE": "Praia da Vila", "PERT_UC": "SIM", "LATITUDE": -28.241343, "LONGITUDE": -48.651319 }, "geometry": { "type": "Point", "coordinates": [ -48.651319034504382, -28.241342632218164 ] } },
{ "type": "Feature", "properties": { "CODIGO": "IPL-016", "NM_ILHA": "Ilha das Araras", "NM_MUN": "Imbituba", "AREA_KM2": 10.896, "AREA_M2": 108957.941, "LOCALIDADE": "ZEE", "PERT_UC": "SIM", "LATITUDE": -28.321593, "LONGITUDE": -48.648337 }, "geometry": { "type": "Point", "coordinates": [ -48.648337323005038, -28.321592662320491 ] } },
{ "type": "Feature", "properties": { "CODIGO": "IPL-012", "NM_ILHA": "Ilha do Batuta", "NM_MUN": "Imbituba", "AREA_KM2": 8.644, "AREA_M2": 86436.335, "LOCALIDADE": "Praia do Luz", "PERT_UC": "SIM", "LATITUDE": -28.152756, "LONGITUDE": -48.642029 }, "geometry": { "type": "Point", "coordinates": [ -48.642028647408793, -28.152756036765211 ] } },
{ "type": "Feature", "properties": { "CODIGO": "IPL-013", "NM_ILHA": "Sem nome1", "NM_MUN": "Imbituba", "AREA_KM2": 0.335, "AREA_M2": 3354.828, "LOCALIDADE": "Praia da Ribanceira", "PERT_UC": "SIM", "LATITUDE": -28.189099, "LONGITUDE": -48.656391 }, "geometry": { "type": "Point", "coordinates": [ -48.656391144341775, -28.189098976188639 ] } },
{ "type": "Feature", "properties": { "CODIGO": "IPL-009", "NM_ILHA": "Ilhota do Siriú", "NM_MUN": "Garopaba", "AREA_KM2": 2.392, "AREA_M2": 23918.904, "LOCALIDADE": "Praia do Siriú", "PERT_UC": "NÃO", "LATITUDE": -27.987293, "LONGITUDE": -48.617401 }, "geometry": { "type": "Point", "coordinates": [ -48.617400779258787, -27.987292725722565 ] } },
{ "type": "Feature", "properties": { "CODIGO": "IPL-008", "NM_ILHA": "Ilha de Coral", "NM_MUN": "Paulo Lopes", "AREA_KM2": 34.824, "AREA_M2": 348241.014, "LOCALIDADE": "ZEE", "PERT_UC": "NÃO", "LATITUDE": -27.936539, "LONGITUDE": -48.542785 }, "geometry": { "type": "Point", "coordinates": [ -48.542785176195125, -27.936538682539439 ] } },
{ "type": "Feature", "properties": { "CODIGO": "IPL-003", "NM_ILHA": "Ilha Irmã do Meio", "NM_MUN": "Florianópolis", "AREA_KM2": 59.065, "AREA_M2": 590646.899, "LOCALIDADE": "Praia do Saquinho", "PERT_UC": "NÃO", "LATITUDE": -27.839261, "LONGITUDE": -48.525134 }, "geometry": { "type": "Point", "coordinates": [ -48.525134436223198, -27.839261421353442 ] } },
{ "type": "Feature", "properties": { "CODIGO": "IPL-004", "NM_ILHA": "Ilha dos Moleques do Sul", "NM_MUN": "Florianópolis", "AREA_KM2": 16.682, "AREA_M2": 166818.397, "LOCALIDADE": "ZEE", "PERT_UC": "NÃO", "LATITUDE": -27.845071, "LONGITUDE": -48.430911 }, "geometry": { "type": "Point", "coordinates": [ -48.430910909395593, -27.845070931051755 ] } },
{ "type": "Feature", "properties": { "CODIGO": "IPL-011", "NM_ILHA": "Ilhota do Ouvidor", "NM_MUN": "Garopaba", "AREA_KM2": 0.734, "AREA_M2": 7337.376, "LOCALIDADE": "Praia do Ouvidor", "PERT_UC": "NÃO", "LATITUDE": -28.102209, "LONGITUDE": -48.627097 }, "geometry": { "type": "Point", "coordinates": [ -48.62709681422821, -28.102209366235552 ] } },
{ "type": "Feature", "properties": { "CODIGO": "IPL-019", "NM_ILHA": "Ilha Marta Pequeno", "NM_MUN": "Laguna", "AREA_KM2": 2.954, "AREA_M2": 29538.674, "LOCALIDADE": "Praia de Santa Marta Pequeno", "PERT_UC": "SIM", "LATITUDE": -28.539555, "LONGITUDE": -48.758963 }, "geometry": { "type": "Point", "coordinates": [ -48.758963052102985, -28.53955549431193 ] } },
{ "type": "Feature", "properties": { "CODIGO": "IPL-006", "NM_ILHA": "Ilha dos Papagaios Pequena", "NM_MUN": "Palhoça", "AREA_KM2": 15.693, "AREA_M2": 156932.569, "LOCALIDADE": "Praia da Pinheira", "PERT_UC": "NÃO", "LATITUDE": -27.855161, "LONGITUDE": -48.578701 }, "geometry": { "type": "Point", "coordinates": [ -48.57870099096403, -27.855160543373856 ] } },
{ "type": "Feature", "properties": { "CODIGO": "IPL-007", "NM_ILHA": "Laje da Pinheira", "NM_MUN": "Palhoça", "AREA_KM2": 1.445, "AREA_M2": 14453.455, "LOCALIDADE": "Ponta da Pinheira", "PERT_UC": "SIM", "LATITUDE": -27.863486, "LONGITUDE": -48.570837 }, "geometry": { "type": "Point", "coordinates": [ -48.570837377104894, -27.863485557858034 ] } },
{ "type": "Feature", "properties": { "CODIGO": "IPL-010", "NM_ILHA": "Parcel de Garopaba", "NM_MUN": "Garopaba", "AREA_KM2": 3.79, "AREA_M2": 37904.973, "LOCALIDADE": "Ponta do Galeão", "PERT_UC": "SIM", "LATITUDE": -28.018707, "LONGITUDE": -48.590356 }, "geometry": { "type": "Point", "coordinates": [ -48.590356090334332, -28.018707082913895 ] } }
]
}
