<?xml version="1.0" encoding="utf-8" ?>
<kml xmlns="http://www.opengis.net/kml/2.2">
<Document id="root_doc">
<Schema name="ilhas_apabf_poligono" id="ilhas_apabf_poligono">
	<SimpleField name="CODIGO" type="string"></SimpleField>
	<SimpleField name="NM_ILHA" type="string"></SimpleField>
	<SimpleField name="NM_MUN" type="string"></SimpleField>
	<SimpleField name="AREA_KM2" type="float"></SimpleField>
	<SimpleField name="AREA_M2" type="float"></SimpleField>
	<SimpleField name="LOCALIDADE" type="string"></SimpleField>
	<SimpleField name="PERT_UC" type="string"></SimpleField>
	<SimpleField name="LATITUDE" type="float"></SimpleField>
	<SimpleField name="LONGITUDE" type="float"></SimpleField>
</Schema>
<Folder><name>ilhas_apabf_poligono</name>
  <Placemark id="ilhas_apabf_poligono.1">
	<Style><LineStyle><color>ff0000ff</color></LineStyle><PolyStyle><fill>0</fill></PolyStyle></Style>
	<ExtendedData><SchemaData schemaUrl="#ilhas_apabf_poligono">
		<SimpleData name="CODIGO">IPL-005</SimpleData>
		<SimpleData name="NM_ILHA">Laje Moleques do Sul</SimpleData>
		<SimpleData name="NM_MUN">Florianópolis</SimpleData>
		<SimpleData name="AREA_KM2">0.411</SimpleData>
		<SimpleData name="AREA_M2">4107.541</SimpleData>
		<SimpleData name="LOCALIDADE">ZEE</SimpleData>
		<SimpleData name="PERT_UC">NÃO</SimpleData>
		<SimpleData name="LATITUDE">-27.853196</SimpleData>
		<SimpleData name="LONGITUDE">-48.444362</SimpleData>
	</SchemaData></ExtendedData>
      <MultiGeometry><Polygon><outerBoundaryIs><LinearRing><coordinates>-48.4444581,-27.8529934 -48.4442698,-27.8527956 -48.4442521,-27.8527748 -48.4440932,-27.8526811 -48.4440756,-27.8526811 -48.443952,-27.8527279 -48.4439637,-27.8528996 -48.4439637,-27.8529256 -48.4440461,-27.853061 -48.4440578,-27.8530818 -48.4442285,-27.8532743 -48.4442579,-27.8533056 -48.4442696,-27.8533212 -48.444352,-27.8534044 -48.4443697,-27.8534305 -48.4443814,-27.8534565 -48.4444226,-27.8535918 -48.4444285,-27.8536178 -48.4444638,-27.8536751 -48.4444814,-27.8536959 -48.4445756,-27.8537687 -48.4446521,-27.8537531 -48.4446933,-27.8536595 -48.4447051,-27.8536491 -48.4447522,-27.853545 -48.4445993,-27.853212 -48.4445346,-27.8530506 -48.4444581,-27.8529934</coordinates></LinearRing></outerBoundaryIs></Polygon></MultiGeometry>
  </Placemark>
  <Placemark id="ilhas_apabf_poligono.2">
	<Style><LineStyle><color>ff0000ff</color></LineStyle><PolyStyle><fill>0</fill></PolyStyle></Style>
	<ExtendedData><SchemaData schemaUrl="#ilhas_apabf_poligono">
		<SimpleData name="CODIGO">IPL-002</SimpleData>
		<SimpleData name="NM_ILHA">Ilha Irmã de Fora</SimpleData>
		<SimpleData name="NM_MUN">Florianópolis</SimpleData>
		<SimpleData name="AREA_KM2">40.214</SimpleData>
		<SimpleData name="AREA_M2">402136.382</SimpleData>
		<SimpleData name="LOCALIDADE">Praia do Saquinho</SimpleData>
		<SimpleData name="PERT_UC">NÃO</SimpleData>
		<SimpleData name="LATITUDE">-27.837660</SimpleData>
		<SimpleData name="LONGITUDE">-48.504465</SimpleData>
	</SchemaData></ExtendedData>
      <MultiGeometry><Polygon><outerBoundaryIs><LinearRing><coordinates>-48.5013848,-27.8349838 -48.5010997,-27.8355671 -48.5012802,-27.8366013 -48.5012972,-27.8366476 -48.5013073,-27.8373259 -48.5013068,-27.8373721 -48.5013323,-27.8382354 -48.5013322,-27.8382508 -48.501258,-27.8386664 -48.5014251,-27.8393305 -48.5016434,-27.840103 -48.5020396,-27.8405379 -48.5021438,-27.8405696 -48.502543,-27.840727 -48.5025777,-27.8407427 -48.5030303,-27.8407928 -48.5031176,-27.8407781 -48.5031699,-27.8407785 -48.5034317,-27.8407499 -48.5035017,-27.8407196 -48.5035366,-27.8407199 -48.5036242,-27.8406744 -48.5039035,-27.8406304 -48.5041612,-27.8409872 -48.5042128,-27.8410494 -48.5043672,-27.8412819 -48.5046283,-27.841315 -48.5049263,-27.8411633 -48.5052275,-27.8407034 -48.5053692,-27.8404888 -48.505387,-27.8404581 -48.5056876,-27.8400599 -48.5056879,-27.8400291 -48.5058984,-27.8399076 -48.5059158,-27.8399077 -48.5061768,-27.8399562 -48.5061942,-27.8399564 -48.5068193,-27.8401929 -48.507135,-27.8400106 -48.5071373,-27.8397793 -48.5071375,-27.8397639 -48.5072461,-27.8393795 -48.5072642,-27.8393179 -48.5074408,-27.8391036 -48.507807,-27.8390913 -48.5080521,-27.8390009 -48.5080697,-27.8389857 -48.5082826,-27.838633 -48.5083002,-27.8386177 -48.508601,-27.8382041 -48.5085343,-27.8379107 -48.508245,-27.8372455 -48.5080282,-27.8363497 -48.5079258,-27.8361485 -48.5077364,-27.8359311 -48.5074071,-27.8357588 -48.5073552,-27.8357276 -48.5068671,-27.8357235 -48.5067973,-27.8357229 -48.5064487,-27.83572 -48.5063101,-27.8356418 -48.5062926,-27.8356417 -48.5062253,-27.8354253 -48.5060385,-27.8349768 -48.5060216,-27.8349304 -48.5057466,-27.8345735 -48.5052595,-27.8344924 -48.5048559,-27.8347356 -48.5048207,-27.8347662 -48.5045398,-27.8349488 -48.504505,-27.8349485 -48.5041221,-27.834899 -48.5041048,-27.8348835 -48.5039488,-27.8348051 -48.5038969,-27.8347738 -48.5037771,-27.8345724 -48.5037427,-27.8345259 -48.503309,-27.8343373 -48.5028537,-27.8345338 -48.5025206,-27.834716 -48.5023107,-27.8346108 -48.5019513,-27.8346347 -48.5017181,-27.8346327 -48.5015804,-27.8345817 -48.5015215,-27.8347324 -48.5015186,-27.8348945 -48.5013848,-27.8349838</coordinates></LinearRing></outerBoundaryIs></Polygon></MultiGeometry>
  </Placemark>
  <Placemark id="ilhas_apabf_poligono.3">
	<Style><LineStyle><color>ff0000ff</color></LineStyle><PolyStyle><fill>0</fill></PolyStyle></Style>
	<ExtendedData><SchemaData schemaUrl="#ilhas_apabf_poligono">
		<SimpleData name="CODIGO">IPL-017</SimpleData>
		<SimpleData name="NM_ILHA">Ilha Tacami</SimpleData>
		<SimpleData name="NM_MUN">Imbituba</SimpleData>
		<SimpleData name="AREA_KM2">0.705</SimpleData>
		<SimpleData name="AREA_M2">7049.017</SimpleData>
		<SimpleData name="LOCALIDADE">ZEE</SimpleData>
		<SimpleData name="PERT_UC">SIM</SimpleData>
		<SimpleData name="LATITUDE">-28.351884</SimpleData>
		<SimpleData name="LONGITUDE">-48.601120</SimpleData>
	</SchemaData></ExtendedData>
      <MultiGeometry><Polygon><outerBoundaryIs><LinearRing><coordinates>-48.6012472,-28.3520422 -48.6013846,-28.3519857 -48.6014332,-28.3518814 -48.6014332,-28.3518762 -48.6013922,-28.3518183 -48.6013212,-28.3517811 -48.6013093,-28.3517758 -48.6011733,-28.3516962 -48.6010615,-28.351575 -48.6009373,-28.351506 -48.6007181,-28.3514258 -48.6006402,-28.351488 -48.6006038,-28.351561 -48.6005614,-28.3516392 -48.6005252,-28.3516913 -48.6005132,-28.3517016 -48.6004352,-28.3517638 -48.6004292,-28.351769 -48.600417,-28.3518003 -48.6004222,-28.3518789 -48.6004279,-28.3518999 -48.600611,-28.3520269 -48.600617,-28.3520269 -48.6008176,-28.3521855 -48.6008294,-28.352196 -48.600841,-28.3522223 -48.6009592,-28.3522965 -48.6010727,-28.3522502 -48.6010906,-28.3522451 -48.6011924,-28.3521726 -48.6012106,-28.3521414 -48.6012472,-28.3520422</coordinates></LinearRing></outerBoundaryIs></Polygon><Polygon><outerBoundaryIs><LinearRing><coordinates>-48.6020828,-28.3523365 -48.6020596,-28.352284 -48.6020306,-28.3522052 -48.6020021,-28.3520847 -48.6019906,-28.3520427 -48.601937,-28.3520475 -48.6019068,-28.3520944 -48.6019068,-28.3520996 -48.6018879,-28.3521989 -48.6018878,-28.3522094 -48.6018989,-28.3522984 -48.6019521,-28.3523303 -48.6019991,-28.3523882 -48.6020638,-28.352462 -48.6020696,-28.3524725 -48.6020985,-28.3525564 -48.6021457,-28.3525934 -48.602176,-28.3525361 -48.6021471,-28.3524521 -48.6021354,-28.3524363 -48.6020887,-28.352347 -48.6020828,-28.3523365</coordinates></LinearRing></outerBoundaryIs></Polygon><Polygon><outerBoundaryIs><LinearRing><coordinates>-48.6018514,-28.3516805 -48.6017753,-28.3515595 -48.6016985,-28.3515066 -48.601621,-28.3515322 -48.6016027,-28.3515739 -48.6016252,-28.3517049 -48.6016311,-28.3517155 -48.6016418,-28.3518359 -48.6016644,-28.3519565 -48.6017536,-28.3519519 -48.6018491,-28.351916 -48.6018736,-28.3518482 -48.6018684,-28.3517748 -48.6018514,-28.3516805</coordinates></LinearRing></outerBoundaryIs></Polygon></MultiGeometry>
  </Placemark>
  <Placemark id="ilhas_apabf_poligono.4">
	<Style><LineStyle><color>ff0000ff</color></LineStyle><PolyStyle><fill>0</fill></PolyStyle></Style>
	<ExtendedData><SchemaData schemaUrl="#ilhas_apabf_poligono">
		<SimpleData name="CODIGO">IPL-018</SimpleData>
		<SimpleData name="NM_ILHA">Ilha dos Lobos</SimpleData>
		<SimpleData name="NM_MUN">Laguna</SimpleData>
		<SimpleData name="AREA_KM2">8.100</SimpleData>
		<SimpleData name="AREA_M2">81004.550</SimpleData>
		<SimpleData name="LOCALIDADE">ZEE</SimpleData>
		<SimpleData name="PERT_UC">SIM</SimpleData>
		<SimpleData name="LATITUDE">-28.447121</SimpleData>
		<SimpleData name="LONGITUDE">-48.708781</SimpleData>
	</SchemaData></ExtendedData>
      <MultiGeometry><Polygon><outerBoundaryIs><LinearRing><coordinates>-48.706958,-28.4468555 -48.7072578,-28.4471233 -48.7074987,-28.4472313 -48.707511,-28.4475369 -48.7075106,-28.4475901 -48.7076281,-28.4479629 -48.707673,-28.4480164 -48.7082132,-28.4484453 -48.7085441,-28.4486203 -48.7085893,-28.4486339 -48.7087554,-28.4486483 -48.7090288,-28.4484908 -48.7093171,-28.4483599 -48.7096663,-28.4481763 -48.7099072,-28.4482709 -48.7101788,-28.4483259 -48.7103311,-28.4481941 -48.7104847,-28.4479162 -48.7105929,-28.4476379 -48.7105947,-28.4474386 -48.7105225,-28.447066 -48.7104201,-28.44668 -48.7102556,-28.4464929 -48.7097588,-28.4462769 -48.7096396,-28.44609 -48.7092926,-28.4460212 -48.7090652,-28.4460994 -48.708808,-28.4461375 -48.7087493,-28.4459378 -48.708584,-28.4458303 -48.7083438,-28.4456559 -48.7079959,-28.4456934 -48.7078145,-28.4457054 -48.7077844,-28.4456919 -48.7075271,-28.44573 -48.7073904,-28.4458088 -48.7073752,-28.445822 -48.7071915,-28.4460864 -48.7071457,-28.4461393 -48.7071,-28.4461788 -48.7069454,-28.4465764 -48.706958,-28.4468555</coordinates></LinearRing></outerBoundaryIs></Polygon></MultiGeometry>
  </Placemark>
  <Placemark id="ilhas_apabf_poligono.5">
	<Style><LineStyle><color>ff0000ff</color></LineStyle><PolyStyle><fill>0</fill></PolyStyle></Style>
	<ExtendedData><SchemaData schemaUrl="#ilhas_apabf_poligono">
		<SimpleData name="CODIGO">IPL-015</SimpleData>
		<SimpleData name="NM_ILHA">Ilha Santana de Fora</SimpleData>
		<SimpleData name="NM_MUN">Imbituba</SimpleData>
		<SimpleData name="AREA_KM2">4.511</SimpleData>
		<SimpleData name="AREA_M2">45106.998</SimpleData>
		<SimpleData name="LOCALIDADE">Praia da Vila</SimpleData>
		<SimpleData name="PERT_UC">SIM</SimpleData>
		<SimpleData name="LATITUDE">-28.248082</SimpleData>
		<SimpleData name="LONGITUDE">-48.654097</SimpleData>
	</SchemaData></ExtendedData>
      <MultiGeometry><Polygon><outerBoundaryIs><LinearRing><coordinates>-48.6550005,-28.249053 -48.6551086,-28.2488403 -48.6553376,-28.2486551 -48.6553393,-28.2484683 -48.655145,-28.2481867 -48.6548815,-28.2479479 -48.654788,-28.2475122 -48.6548652,-28.2473305 -48.6549126,-28.2471307 -48.6548683,-28.2470102 -48.6546419,-28.2469152 -48.654219,-28.2467786 -48.653854,-28.2469228 -48.6533968,-28.247213 -48.6533662,-28.2472395 -48.6530447,-28.2475975 -48.6528431,-28.2480898 -48.6529597,-28.2485844 -48.6529747,-28.2485979 -48.6532005,-28.2487463 -48.653545,-28.2488788 -48.6537521,-28.2491144 -48.6540753,-28.249113 -48.6544126,-28.2491875 -48.6547152,-28.2492732 -48.6549298,-28.249251 -48.6550005,-28.249053</coordinates></LinearRing></outerBoundaryIs></Polygon></MultiGeometry>
  </Placemark>
  <Placemark id="ilhas_apabf_poligono.6">
	<Style><LineStyle><color>ff0000ff</color></LineStyle><PolyStyle><fill>0</fill></PolyStyle></Style>
	<ExtendedData><SchemaData schemaUrl="#ilhas_apabf_poligono">
		<SimpleData name="CODIGO">IPL-001</SimpleData>
		<SimpleData name="NM_ILHA">Ilha Irmã Pequena</SimpleData>
		<SimpleData name="NM_MUN">Florianópolis</SimpleData>
		<SimpleData name="AREA_KM2">9.927</SimpleData>
		<SimpleData name="AREA_M2">99272.569</SimpleData>
		<SimpleData name="LOCALIDADE">Praia do Saquinho</SimpleData>
		<SimpleData name="PERT_UC">NÃO</SimpleData>
		<SimpleData name="LATITUDE">-27.831367</SimpleData>
		<SimpleData name="LONGITUDE">-48.528573</SimpleData>
	</SchemaData></ExtendedData>
      <MultiGeometry><Polygon><outerBoundaryIs><LinearRing><coordinates>-48.5293295,-27.8327055 -48.5294453,-27.8325606 -48.5295457,-27.8326624 -48.5296713,-27.8327869 -48.5299627,-27.8328229 -48.5300917,-27.832622 -48.5302346,-27.832309 -48.5302759,-27.8319952 -48.5302019,-27.8317926 -48.5302024,-27.8317478 -48.5301035,-27.8315001 -48.5301037,-27.8314777 -48.5299293,-27.8311733 -48.5297444,-27.8306557 -48.5295826,-27.8303626 -48.5293579,-27.830013 -48.5292838,-27.8298216 -48.5290564,-27.82973 -48.5287653,-27.8296603 -48.52874,-27.8296489 -48.5284369,-27.8295229 -48.5281853,-27.8293189 -48.527908,-27.8291483 -48.5277429,-27.8291581 -48.5275899,-27.8292354 -48.5273486,-27.8292559 -48.5270819,-27.8292761 -48.5269259,-27.8296339 -48.526913,-27.8296562 -48.5268485,-27.8297566 -48.5268226,-27.8298013 -48.5267063,-27.8300023 -48.5267804,-27.8301937 -48.5269828,-27.8302514 -48.5274377,-27.8304347 -48.5274629,-27.8304462 -48.5277909,-27.8306284 -48.5279298,-27.8306857 -48.5279014,-27.8309771 -48.5279012,-27.8309996 -48.5277583,-27.8313125 -48.5275738,-27.8319617 -48.5275735,-27.8319954 -48.5275197,-27.8322867 -48.5275194,-27.8323091 -48.5275647,-27.8328256 -48.5276739,-27.8332977 -48.5279892,-27.8334799 -48.5284316,-27.8336406 -48.5284568,-27.833652 -48.5287994,-27.8336548 -48.5289272,-27.8335661 -48.5289422,-27.8333418 -48.5291234,-27.8330067 -48.5293295,-27.8327055</coordinates></LinearRing></outerBoundaryIs></Polygon></MultiGeometry>
  </Placemark>
  <Placemark id="ilhas_apabf_poligono.7">
	<Style><LineStyle><color>ff0000ff</color></LineStyle><PolyStyle><fill>0</fill></PolyStyle></Style>
	<ExtendedData><SchemaData schemaUrl="#ilhas_apabf_poligono">
		<SimpleData name="CODIGO">IPL-014</SimpleData>
		<SimpleData name="NM_ILHA">Ilha Santana de Dentro</SimpleData>
		<SimpleData name="NM_MUN">Imbituba</SimpleData>
		<SimpleData name="AREA_KM2">4.368</SimpleData>
		<SimpleData name="AREA_M2">43677.171</SimpleData>
		<SimpleData name="LOCALIDADE">Praia da Vila</SimpleData>
		<SimpleData name="PERT_UC">SIM</SimpleData>
		<SimpleData name="LATITUDE">-28.241343</SimpleData>
		<SimpleData name="LONGITUDE">-48.651319</SimpleData>
	</SchemaData></ExtendedData>
      <MultiGeometry><Polygon><outerBoundaryIs><LinearRing><coordinates>-48.6518139,-28.2420014 -48.6522819,-28.2418841 -48.6525296,-28.2416062 -48.6526288,-28.2413174 -48.6527299,-28.2410993 -48.6525492,-28.2408216 -48.6523964,-28.240629 -48.652188,-28.2404492 -48.651829,-28.2402945 -48.6514442,-28.2402843 -48.6506512,-28.2406832 -48.6500861,-28.2410622 -48.6499498,-28.2412667 -48.6500598,-28.2417037 -48.6501558,-28.2418008 -48.6504351,-28.2420313 -48.6503353,-28.2421768 -48.6503361,-28.2423226 -48.6506238,-28.2424677 -48.6509916,-28.2424624 -48.6511889,-28.2424238 -48.6514179,-28.2422253 -48.651556,-28.2420395 -48.6518139,-28.2420014</coordinates></LinearRing></outerBoundaryIs></Polygon></MultiGeometry>
  </Placemark>
  <Placemark id="ilhas_apabf_poligono.8">
	<Style><LineStyle><color>ff0000ff</color></LineStyle><PolyStyle><fill>0</fill></PolyStyle></Style>
	<ExtendedData><SchemaData schemaUrl="#ilhas_apabf_poligono">
		<SimpleData name="CODIGO">IPL-016</SimpleData>
		<SimpleData name="NM_ILHA">Ilha das Araras</SimpleData>
		<SimpleData name="NM_MUN">Imbituba</SimpleData>
		<SimpleData name="AREA_KM2">10.896</SimpleData>
		<SimpleData name="AREA_M2">108957.941</SimpleData>
		<SimpleData name="LOCALIDADE">ZEE</SimpleData>
		<SimpleData name="PERT_UC">SIM</SimpleData>
		<SimpleData name="LATITUDE">-28.321593</SimpleData>
		<SimpleData name="LONGITUDE">-48.648337</SimpleData>
	</SchemaData></ExtendedData>
      <MultiGeometry><Polygon><outerBoundaryIs><LinearRing><coordinates>-48.6500007,-28.3246251 -48.6500713,-28.3241596 -48.6500316,-28.3236934 -48.6498193,-28.3228181 -48.6496283,-28.3220207 -48.6487154,-28.3205966 -48.648149,-28.3198546 -48.6475408,-28.3188599 -48.6472832,-28.3181202 -48.6472393,-28.3181005 -48.646646,-28.3178631 -48.6464444,-28.3181917 -48.6464404,-28.3186189 -48.64644,-28.3186577 -48.6463913,-28.3191427 -48.6465423,-28.3194934 -48.64685,-28.3196121 -48.6471786,-28.3198475 -48.6471327,-28.3200414 -48.6468981,-28.3200879 -48.6468045,-28.3203278 -48.6466791,-28.3206485 -48.6471457,-28.3209928 -48.6474258,-28.3216939 -48.6484289,-28.322905 -48.6484724,-28.3229635 -48.6487316,-28.3235479 -48.6490781,-28.32423 -48.6491437,-28.3242888 -48.6492516,-28.324542 -48.6492512,-28.3245808 -48.6491602,-28.3248714 -48.6491595,-28.324949 -48.6492009,-28.3252406 -48.6493305,-28.3255328 -48.6493521,-28.3255718 -48.6496157,-28.3256902 -48.649882,-28.3255174 -48.6499043,-28.3254981 -48.6499065,-28.3252652 -48.649778,-28.3248565 -48.6500007,-28.3246251</coordinates></LinearRing></outerBoundaryIs></Polygon></MultiGeometry>
  </Placemark>
  <Placemark id="ilhas_apabf_poligono.9">
	<Style><LineStyle><color>ff0000ff</color></LineStyle><PolyStyle><fill>0</fill></PolyStyle></Style>
	<ExtendedData><SchemaData schemaUrl="#ilhas_apabf_poligono">
		<SimpleData name="CODIGO">IPL-012</SimpleData>
		<SimpleData name="NM_ILHA">Ilha do Batuta</SimpleData>
		<SimpleData name="NM_MUN">Imbituba</SimpleData>
		<SimpleData name="AREA_KM2">8.644</SimpleData>
		<SimpleData name="AREA_M2">86436.335</SimpleData>
		<SimpleData name="LOCALIDADE">Praia do Luz</SimpleData>
		<SimpleData name="PERT_UC">SIM</SimpleData>
		<SimpleData name="LATITUDE">-28.152756</SimpleData>
		<SimpleData name="LONGITUDE">-48.642029</SimpleData>
	</SchemaData></ExtendedData>
      <MultiGeometry><Polygon><outerBoundaryIs><LinearRing><coordinates>-48.6438323,-28.1520538 -48.6434379,-28.1518471 -48.6430426,-28.1517277 -48.6425981,-28.1515788 -48.6423183,-28.1514748 -48.6418573,-28.1513258 -48.6411807,-28.1512771 -48.640883,-28.1513186 -48.6408664,-28.151333 -48.6406822,-28.1515937 -48.6405136,-28.1519565 -48.6403448,-28.1523484 -48.6403274,-28.1524357 -48.6403413,-28.1527124 -48.6403739,-28.1527564 -48.6405854,-28.1530928 -48.6406344,-28.1531514 -48.6408295,-28.1534732 -48.6408459,-28.1534879 -48.6409923,-28.1537219 -48.6410085,-28.1537512 -48.6410721,-28.1540138 -48.6412344,-28.1543062 -48.6414469,-28.1545408 -48.6419108,-28.154384 -48.6425901,-28.154156 -48.643006,-28.1538388 -48.643457,-28.1533034 -48.6438251,-28.152811 -48.6439604,-28.1524771 -48.6438323,-28.1520538</coordinates></LinearRing></outerBoundaryIs></Polygon></MultiGeometry>
  </Placemark>
  <Placemark id="ilhas_apabf_poligono.10">
	<Style><LineStyle><color>ff0000ff</color></LineStyle><PolyStyle><fill>0</fill></PolyStyle></Style>
	<ExtendedData><SchemaData schemaUrl="#ilhas_apabf_poligono">
		<SimpleData name="CODIGO">IPL-013</SimpleData>
		<SimpleData name="NM_ILHA">Sem nome1</SimpleData>
		<SimpleData name="NM_MUN">Imbituba</SimpleData>
		<SimpleData name="AREA_KM2">0.335</SimpleData>
		<SimpleData name="AREA_M2">3354.828</SimpleData>
		<SimpleData name="LOCALIDADE">Praia da Ribanceira</SimpleData>
		<SimpleData name="PERT_UC">SIM</SimpleData>
		<SimpleData name="LATITUDE">-28.189099</SimpleData>
		<SimpleData name="LONGITUDE">-48.656391</SimpleData>
	</SchemaData></ExtendedData>
      <MultiGeometry><Polygon><outerBoundaryIs><LinearRing><coordinates>-48.6559341,-28.1888701 -48.6560777,-28.1889605 -48.6563035,-28.1891052 -48.656324,-28.1893042 -48.6564266,-28.1895032 -48.6566113,-28.1895032 -48.656755,-28.1894308 -48.6567139,-28.1891776 -48.6565292,-28.1889243 -48.656283,-28.1887977 -48.6561393,-28.1886892 -48.6559546,-28.1887254 -48.6559341,-28.1888701</coordinates></LinearRing></outerBoundaryIs></Polygon></MultiGeometry>
  </Placemark>
  <Placemark id="ilhas_apabf_poligono.11">
	<Style><LineStyle><color>ff0000ff</color></LineStyle><PolyStyle><fill>0</fill></PolyStyle></Style>
	<ExtendedData><SchemaData schemaUrl="#ilhas_apabf_poligono">
		<SimpleData name="CODIGO">IPL-009</SimpleData>
		<SimpleData name="NM_ILHA">Ilhota do Siriú</SimpleData>
		<SimpleData name="NM_MUN">Garopaba</SimpleData>
		<SimpleData name="AREA_KM2">2.392</SimpleData>
		<SimpleData name="AREA_M2">23918.904</SimpleData>
		<SimpleData name="LOCALIDADE">Praia do Siriú</SimpleData>
		<SimpleData name="PERT_UC">NÃO</SimpleData>
		<SimpleData name="LATITUDE">-27.987293</SimpleData>
		<SimpleData name="LONGITUDE">-48.617401</SimpleData>
	</SchemaData></ExtendedData>
      <MultiGeometry><Polygon><outerBoundaryIs><LinearRing><coordinates>-48.6184595,-27.9876836 -48.6182908,-27.987595 -48.6181503,-27.9875191 -48.6179542,-27.9873555 -48.6178589,-27.9869931 -48.6173705,-27.9863782 -48.6171471,-27.9861146 -48.6169065,-27.9861627 -48.6167917,-27.9863489 -48.616763,-27.9863986 -48.6166627,-27.9865475 -48.6166341,-27.9865847 -48.6165187,-27.9868332 -48.6165181,-27.9868956 -48.6166015,-27.9870334 -48.6166575,-27.9870837 -48.6168115,-27.9872221 -48.6168815,-27.987285 -48.6169362,-27.9874725 -48.6169357,-27.9875224 -48.6169476,-27.9877469 -48.6170727,-27.9879599 -48.6171842,-27.9881104 -48.6172119,-27.9881605 -48.6172398,-27.9881981 -48.6174791,-27.9882873 -48.6175497,-27.9882878 -48.6176062,-27.9882882 -48.6179035,-27.9882156 -48.6179462,-27.9881785 -48.6182165,-27.987981 -48.6184581,-27.9878207 -48.6184595,-27.9876836</coordinates></LinearRing></outerBoundaryIs></Polygon></MultiGeometry>
  </Placemark>
  <Placemark id="ilhas_apabf_poligono.12">
	<Style><LineStyle><color>ff0000ff</color></LineStyle><PolyStyle><fill>0</fill></PolyStyle></Style>
	<ExtendedData><SchemaData schemaUrl="#ilhas_apabf_poligono">
		<SimpleData name="CODIGO">IPL-008</SimpleData>
		<SimpleData name="NM_ILHA">Ilha de Coral</SimpleData>
		<SimpleData name="NM_MUN">Paulo Lopes</SimpleData>
		<SimpleData name="AREA_KM2">34.824</SimpleData>
		<SimpleData name="AREA_M2">348241.014</SimpleData>
		<SimpleData name="LOCALIDADE">ZEE</SimpleData>
		<SimpleData name="PERT_UC">NÃO</SimpleData>
		<SimpleData name="LATITUDE">-27.936539</SimpleData>
		<SimpleData name="LONGITUDE">-48.542785</SimpleData>
	</SchemaData></ExtendedData>
      <MultiGeometry><Polygon><outerBoundaryIs><LinearRing><coordinates>-48.5404506,-27.9370066 -48.5404149,-27.9369904 -48.5400592,-27.9367024 -48.5399877,-27.936686 -48.5396473,-27.9366515 -48.5397339,-27.9369532 -48.5397335,-27.9369849 -48.5400156,-27.9374466 -48.5403681,-27.9380356 -48.5404646,-27.9390977 -48.5404725,-27.9400641 -48.5406463,-27.9405883 -48.5406462,-27.9406041 -48.5406812,-27.9406836 -48.5408547,-27.9412395 -48.5408725,-27.9412555 -48.5411552,-27.9416539 -48.5411906,-27.9417017 -48.541226,-27.9417495 -48.5417086,-27.9418959 -48.5422483,-27.9417261 -48.5425916,-27.9414754 -48.542628,-27.9414282 -48.5428124,-27.9409386 -48.5428683,-27.9407331 -48.5428871,-27.940654 -48.5429782,-27.9405122 -48.5433557,-27.9404202 -48.5435956,-27.9397727 -48.5436558,-27.9391553 -48.5438085,-27.9382695 -48.5438872,-27.9375889 -48.5440361,-27.9370674 -48.5443124,-27.9363568 -48.544728,-27.9360155 -48.5452654,-27.9354098 -48.5456435,-27.9348028 -48.5457044,-27.9340526 -48.5455023,-27.9330655 -48.5448761,-27.9319812 -48.5439472,-27.9318232 -48.5429598,-27.9319419 -48.5424369,-27.9322228 -48.5418545,-27.9330577 -48.5418543,-27.9330735 -48.5418533,-27.9331685 -48.5418786,-27.9341826 -48.541742,-27.9352428 -48.5416878,-27.9352899 -48.5416331,-27.9353687 -48.5415422,-27.9354947 -48.5415236,-27.9355579 -48.5412152,-27.9359039 -48.541179,-27.9359353 -48.5409192,-27.9367727 -48.5407894,-27.9371836 -48.5404506,-27.9370066</coordinates></LinearRing></outerBoundaryIs></Polygon></MultiGeometry>
  </Placemark>
  <Placemark id="ilhas_apabf_poligono.13">
	<Style><LineStyle><color>ff0000ff</color></LineStyle><PolyStyle><fill>0</fill></PolyStyle></Style>
	<ExtendedData><SchemaData schemaUrl="#ilhas_apabf_poligono">
		<SimpleData name="CODIGO">IPL-003</SimpleData>
		<SimpleData name="NM_ILHA">Ilha Irmã do Meio</SimpleData>
		<SimpleData name="NM_MUN">Florianópolis</SimpleData>
		<SimpleData name="AREA_KM2">59.065</SimpleData>
		<SimpleData name="AREA_M2">590646.899</SimpleData>
		<SimpleData name="LOCALIDADE">Praia do Saquinho</SimpleData>
		<SimpleData name="PERT_UC">NÃO</SimpleData>
		<SimpleData name="LATITUDE">-27.839261</SimpleData>
		<SimpleData name="LONGITUDE">-48.525134</SimpleData>
	</SchemaData></ExtendedData>
      <MultiGeometry><Polygon><outerBoundaryIs><LinearRing><coordinates>-48.5205607,-27.8378782 -48.5209261,-27.8381168 -48.5216866,-27.8382016 -48.522762,-27.838491 -48.5234329,-27.8386424 -48.5234454,-27.8386538 -48.5238992,-27.838938 -48.523937,-27.8389607 -48.5239874,-27.8389948 -48.5240748,-27.8391302 -48.5240999,-27.8391528 -48.5241986,-27.8394229 -48.5242106,-27.8394791 -48.524184,-27.8396023 -48.5241839,-27.8396135 -48.5240285,-27.839904 -48.5241132,-27.8402974 -48.5243636,-27.8408825 -48.5249765,-27.8417291 -48.5250015,-27.8417629 -48.5252918,-27.8419112 -48.5253045,-27.8419113 -48.5254942,-27.8419801 -48.5254907,-27.8423055 -48.525321,-27.8427529 -48.5250522,-27.8429639 -48.5248734,-27.8430746 -48.5249812,-27.8436813 -48.5249811,-27.8436926 -48.5250782,-27.8440973 -48.525078,-27.8441198 -48.5253673,-27.8443578 -48.5261755,-27.8447346 -48.5261881,-27.8447459 -48.5265919,-27.8449624 -48.5266677,-27.8449855 -48.5270359,-27.8449661 -48.5270742,-27.8449439 -48.5274684,-27.8448686 -48.5276077,-27.8448922 -48.5276456,-27.8449038 -48.5276835,-27.8449265 -48.5277577,-27.8451067 -48.5277557,-27.8452974 -48.5278438,-27.8453655 -48.5279455,-27.8453439 -48.5279583,-27.8453328 -48.5280094,-27.8452995 -48.5280997,-27.8451656 -48.5281382,-27.8451211 -48.5281896,-27.8450654 -48.5282282,-27.8450096 -48.5282542,-27.8449537 -48.5283573,-27.8447975 -48.5289574,-27.8444434 -48.5290084,-27.8444213 -48.5295964,-27.844011 -48.5296222,-27.8439663 -48.5299413,-27.8437895 -48.5300304,-27.8437679 -48.5303116,-27.8435794 -48.5304672,-27.8432553 -48.5305739,-27.8427625 -48.5305742,-27.8427401 -48.5305398,-27.842392 -48.53054,-27.8423696 -48.5305053,-27.8420551 -48.5302521,-27.8419969 -48.5300748,-27.8419618 -48.5300125,-27.8418491 -48.5299756,-27.8417366 -48.5298241,-27.841668 -48.5297733,-27.8416676 -48.5296209,-27.8416776 -48.5294562,-27.8416538 -48.5294308,-27.8416536 -48.5293815,-27.8415185 -48.5292692,-27.8413381 -48.5292694,-27.8413269 -48.5292064,-27.8412815 -48.5290168,-27.8412126 -48.5289915,-27.8412012 -48.5287512,-27.8411319 -48.5283643,-27.8408531 -48.5282263,-27.8407061 -48.5282011,-27.8406947 -48.5281889,-27.8406497 -48.5281019,-27.8404695 -48.5281021,-27.8404583 -48.5281046,-27.8402227 -48.5281083,-27.839875 -48.5279972,-27.8395824 -48.5277873,-27.8390196 -48.5277874,-27.8390084 -48.5278182,-27.8385038 -48.5278184,-27.8384814 -48.5278226,-27.8380888 -48.5278232,-27.8380327 -48.5278268,-27.8376961 -48.5278271,-27.8376625 -48.5278293,-27.8374606 -48.5277043,-27.83728 -48.5274177,-27.8367952 -48.5270145,-27.8365226 -48.5263082,-27.8361241 -48.5259044,-27.8359349 -48.5258284,-27.8359231 -48.5254738,-27.8358528 -48.5254484,-27.8358526 -48.5250558,-27.835782 -48.5250432,-27.8357707 -48.5249175,-27.8356687 -48.52478,-27.8354768 -48.524755,-27.835443 -48.5246176,-27.8352399 -48.524605,-27.8352286 -48.5242004,-27.8350906 -48.5241879,-27.8350793 -48.5236068,-27.8348389 -48.5232524,-27.8347574 -48.5226438,-27.8347187 -48.5226057,-27.8347184 -48.5224771,-27.8348856 -48.5224767,-27.8349192 -48.522412,-27.8350421 -48.5222093,-27.8350068 -48.5220708,-27.8349159 -48.5220329,-27.8348931 -48.5219952,-27.8348592 -48.5219701,-27.8348365 -48.5218191,-27.8347231 -48.5217937,-27.8347229 -48.5217433,-27.8346888 -48.5214906,-27.8345857 -48.5214654,-27.8345743 -48.5208467,-27.8342887 -48.5207962,-27.8342658 -48.5207456,-27.8342542 -48.5202271,-27.8340928 -48.5201639,-27.8340698 -48.5201132,-27.8340582 -48.5197464,-27.8339542 -48.5197086,-27.8339314 -48.51952,-27.8337615 -48.5195076,-27.833739 -48.5191911,-27.833669 -48.5189242,-27.8337117 -48.5188445,-27.8340476 -48.518774,-27.834709 -48.5191545,-27.8352634 -48.5195181,-27.8356929 -48.5201192,-27.8364496 -48.5202909,-27.8370008 -48.5202902,-27.8370681 -48.5203111,-27.8374834 -48.5203234,-27.8375172 -48.5203609,-27.8375736 -48.5205358,-27.8378331 -48.5205607,-27.8378782</coordinates></LinearRing></outerBoundaryIs></Polygon><Polygon><outerBoundaryIs><LinearRing><coordinates>-48.5174673,-27.8347953 -48.5176472,-27.835016 -48.517807,-27.8351307 -48.5179667,-27.8350953 -48.5179966,-27.8349894 -48.5180423,-27.8348213 -48.518042,-27.834649 -48.5176469,-27.8345039 -48.5174972,-27.8345569 -48.5173774,-27.8345746 -48.5173674,-27.8346629 -48.5174673,-27.8347953</coordinates></LinearRing></outerBoundaryIs></Polygon></MultiGeometry>
  </Placemark>
  <Placemark id="ilhas_apabf_poligono.14">
	<Style><LineStyle><color>ff0000ff</color></LineStyle><PolyStyle><fill>0</fill></PolyStyle></Style>
	<ExtendedData><SchemaData schemaUrl="#ilhas_apabf_poligono">
		<SimpleData name="CODIGO">IPL-004</SimpleData>
		<SimpleData name="NM_ILHA">Ilha dos Moleques do Sul</SimpleData>
		<SimpleData name="NM_MUN">Florianópolis</SimpleData>
		<SimpleData name="AREA_KM2">16.682</SimpleData>
		<SimpleData name="AREA_M2">166818.397</SimpleData>
		<SimpleData name="LOCALIDADE">ZEE</SimpleData>
		<SimpleData name="PERT_UC">NÃO</SimpleData>
		<SimpleData name="LATITUDE">-27.845071</SimpleData>
		<SimpleData name="LONGITUDE">-48.430911</SimpleData>
	</SchemaData></ExtendedData>
      <MultiGeometry><Polygon><outerBoundaryIs><LinearRing><coordinates>-48.4313819,-27.8392379 -48.4313703,-27.8391558 -48.4312949,-27.839048 -48.4311846,-27.8390634 -48.431115,-27.839166 -48.4310917,-27.8392532 -48.4311497,-27.8393046 -48.431318,-27.8393097 -48.4313354,-27.8393097 -48.4313819,-27.8392379</coordinates></LinearRing></outerBoundaryIs></Polygon><Polygon><outerBoundaryIs><LinearRing><coordinates>-48.4305536,-27.8398328 -48.4305391,-27.8399896 -48.4305389,-27.840012 -48.4305614,-27.8402589 -48.4307346,-27.8406416 -48.4310365,-27.8408461 -48.4313809,-27.8406698 -48.4315354,-27.8404582 -48.4316144,-27.840201 -48.431466,-27.8398746 -48.4313277,-27.8397724 -48.4309738,-27.8396796 -48.4306568,-27.8396768 -48.4305536,-27.8398328</coordinates></LinearRing></outerBoundaryIs></Polygon><Polygon><outerBoundaryIs><LinearRing><coordinates>-48.4327649,-27.847951 -48.4328026,-27.8479738 -48.4333201,-27.8481915 -48.4340658,-27.8484 -48.4347633,-27.8483951 -48.4346766,-27.8482149 -48.4344133,-27.8479547 -48.434162,-27.8477506 -48.4336584,-27.8474322 -48.4332312,-27.847092 -48.433181,-27.8470467 -48.4328937,-27.846663 -48.4328562,-27.8466178 -48.4328312,-27.846584 -48.432695,-27.8463025 -48.43247,-27.8460202 -48.4322438,-27.8458388 -48.4318907,-27.8456674 -48.431667,-27.8452731 -48.4314605,-27.844785 -48.4313958,-27.844598 -48.4312106,-27.8441591 -48.4311983,-27.8441253 -48.4310744,-27.8438776 -48.4310493,-27.8438549 -48.4308105,-27.8436734 -48.4307979,-27.8436621 -48.4305454,-27.8435702 -48.4304821,-27.8435584 -48.4304314,-27.843558 -48.4301525,-27.8435555 -48.4300511,-27.8435546 -48.4299624,-27.8435538 -48.4298226,-27.8435862 -48.4297463,-27.843608 -48.4294276,-27.8437621 -48.4293766,-27.843784 -48.4290966,-27.8438712 -48.4290582,-27.8439044 -48.4288413,-27.8440146 -48.428803,-27.8440367 -48.428713,-27.844148 -48.4287234,-27.8443499 -48.4286839,-27.8444728 -48.4284513,-27.8448519 -48.4284507,-27.844908 -48.428536,-27.8452114 -48.4285735,-27.8452566 -48.4286985,-27.8454147 -48.428736,-27.8454599 -48.4291019,-27.8456201 -48.4291145,-27.8456314 -48.4296068,-27.8458264 -48.4296573,-27.8458492 -48.4298828,-27.8460867 -48.4299075,-27.8461429 -48.4299576,-27.8461994 -48.4301064,-27.8464811 -48.4301564,-27.8465488 -48.4301936,-27.8466164 -48.4302548,-27.8468075 -48.4303291,-27.8469652 -48.4303539,-27.8470102 -48.4303662,-27.847044 -48.4305159,-27.8472583 -48.4305158,-27.8472696 -48.430856,-27.847452 -48.4311867,-27.8473652 -48.431287,-27.847467 -48.4312868,-27.8474782 -48.4312598,-27.8476237 -48.4313082,-27.847826 -48.4315476,-27.8479627 -48.431801,-27.8479761 -48.4319292,-27.8478539 -48.43217,-27.847856 -48.4327649,-27.847951</coordinates></LinearRing></outerBoundaryIs></Polygon><Polygon><outerBoundaryIs><LinearRing><coordinates>-48.4290431,-27.842196 -48.4290543,-27.8423307 -48.4289773,-27.8424085 -48.4289514,-27.8424531 -48.4289124,-27.8425424 -48.4289213,-27.8428676 -48.4295918,-27.8429969 -48.4296297,-27.8430084 -48.4300605,-27.8430347 -48.4300859,-27.8430349 -48.4303406,-27.8429363 -48.4305719,-27.8426694 -48.4307144,-27.8424016 -48.4307303,-27.8421215 -48.4305931,-27.8419184 -48.4303666,-27.8417707 -48.4300118,-27.8417563 -48.4293395,-27.8417839 -48.429276,-27.8417945 -48.428718,-27.8418008 -48.4285278,-27.8417991 -48.4285024,-27.84181 -48.4284388,-27.8418207 -48.4283486,-27.8419544 -48.4284228,-27.842112 -48.4287651,-27.8421151 -48.4288284,-27.8421269 -48.4288788,-27.8421497 -48.429018,-27.8421734 -48.4290431,-27.842196</coordinates></LinearRing></outerBoundaryIs></Polygon></MultiGeometry>
  </Placemark>
  <Placemark id="ilhas_apabf_poligono.15">
	<Style><LineStyle><color>ff0000ff</color></LineStyle><PolyStyle><fill>0</fill></PolyStyle></Style>
	<ExtendedData><SchemaData schemaUrl="#ilhas_apabf_poligono">
		<SimpleData name="CODIGO">IPL-011</SimpleData>
		<SimpleData name="NM_ILHA">Ilhota do Ouvidor</SimpleData>
		<SimpleData name="NM_MUN">Garopaba</SimpleData>
		<SimpleData name="AREA_KM2">0.734</SimpleData>
		<SimpleData name="AREA_M2">7337.376</SimpleData>
		<SimpleData name="LOCALIDADE">Praia do Ouvidor</SimpleData>
		<SimpleData name="PERT_UC">NÃO</SimpleData>
		<SimpleData name="LATITUDE">-28.102209</SimpleData>
		<SimpleData name="LONGITUDE">-48.627097</SimpleData>
	</SchemaData></ExtendedData>
      <MultiGeometry><Polygon><outerBoundaryIs><LinearRing><coordinates>-48.6268089,-28.1015748 -48.6267126,-28.1014758 -48.6266475,-28.1015079 -48.6265772,-28.1016187 -48.6265489,-28.1017606 -48.6264312,-28.1018823 -48.6264253,-28.1018928 -48.6263604,-28.1019406 -48.6263486,-28.1019512 -48.6263015,-28.1020093 -48.6263016,-28.1020145 -48.6264215,-28.1020976 -48.6265765,-28.1021331 -48.6265885,-28.1021382 -48.6266668,-28.1022321 -48.6266788,-28.1022425 -48.6268348,-28.1023672 -48.6269964,-28.1024552 -48.6270024,-28.1024604 -48.6271928,-28.1024589 -48.6272146,-28.1022592 -48.6272145,-28.1022487 -48.6271836,-28.1021387 -48.6270757,-28.1020609 -48.6269667,-28.101878 -48.6268637,-28.1017004 -48.6268149,-28.1015853 -48.6268089,-28.1015748</coordinates></LinearRing></outerBoundaryIs></Polygon><Polygon><outerBoundaryIs><LinearRing><coordinates>-48.628451,-28.1028047 -48.628439,-28.1027943 -48.6283554,-28.1027687 -48.6283315,-28.1027584 -48.6282834,-28.1027063 -48.6282712,-28.1026749 -48.6282407,-28.1026069 -48.6281625,-28.1025236 -48.6281384,-28.1024975 -48.6281023,-28.1024558 -48.6280775,-28.1023615 -48.6280652,-28.1023249 -48.6280646,-28.1022619 -48.6280645,-28.1022514 -48.6280583,-28.1022252 -48.6280335,-28.1021256 -48.6280214,-28.10211 -48.6279555,-28.1020685 -48.6279019,-28.1020637 -48.6278906,-28.1021215 -48.627897,-28.1021635 -48.6279454,-28.1022471 -48.6279577,-28.1022785 -48.6279822,-28.1023465 -48.6279823,-28.1023623 -48.6279826,-28.1023885 -48.6279833,-28.102462 -48.6279425,-28.1025411 -48.627973,-28.1026143 -48.628003,-28.1026351 -48.6280812,-28.1027237 -48.6280933,-28.1027393 -48.6281235,-28.1027811 -48.6281897,-28.102854 -48.6283218,-28.1029685 -48.6283456,-28.1029683 -48.6284231,-28.1029887 -48.628435,-28.1029886 -48.6285359,-28.1029615 -48.6286073,-28.102961 -48.6286364,-28.1028925 -48.6285346,-28.1028303 -48.628451,-28.1028047</coordinates></LinearRing></outerBoundaryIs></Polygon><Polygon><outerBoundaryIs><LinearRing><coordinates>-48.6257394,-28.1023235 -48.6258236,-28.1024068 -48.625925,-28.102427 -48.62599,-28.1023845 -48.6259716,-28.1023269 -48.6259888,-28.102269 -48.6260119,-28.1021953 -48.6259638,-28.1021485 -48.6258566,-28.1021441 -48.6257796,-28.1021762 -48.6257326,-28.1022395 -48.6257394,-28.1023235</coordinates></LinearRing></outerBoundaryIs></Polygon></MultiGeometry>
  </Placemark>
  <Placemark id="ilhas_apabf_poligono.16">
	<Style><LineStyle><color>ff0000ff</color></LineStyle><PolyStyle><fill>0</fill></PolyStyle></Style>
	<ExtendedData><SchemaData schemaUrl="#ilhas_apabf_poligono">
		<SimpleData name="CODIGO">IPL-019</SimpleData>
		<SimpleData name="NM_ILHA">Ilha Marta Pequeno</SimpleData>
		<SimpleData name="NM_MUN">Laguna</SimpleData>
		<SimpleData name="AREA_KM2">2.954</SimpleData>
		<SimpleData name="AREA_M2">29538.674</SimpleData>
		<SimpleData name="LOCALIDADE">Praia de Santa Marta Pequeno</SimpleData>
		<SimpleData name="PERT_UC">SIM</SimpleData>
		<SimpleData name="LATITUDE">-28.539555</SimpleData>
		<SimpleData name="LONGITUDE">-48.758963</SimpleData>
	</SchemaData></ExtendedData>
      <MultiGeometry><Polygon><outerBoundaryIs><LinearRing><coordinates>-48.7566468,-28.5410556 -48.7566879,-28.5409655 -48.7565237,-28.5408032 -48.7563184,-28.5407311 -48.7561132,-28.5408212 -48.7560106,-28.5409294 -48.755949,-28.5411277 -48.7560927,-28.5412539 -48.7562158,-28.5412179 -48.7564621,-28.5411097 -48.7566468,-28.5410556</coordinates></LinearRing></outerBoundaryIs></Polygon><Polygon><outerBoundaryIs><LinearRing><coordinates>-48.7592111,-28.5404125 -48.7592245,-28.540389 -48.7593719,-28.540242 -48.7593853,-28.5402302 -48.7596131,-28.5400891 -48.7596466,-28.5400715 -48.7598945,-28.5398892 -48.7601157,-28.5396363 -48.7602498,-28.5393951 -48.7602699,-28.5393716 -48.7602298,-28.5391362 -48.7602164,-28.5391303 -48.7599754,-28.5389831 -48.759962,-28.5389714 -48.7596674,-28.5388124 -48.7594532,-28.5386946 -48.7591854,-28.5385121 -48.759172,-28.5385003 -48.7588639,-28.5384708 -48.7588572,-28.5384708 -48.7585625,-28.5385471 -48.7583682,-28.5387294 -48.7583412,-28.5389706 -48.758455,-28.5391884 -48.758455,-28.5392001 -48.7585352,-28.5393414 -48.7585419,-28.5393532 -48.7586289,-28.5395238 -48.758756,-28.5397239 -48.7587425,-28.5398828 -48.7586085,-28.5399945 -48.7584812,-28.5401415 -48.7585012,-28.5403004 -48.7586082,-28.5404652 -48.7588762,-28.5403947 -48.7589699,-28.5404713 -48.7592111,-28.5404125</coordinates></LinearRing></outerBoundaryIs></Polygon></MultiGeometry>
  </Placemark>
  <Placemark id="ilhas_apabf_poligono.17">
	<Style><LineStyle><color>ff0000ff</color></LineStyle><PolyStyle><fill>0</fill></PolyStyle></Style>
	<ExtendedData><SchemaData schemaUrl="#ilhas_apabf_poligono">
		<SimpleData name="CODIGO">IPL-006</SimpleData>
		<SimpleData name="NM_ILHA">Ilha dos Papagaios Pequena</SimpleData>
		<SimpleData name="NM_MUN">Palhoça</SimpleData>
		<SimpleData name="AREA_KM2">15.693</SimpleData>
		<SimpleData name="AREA_M2">156932.569</SimpleData>
		<SimpleData name="LOCALIDADE">Praia da Pinheira</SimpleData>
		<SimpleData name="PERT_UC">NÃO</SimpleData>
		<SimpleData name="LATITUDE">-27.855161</SimpleData>
		<SimpleData name="LONGITUDE">-48.578701</SimpleData>
	</SchemaData></ExtendedData>
      <MultiGeometry><Polygon><outerBoundaryIs><LinearRing><coordinates>-48.5775193401171,-27.8526446555112 -48.5775095904965,-27.8526356363791 -48.5775000349636,-27.8526177763807 -48.5775002316056,-27.8526089337701 -48.5774906715185,-27.8525910732438 -48.5774709725886,-27.852581881112 -48.5774713659171,-27.8525641940676 -48.5774518615768,-27.8525461597687 -48.5774421074015,-27.8525371423422 -48.5774224064745,-27.8525279483447 -48.5773533527377,-27.852500196984 -48.5773334531177,-27.8524998473724 -48.577313555511,-27.8524994977934 -48.5772837070886,-27.852498973384 -48.5772437157188,-27.8525071168266 -48.5772435190568,-27.8525159594356 -48.577233176383,-27.8525334716724 -48.5772230309135,-27.8525421394847 -48.5772226375963,-27.8525598242206 -48.577212096701,-27.8525861790368 -48.5772013612162,-27.8526213751201 -48.5771810702135,-27.8526387125267 -48.5771808735454,-27.8526475551351 -48.5771804802188,-27.8526652399047 -48.5771802834999,-27.8526740847839 -48.5771800868422,-27.8526829269106 -48.5771699413538,-27.8526915947176 -48.5771697446843,-27.8527004373259 -48.5771695480048,-27.8527092803815 -48.5771594005001,-27.8527179481521 -48.5771287652885,-27.8527527959611 -48.5771285686152,-27.8527616385691 -48.5771182289173,-27.8527791508127 -48.5770776443814,-27.8528138219692 -48.5770577467212,-27.8528134723497 -48.5770278981798,-27.8528129478789 -48.5770179473371,-27.8528127730305 -48.5770079985075,-27.8528125982168 -48.5769590411103,-27.8527763537103 -48.5769490922845,-27.8527761788926 -48.5769092949689,-27.852775479579 -48.5768499939398,-27.8527567436123 -48.5768400446133,-27.852756568778 -48.5768201454186,-27.8527562190976 -48.5767803496238,-27.8527555197738 -48.5767405503079,-27.8527548203767 -48.5767306040017,-27.8527546455875 -48.5767206551795,-27.8527544707534 -48.5766908061973,-27.8527539462026 -48.5766311092029,-27.8527528970986 -48.5765911151485,-27.8527610420874 -48.5765809721252,-27.8527697098918 -48.5765606805479,-27.8527870449533 -48.5765505350035,-27.8527957127109 -48.5765405841659,-27.8527955378282 -48.576530241887,-27.8528130486354 -48.5765101454195,-27.8528215432938 -48.5764799034737,-27.8528387039123 -48.576479706747,-27.8528475465159 -48.5764598116443,-27.8528471968546 -48.5764397167152,-27.8528556897393 -48.5764297663762,-27.8528555148571 -48.5764198170438,-27.8528553399919 -48.5764096714416,-27.8528640095615 -48.5763895770479,-27.852872502448 -48.5763796262045,-27.8528723275532 -48.5763696773741,-27.8528721526931 -48.5763495809245,-27.8528806455374 -48.5763396320936,-27.8528804706751 -48.5763095894125,-27.8528887882486 -48.5762795456722,-27.8528971062441 -48.5762695968404,-27.8528969313766 -48.5762496971252,-27.8528965816035 -48.5762395495348,-27.8529052492661 -48.5762296007024,-27.8529050743957 -48.5762196518702,-27.8529048995246 -48.5762097055542,-27.852904724697 -48.576169514165,-27.8529217121848 -48.5761492209671,-27.8529390480475 -48.5761390753773,-27.8529477157717 -48.5761291265418,-27.8529475408938 -48.5760879497499,-27.8530087426406 -48.5760867691388,-27.853061800516 -48.5760756396948,-27.8531146825793 -48.5760752461712,-27.8531323677804 -48.5760342706255,-27.8531847260888 -48.5760243212659,-27.8531845511931 -48.5760139788344,-27.8532020633293 -48.5760038332084,-27.853210731041 -48.5759837367086,-27.8532192238265 -48.5759532977721,-27.853245226468 -48.5759519202713,-27.8533071286905 -48.575961475593,-27.8533249887823 -48.5759610820573,-27.8533426735342 -48.5759706393943,-27.8533605354852 -48.5759889649335,-27.8534316283369 -48.575988768172,-27.8534404704892 -48.5760273835326,-27.8534942278924 -48.5760757500175,-27.8535570041312 -48.5760952562942,-27.8535750386893 -48.5761050104752,-27.8535840562094 -48.5761249082621,-27.8535844059753 -48.5761344636239,-27.8536022665051 -48.5761539698687,-27.8536203032923 -48.5761535763494,-27.8536379884932 -48.5761631317301,-27.8536558485742 -48.5761726875763,-27.8536737104871 -48.5761724908285,-27.8536825526059 -48.5761822444833,-27.8536915701119 -48.5761820477254,-27.8537004127125 -48.5761918003355,-27.8537094320238 -48.5761916035782,-27.8537182746244 -48.5762013532018,-27.8537272925059 -48.5762011564451,-27.8537361351065 -48.5762007629316,-27.8537538203077 -48.5762107118411,-27.853753995185 -48.5762105150452,-27.8537628395748 -48.5762389864817,-27.8538252637855 -48.5762385929629,-27.8538429494342 -48.5762582960977,-27.8538521418206 -48.5762678514715,-27.8538700037197 -48.5762676547191,-27.8538788463206 -48.5762674579665,-27.8538876889214 -48.5762670644214,-27.8539053759122 -48.5762666709257,-27.8539230606666 -48.5762559349448,-27.8539582579843 -48.576245198986,-27.8539934539587 -48.5762350512465,-27.8540021216469 -48.5762251023141,-27.8540019467699 -48.5762249055165,-27.8540107911938 -48.5762149545704,-27.8540106162806 -48.5762048088787,-27.8540192840024 -48.5761847167778,-27.8540277764058 -48.5761745705789,-27.8540364441162 -48.5761542771291,-27.8540537813403 -48.5761540803659,-27.8540626239402 -48.5761339857165,-27.8540711172201 -48.5761238379998,-27.8540797848997 -48.5761136922945,-27.8540884526138 -48.5761033498199,-27.8541059629266 -48.5760830563078,-27.8541233001034 -48.5760727138346,-27.854140809966 -48.576072123483,-27.8541673395528 -48.5760719267122,-27.854176182152 -48.5760715331605,-27.8541938677977 -48.5760711395777,-27.8542115548195 -48.5760709428065,-27.8542203974187 -48.5760806949872,-27.8542294149073 -48.5760900556415,-27.8542561194189 -48.5760896621112,-27.85427380417 -48.576099414298,-27.8542828216576 -48.5761189186366,-27.8543008584201 -48.5761288696085,-27.8543010333419 -48.5761587169891,-27.8543015580056 -48.5761686674581,-27.8543017329156 -48.5761786169207,-27.8543019078073 -48.5761885633639,-27.8543020826451 -48.5762084612831,-27.8543024324072 -48.5762186090456,-27.8542937633806 -48.5762285580046,-27.8542939382598 -48.5762387057836,-27.8542852701269 -48.5762490482566,-27.8542677598041 -48.5762591939598,-27.8542590925278 -48.576269142916,-27.8542592674039 -48.5762894363889,-27.854241930199 -48.5762995825999,-27.854233262481 -48.5762997793526,-27.8542244198803 -48.5763099225029,-27.8542157521076 -48.5763101192547,-27.8542069095069 -48.576310316047,-27.8541980650827 -48.5763308042087,-27.854171886576 -48.576340951958,-27.8541632188815 -48.5763510976433,-27.8541545516317 -48.5763610486036,-27.8541547265359 -48.5763809464984,-27.8541550762713 -48.5764008448968,-27.8541554260128 -48.5764304970611,-27.8541647927622 -48.5764404434549,-27.8541649675804 -48.5764597531377,-27.8541918455925 -48.5764695053505,-27.8542008630554 -48.5764790607862,-27.8542187249431 -48.576478864048,-27.8542275675449 -48.5764886183171,-27.8542365850429 -48.5764884215795,-27.8542454276447 -48.5764981737594,-27.8542544468952 -48.5765079259808,-27.8542634643559 -48.5765172867556,-27.8542901666081 -48.5765270389716,-27.854299184515 -48.5765367911694,-27.8543082033159 -48.5765363976908,-27.8543258889673 -48.5765461504247,-27.8543349064347 -48.5765559001408,-27.8543439238484 -48.5765557034078,-27.8543527664505 -48.5765754065825,-27.8543619606214 -48.5765849620987,-27.8543798202326 -48.5765947143382,-27.8543888376882 -48.5766044685922,-27.8543978551785 -48.5766040750933,-27.8544155421724 -48.576623778353,-27.8544247349617 -48.5766524448795,-27.8544783169167 -48.5766719514112,-27.8544963514074 -48.5766819008953,-27.8544965262639 -48.5766817041207,-27.8545053711375 -48.5767014028555,-27.8545145629421 -48.5767207126608,-27.8545414409243 -48.576749577995,-27.8545861802955 -48.5767788352767,-27.8546132344289 -48.5767881956781,-27.8546399366594 -48.5768170569887,-27.8546846764295 -48.5768168602741,-27.854693519033 -48.5768166635593,-27.8547023616364 -48.5768164668047,-27.8547112060289 -48.5768160733848,-27.8547288907884 -48.5768055367788,-27.8547552442511 -48.5767844579171,-27.8548079519689 -48.576784261159,-27.8548167963611 -48.5767641643657,-27.854825289243 -48.5767639676456,-27.8548341318459 -48.5767637709354,-27.8548429740016 -48.5767635742151,-27.8548518166044 -48.5767518546171,-27.8549312292453 -48.5767516578951,-27.854940071848 -48.5767512644111,-27.8549577588425 -48.5767510676988,-27.8549666009978 -48.5767508709765,-27.8549754436005 -48.5767506742541,-27.8549842862031 -48.5767498873129,-27.8550196588842 -48.5767494938671,-27.8550373440894 -48.5767588526911,-27.8550640485314 -48.5767586559786,-27.8550728906867 -48.576758459256,-27.8550817332892 -48.5767684087941,-27.8550819081428 -48.5767976677526,-27.8551089623063 -48.5768173665451,-27.8551181549951 -48.5768271209181,-27.8551271724748 -48.5768470189586,-27.8551275221535 -48.576856773335,-27.8551365396313 -48.5768862270316,-27.8551547493497 -48.5769061271297,-27.8551550990563 -48.5769158799246,-27.8551641183267 -48.5769256297422,-27.8551731357199 -48.5769455298442,-27.855173485421 -48.5769853280365,-27.8551741847793 -48.5769952770815,-27.8551743596082 -48.5770251262688,-27.8551748841267 -48.5770450263727,-27.8551752338135 -48.5770748714967,-27.8551757582499 -48.5770947716014,-27.8551761079295 -48.5771146717065,-27.8551764576063 -48.5771445188454,-27.855176982063 -48.5771544678918,-27.8551771568804 -48.5771743680367,-27.8551775065493 -48.5771942640786,-27.8551778561431 -48.5772042131255,-27.855178030957 -48.5772141642242,-27.8551782058063 -48.5772241132713,-27.8551783806187 -48.5772440133787,-27.8551787302768 -48.5772539624261,-27.8551789050871 -48.577263714791,-27.8551879225024 -48.5772736638394,-27.8551880973114 -48.5772933672799,-27.8551972890867 -48.5773130666871,-27.8552064812703 -48.5773230157375,-27.8552066560758 -48.5773429158516,-27.85520700572 -48.5773524715106,-27.8552248675594 -48.5773721749931,-27.8552340598066 -48.5773916817577,-27.8552520951043 -48.5774014341409,-27.8552611125109 -48.5774410362131,-27.8552706543553 -48.5774607351043,-27.8552798482996 -48.5774706841624,-27.8552800230949 -48.5775001420739,-27.855298232762 -48.5775397416252,-27.8553077740872 -48.5775793411625,-27.8553173181202 -48.5775890935785,-27.8553263350332 -48.577608993757,-27.855326684641 -48.5776386463076,-27.8553360516367 -48.5776681006931,-27.8553542616553 -48.5776876075787,-27.8553722964686 -48.5776874108884,-27.8553811409004 -48.5777069131753,-27.8553991756305 -48.5777357791407,-27.8554439143827 -48.5777453369664,-27.8554617748595 -48.5777451403206,-27.855470617468 -48.577744746989,-27.8554883044741 -48.577744550343,-27.8554971470826 -48.5777632686042,-27.8555505536616 -48.577772824361,-27.8555684154429 -48.5777722344175,-27.8555949437159 -48.577771841128,-27.8556126289329 -48.5777712511533,-27.8556391585475 -48.5777710545082,-27.8556480011559 -48.577770661177,-27.8556656881964 -48.5777704645416,-27.8556745303575 -48.5777702678961,-27.8556833729659 -48.5777802190064,-27.8556835477765 -48.5777897748058,-27.8557014082154 -48.577799134438,-27.855728112613 -48.5778086902539,-27.8557459726036 -48.5778081002849,-27.8557725022184 -48.5778272139423,-27.8558082222337 -48.5778369638939,-27.85581723957 -48.5778459297608,-27.8558616291739 -48.5778552909268,-27.8558883336297 -48.5778550942963,-27.8558971757912 -48.5778548976559,-27.8559060183998 -48.5778547010153,-27.8559148610085 -48.5778644534547,-27.8559238801768 -48.5778642568148,-27.8559327227856 -48.577873812647,-27.8559505832203 -48.5778736160076,-27.855959425829 -48.5778734193681,-27.8559682684377 -48.5778732226888,-27.8559771128355 -48.5778829772265,-27.8559861302499 -48.5778925330858,-27.8560039897891 -48.5778921397685,-27.8560216768302 -48.5779016956221,-27.8560395368162 -48.5779108581543,-27.8560750842559 -48.5779106615169,-27.8560839268647 -48.5779104648793,-27.8560927694735 -48.5779094816605,-27.8561369838592 -48.5779090883744,-27.8561546695239 -48.5779084984188,-27.8561811991735 -48.5779083017803,-27.8561900417822 -48.5779079085031,-27.8562077269995 -48.5779075151856,-27.8562254140058 -48.5779073185467,-27.8562342566144 -48.5778969761283,-27.8562517666149 -48.5778967794883,-27.8562606092234 -48.5778963861682,-27.8562782962295 -48.5778961895179,-27.8562871392853 -48.5778959928776,-27.8562959818937 -48.5778856504408,-27.85631349234 -48.5778854537994,-27.8563223349484 -48.5778753079601,-27.8563310046089 -48.5778546209876,-27.8563660268021 -48.5778542276987,-27.8563837120183 -48.5778540310442,-27.8563925550736 -48.5778536377547,-27.8564102402897 -48.5778534411099,-27.8564190828977 -48.5778532444251,-27.8564279272948 -48.5778530477801,-27.8564367699028 -48.577852851135,-27.8564456125108 -48.5778522611585,-27.8564721421582 -48.5778520645237,-27.8564809842844 -48.5778618170497,-27.8564900016663 -48.5778813241482,-27.8565080369117 -48.5779008291708,-27.8565260734949 -48.577920532894,-27.8565352656792 -48.5779402325945,-27.8565444577901 -48.5779696888264,-27.8565626691335 -48.5779792447336,-27.8565805291167 -48.5780184535812,-27.8566077555884 -48.5780182569381,-27.8566165986446 -48.5780379606972,-27.8566257921562 -48.5780572671157,-27.8566526699166 -48.5780668230444,-27.8566705298949 -48.5780865267681,-27.8566797238814 -48.5780857402647,-27.8567150938708 -48.5780855435964,-27.8567239382691 -48.5780752011329,-27.8567414491753 -48.5780650532934,-27.8567501169888 -48.5780648566629,-27.8567589595978 -48.5780545141626,-27.8567764718438 -48.5780443708861,-27.8567851397357 -48.5780342245497,-27.856793807573 -48.5780340279263,-27.8568026497345 -48.5780238805421,-27.8568113175525 -48.5780035883223,-27.8568286550551 -48.5780033916868,-27.8568374976292 -48.5779926558833,-27.8568726955677 -48.5779922626084,-27.8568903807843 -48.5779920659708,-27.8568992233926 -48.5780109811796,-27.8569437873082 -48.5780205376156,-27.8569616477463 -48.5780300950691,-27.8569795095785 -48.5780297017992,-27.856997194761 -48.5780490082436,-27.8570240739016 -48.5780587608321,-27.857033091273 -48.5780683188124,-27.8570509508405 -48.5780876273277,-27.8570778299783 -48.5780874306864,-27.8570866730343 -48.5781069379339,-27.8571047078081 -48.5781168871634,-27.8571048825673 -48.578126443136,-27.8571227425435 -48.5781361977128,-27.8571317617348 -48.5781457537006,-27.8571496212627 -48.5781553101343,-27.857167483517 -48.5781652593699,-27.857167658273 -48.578165062754,-27.8571765004348 -48.578164866128,-27.8571853430439 -48.5781746202886,-27.8571943604357 -48.5781845700301,-27.8571945351993 -48.5781943200798,-27.857203552965 -48.578204072696,-27.8572125703277 -48.5782138273268,-27.8572215877252 -48.5782335291484,-27.8572307816272 -48.5782629856894,-27.8572489911326 -48.5782826880635,-27.8572581832479 -48.5782924421621,-27.8572672024207 -48.5783021952955,-27.8572762197861 -48.5783220912726,-27.8572765692333 -48.5783417951769,-27.85728576092 -48.578351547813,-27.8572947782734 -48.5783614990747,-27.8572949530514 -48.5783813975724,-27.8572953025344 -48.578381200963,-27.8573041451447 -48.5784106575402,-27.8573223550685 -48.5784795856908,-27.8574007404065 -48.5785720734062,-27.8574453372169 -48.5787351865479,-27.8575026315341 -48.5788435243546,-27.8575511170303 -48.5788634249192,-27.8575514664821 -48.5788733741951,-27.8575516411892 -48.578943019129,-27.8575528641192 -48.5790130612524,-27.8575364018572 -48.579023012541,-27.8575365765888 -48.5790331583652,-27.8575279091174 -48.5790934437167,-27.857502427642 -48.5791135408277,-27.8574939344423 -48.5791837794798,-27.8574686276505 -48.5791937292537,-27.8574688023429 -48.5792036759695,-27.8574689769809 -48.5792136252404,-27.857469151663 -48.5792335258342,-27.8574695010612 -48.5792434751053,-27.8574696757412 -48.5792733249324,-27.8574701998122 -48.5793031747989,-27.8574707238775 -48.5793230738458,-27.8574710732355 -48.5794217839457,-27.8575081922918 -48.5794709407189,-27.8575355952585 -48.5794806934856,-27.8575446120917 -48.579490446244,-27.8575536293716 -48.5795003975377,-27.8575538040689 -48.5795101502986,-27.8575628213475 -48.579519905103,-27.8575718391089 -48.5795296578671,-27.8575808563863 -48.5795394106328,-27.8575898736631 -48.5795491633604,-27.8575988927285 -48.5795788172181,-27.8576082593622 -48.5795887665045,-27.8576084340181 -48.5796086625612,-27.8576087832836 -48.5796285631476,-27.8576091326257 -48.5796385144474,-27.8576093073133 -48.5797592834973,-27.8575495025517 -48.5797694312815,-27.8575408350577 -48.5797797735986,-27.8575233226719 -48.5797897228787,-27.8575234973128 -48.579799868655,-27.8575148293337 -48.5798100164427,-27.857506161389 -48.5798199657214,-27.8575063360276 -48.5798400587994,-27.8574978408242 -48.5798798579258,-27.8574985394009 -48.5798898092561,-27.8574987140705 -48.5799196591054,-27.8574992380022 -48.5799594582347,-27.8574999365559 -48.5799895005403,-27.8574916177813 -48.5800293016819,-27.85749231635 -48.5800690987988,-27.8574930148367 -48.5800889994096,-27.8574933641117 -48.5802286842678,-27.8574781234955 -48.5802485848395,-27.8574784727467 -48.5802686798562,-27.8574699793372 -48.5802989226649,-27.8574528174944 -48.580328969003,-27.8574444969247 -48.5803590158005,-27.8574361781462 -48.5803791082854,-27.8574276846753 -48.5804495430824,-27.8573935350747 -48.5805406600856,-27.857324363145 -48.5805510042232,-27.8573068529634 -48.5805609534892,-27.8573070275475 -48.5805712956584,-27.8572895150923 -48.5806226134495,-27.8572196447606 -48.5806230063436,-27.8572019576868 -48.5806552132919,-27.8570963663714 -48.5806653589618,-27.8570876983212 -48.5806657517963,-27.8570700135173 -48.5806661446809,-27.8570523264425 -48.5806764888183,-27.8570348158014 -48.5806766852384,-27.8570259732101 -48.5806868309104,-27.857017304676 -48.5806969765999,-27.8570086352808 -48.5806971730289,-27.8569997922076 -48.5807377581543,-27.856965120477 -48.5807477073905,-27.8569652950457 -48.5807578545901,-27.8569566252246 -48.5807779474603,-27.8569481316963 -48.5807878966952,-27.8569483062619 -48.5808079935879,-27.8569398127997 -48.5808280905164,-27.8569313193349 -48.580857938218,-27.8569318430185 -48.5808780351029,-27.8569233495454 -48.5809080772313,-27.8569150287663 -48.5809281741097,-27.8569065352854 -48.5809480745873,-27.8569068844291 -48.5809681694591,-27.8568983904252 -48.5809984119931,-27.8568812288923 -48.5810183084023,-27.8568815779542 -48.5810282576329,-27.8568817525021 -48.5810284540141,-27.8568729103212 -48.5810483545258,-27.8568732594507 -48.5810586965447,-27.8568557464681 -48.581068647825,-27.8568559210489 -48.5810785970536,-27.856856095593 -48.5810885462824,-27.8568562701364 -48.5810986918865,-27.8568476024977 -48.5811088395119,-27.8568389344461 -48.5811289348526,-27.8568304409076 -48.5811488348548,-27.8568307900133 -48.5812097084838,-27.8567787792177 -48.5812198561726,-27.8567701093685 -48.5812300017684,-27.8567614412715 -48.5813012172916,-27.8566919205624 -48.5813224923336,-27.8566303694477 -48.5813537165941,-27.8565689910269 -48.5813640585311,-27.8565514798399 -48.5813642548922,-27.8565426372091 -48.5813646476035,-27.856524952429 -48.5813745968041,-27.8565251269499 -48.5813749895646,-27.8565074398645 -48.5813751859244,-27.8564985972335 -48.5813753822842,-27.8564897546025 -48.5813755786836,-27.8564809101824 -48.5813757750432,-27.8564720675514 -48.5813759714027,-27.8564632249204 -48.5813761677621,-27.8564543822894 -48.5813767568498,-27.8564278539489 -48.5813771496083,-27.8564101668632 -48.5813775423152,-27.8563924820827 -48.581377935073,-27.8563747949968 -48.58137832779,-27.8563571097345 -48.5813785241483,-27.8563482671033 -48.5813789168747,-27.8563305813936 -48.5813791132725,-27.8563217369733 -48.5813793096305,-27.8563128943421 -48.5813797023362,-27.8562952095268 -48.5813802914488,-27.8562686798439 -48.581371127714,-27.8562331343525 -48.5813613749293,-27.8562241158256 -48.5812472829146,-27.8559832628012 -48.5812281680617,-27.855947541846 -48.5811805830385,-27.8558493962126 -48.5811706333978,-27.8558492216728 -48.5811612718171,-27.85582251967 -48.5811513226821,-27.8558223451377 -48.5811419622029,-27.8557956409158 -48.5811222582999,-27.8557864491826 -48.5811027528289,-27.8557684130629 -48.5810732961939,-27.8557502037098 -48.5810537886462,-27.8557321693371 -48.5810344821231,-27.8557052910368 -48.5810149745898,-27.8556872566594 -48.5810052213878,-27.8556782376898 -48.5809956650347,-27.855660377888 -48.5809857159159,-27.8556602033448 -48.5809761595774,-27.8556423430946 -48.5809662084472,-27.8556421685148 -48.5809467009752,-27.8556241341297 -48.5809369482878,-27.8556151151647 -48.5809174453447,-27.8555970813028 -48.5808877918829,-27.8555877149819 -48.5808684828805,-27.85556083617 -48.5808004088477,-27.8554888710014 -48.5807516428239,-27.8554437836848 -48.5807225791753,-27.8554078876327 -48.5807132193046,-27.8553811847398 -48.5807034645559,-27.8553721679954 -48.5806937119216,-27.855363148534 -48.5806843520413,-27.8553364465342 -48.5806845484872,-27.8553276021171 -48.5806749902017,-27.8553097422622 -48.5806654339421,-27.8552918819949 -48.5806656303495,-27.855283039367 -48.5806666124147,-27.8552388248856 -48.5806668088215,-27.8552299822576 -48.5806670052688,-27.8552211378061 -48.5806673980819,-27.8552034525501 -48.5806675944884,-27.8551946099221 -48.5806677908948,-27.8551857672941 -48.580667987311,-27.8551769242188 -48.5806584336473,-27.8551590626544 -48.5806586300541,-27.8551502200264 -48.5806488768498,-27.8551412028243 -48.5806492696547,-27.8551235180156 -48.5806399098898,-27.8550968137782 -48.5806223666959,-27.8549903494627 -48.5806225631043,-27.8549815068347 -48.5806229559604,-27.8549638197896 -48.5806132033168,-27.8549548025955 -48.5806133997355,-27.8549459595202 -48.5806135961442,-27.8549371168923 -48.5806137925528,-27.8549282742643 -48.5806139890019,-27.8549194298127 -48.5806044327619,-27.8549015704376 -48.580604629171,-27.8548927278096 -48.5806050220286,-27.8548750407645 -48.5806054148461,-27.8548573555084 -48.5805960530283,-27.854830652575 -48.5805962494673,-27.8548218086052 -48.5805864968477,-27.8548127909627 -48.580567775216,-27.8547593846811 -48.5805681680376,-27.8547416994252 -48.5805584154172,-27.8547326822285 -48.5805588082805,-27.8547149951492 -48.5805492546399,-27.8546971349217 -48.5805494510518,-27.8546882922938 -48.5805400907889,-27.8546615884898 -48.5805303381777,-27.8546525712916 -48.5805106345325,-27.8546433794858 -48.5805008819253,-27.8546343622858 -48.5804911293596,-27.8546253432961 -48.5804129101503,-27.8545620459899 -48.5803350798512,-27.8544810638021 -48.580325523741,-27.8544632021755 -48.5803155747363,-27.8544630275908 -48.5803058247163,-27.8544540104236 -48.5802962639955,-27.8544361509516 -48.5802572537618,-27.8544000802719 -48.5802274067669,-27.8543995565019 -48.5802075067577,-27.8543992072831 -48.5801876067102,-27.8543988580606 -48.5801776577124,-27.8543986834664 -48.5801577617688,-27.8543983343117 -48.5801378617222,-27.8543979850821 -48.5801277162812,-27.8544066531097 -48.5801175708386,-27.8544153211365 -48.5800871324576,-27.8544413265526 -48.5800769870086,-27.854449994576 -48.580067035994,-27.8544498199381 -48.580016505628,-27.8544843196586 -48.5800065561205,-27.8544841450427 -48.5799864616563,-27.8544926384508 -48.5799466615727,-27.8544919399378 -48.5798573149887,-27.8544815257434 -48.5798376134608,-27.8544723334348 -48.5798278589144,-27.8544633161561 -48.5798183028916,-27.8544454544996 -48.5798083538923,-27.8544452798784 -48.5797886503137,-27.8544360879747 -48.5797689508321,-27.8544268965876 -48.5797295457846,-27.8544085109796 -48.5797197932661,-27.8543994937294 -48.5797100407492,-27.8543904764786 -48.5797004826991,-27.8543726165692 -48.5796807791922,-27.8543634242047 -48.5796708302013,-27.8543632495741 -48.5796608837268,-27.8543630749869 -48.5796308382486,-27.8543713941229 -48.5796208887542,-27.8543712194798 -48.5795703557931,-27.8544057167491 -48.579560208256,-27.8544143865203 -48.5795399172939,-27.8544317220363 -48.5795098743154,-27.8544400407409 -48.5794601268173,-27.8544391674726 -48.5794404232732,-27.854429975521 -48.5794006252803,-27.854429276888 -48.5793809258371,-27.8544200854477 -48.5793514698583,-27.8544018743875 -48.5793118683881,-27.8543923331093 -48.5792919683551,-27.8543919837578 -48.5792822158766,-27.854382966479 -48.579232864,-27.8543644079358 -48.5792233080855,-27.8543465462445 -48.5792034101138,-27.8543461969168 -48.5791936556053,-27.8543371791491 -48.5791840996597,-27.8543193192447 -48.5791741486636,-27.8543191445432 -48.5791643961917,-27.8543101277043 -48.5791546437313,-27.8543011104175 -48.5791351408682,-27.8542830740883 -48.5791353373914,-27.8542742314692 -48.5791062745846,-27.8542383351239 -48.5791066676447,-27.8542206494385 -48.5791068641697,-27.8542118068195 -48.5790971117119,-27.8542027900111 -48.5790873573039,-27.8541937704142 -48.5790684420305,-27.8541492066325 -48.5790489351035,-27.8541311720112 -48.5790294327994,-27.854113137021 -48.5789999764612,-27.8540949258851 -48.5789902240332,-27.8540859085884 -48.5789806666205,-27.854068049128 -48.5789611613114,-27.8540500126995 -48.5789416564715,-27.854031978101 -48.5789320985785,-27.8540141181474 -48.5789125917377,-27.8539960817202 -48.5789030358752,-27.853978221353 -48.5788930869253,-27.8539780466686 -48.5788835336025,-27.8539601872397 -48.5788837301434,-27.8539513446218 -48.5788739772344,-27.8539423273094 -48.5788642233604,-27.8539333081895 -48.5788646164447,-27.8539156229539 -48.5788457007829,-27.8538710582103 -48.5788462904023,-27.8538445308042 -48.578846486995,-27.85383568595 -48.5788468800707,-27.8538180011616 -48.5788470766134,-27.8538091585437 -48.5788472731957,-27.8538003141367 -48.5788474697382,-27.8537914715189 -48.5788476662806,-27.853782628901 -48.5788478628229,-27.8537737862831 -48.5788691370491,-27.8537122355493 -48.5788693336296,-27.8537033911076 -48.5788695301695,-27.8536945484894 -48.5788697267093,-27.8536857058713 -48.5788904127602,-27.8536506830125 -48.5788908058456,-27.8536329973285 -48.5788910023831,-27.8536241547101 -48.5788913954481,-27.8536064699206 -48.5788923781735,-27.8535622550392 -48.5788925747509,-27.8535534105972 -48.5788927712877,-27.8535445679787 -48.5788929678244,-27.8535357253602 -48.5788939505562,-27.8534915100311 -48.5788943436184,-27.8534738252411 -48.5788947367301,-27.8534561382148 -48.5788851803977,-27.8534382782867 -48.5788656736311,-27.8534202432004 -48.5788660667067,-27.8534025579634 -48.5788664598225,-27.8533848709028 -48.5788668528874,-27.853367186113 -48.5788569039936,-27.8533670114294 -48.5788471516387,-27.8533579941267 -48.578837792443,-27.8533312897981 -48.5788284311311,-27.8533045867742 -48.5788089244652,-27.8532865503405 -48.5788041444764,-27.8532776167279 -48.5787993686534,-27.853268690864 -48.5787995651954,-27.8532598482458 -48.578779866488,-27.8532506562954 -48.578780063072,-27.8532418118538 -48.5787802596153,-27.8532329692356 -48.5787703102311,-27.8532327945377 -48.5787607529301,-27.8532149345853 -48.5787609494847,-27.85320609152 -48.5787511966782,-27.853197072861 -48.5787513932235,-27.853188230243 -48.5787416409028,-27.8531792124868 -48.5787125784953,-27.8531433161144 -48.5786930738399,-27.8531252819386 -48.5786831229177,-27.8531251072079 -48.5786733705983,-27.8531160898948 -48.578653667399,-27.8531068978491 -48.5786142670893,-27.8530885120666 -48.5785945639004,-27.853079320013 -48.5785746661693,-27.8530789706092 -48.5785551595567,-27.8530609354516 -48.578525507477,-27.8530515686838 -48.5784861051982,-27.8530331828319 -48.5784566517424,-27.853014973917 -48.5784074931785,-27.8529875706463 -48.5783778436884,-27.8529782038935 -48.5783288832217,-27.8529419575254 -48.5783093786768,-27.8529239228883 -48.5782898721163,-27.8529058886263 -48.5782604192831,-27.8528876774115 -48.5782309654131,-27.8528694679968 -48.5782311619979,-27.8528606253817 -48.5782116555114,-27.8528425888736 -48.5782118520975,-27.8528337462587 -48.5782120486935,-27.8528249031965 -48.578192347602,-27.8528157111255 -48.5781443687361,-27.8527352507051 -48.5780956075546,-27.8526901640004 -48.5780858553737,-27.85268114438 -48.5780659557099,-27.852680794872 -48.5780560068846,-27.8526806201346 -48.5780361071826,-27.8526802706216 -48.5780162120874,-27.8526799211867 -48.5779961172817,-27.8526884165797 -48.5779559267667,-27.8527054023154 -48.5779358304542,-27.852713895401 -48.5779258816268,-27.852713720654 -48.5779157341675,-27.8527223889314 -48.5779055887295,-27.852731056796 -48.5778755461343,-27.8527393751678 -48.5778554513178,-27.8527478700916 -48.5778152607507,-27.852764856265 -48.5778053119196,-27.8527646815091 -48.5777854122059,-27.852764331959 -48.5777555637006,-27.8527638076472 -48.5777356680524,-27.8527634581613 -48.5777058195485,-27.8527629338387 -48.5776958707183,-27.8527627590749 -48.5776759710453,-27.8527624095097 -48.5776660222154,-27.8527622347437 -48.5776162780673,-27.8527613609031 -48.577606329238,-27.8527611861328 -48.577596378357,-27.8527610113258 -48.5775864295279,-27.852760836554 -48.5775667285463,-27.8527516443983 -48.577527912424,-27.8527067299036 -48.5775281090644,-27.852697887293 -48.5775285023344,-27.8526802025534 -48.5775185535131,-27.8526800277772 -48.5775191434763,-27.8526534981218 -48.5775193401171,-27.8526446555112</coordinates></LinearRing></outerBoundaryIs></Polygon></MultiGeometry>
  </Placemark>
  <Placemark id="ilhas_apabf_poligono.18">
	<Style><LineStyle><color>ff0000ff</color></LineStyle><PolyStyle><fill>0</fill></PolyStyle></Style>
	<ExtendedData><SchemaData schemaUrl="#ilhas_apabf_poligono">
		<SimpleData name="CODIGO">IPL-007</SimpleData>
		<SimpleData name="NM_ILHA">Laje da Pinheira</SimpleData>
		<SimpleData name="NM_MUN">Palhoça</SimpleData>
		<SimpleData name="AREA_KM2">1.445</SimpleData>
		<SimpleData name="AREA_M2">14453.455</SimpleData>
		<SimpleData name="LOCALIDADE">Ponta da Pinheira</SimpleData>
		<SimpleData name="PERT_UC">SIM</SimpleData>
		<SimpleData name="LATITUDE">-27.863486</SimpleData>
		<SimpleData name="LONGITUDE">-48.570837</SimpleData>
	</SchemaData></ExtendedData>
      <MultiGeometry><Polygon><outerBoundaryIs><LinearRing><coordinates>-48.5708624279328,-27.8627191814714 -48.569969816899,-27.8635070337482 -48.5708570924596,-27.864265769307 -48.5716826357662,-27.8634335265716 -48.5708624279328,-27.8627191814714</coordinates></LinearRing></outerBoundaryIs></Polygon></MultiGeometry>
  </Placemark>
  <Placemark id="ilhas_apabf_poligono.19">
	<Style><LineStyle><color>ff0000ff</color></LineStyle><PolyStyle><fill>0</fill></PolyStyle></Style>
	<ExtendedData><SchemaData schemaUrl="#ilhas_apabf_poligono">
		<SimpleData name="CODIGO">IPL-010</SimpleData>
		<SimpleData name="NM_ILHA">Parcel de Garopaba</SimpleData>
		<SimpleData name="NM_MUN">Garopaba</SimpleData>
		<SimpleData name="AREA_KM2">3.790</SimpleData>
		<SimpleData name="AREA_M2">37904.973</SimpleData>
		<SimpleData name="LOCALIDADE">Ponta do Galeão</SimpleData>
		<SimpleData name="PERT_UC">SIM</SimpleData>
		<SimpleData name="LATITUDE">-28.018707</SimpleData>
		<SimpleData name="LONGITUDE">-48.590356</SimpleData>
	</SchemaData></ExtendedData>
      <MultiGeometry><Polygon><outerBoundaryIs><LinearRing><coordinates>-48.5918959576316,-28.0202105428776 -48.5894344668507,-28.0166773641422 -48.5887731052904,-28.0168287137408 -48.5910146799236,-28.0206160623674 -48.5918959576316,-28.0202105428776</coordinates></LinearRing></outerBoundaryIs></Polygon></MultiGeometry>
  </Placemark>
</Folder>
</Document></kml>
