{
"type": "FeatureCollection",
"name": "sitios_arqueologicos",
"crs": { "type": "name", "properties": { "name": "urn:ogc:def:crs:EPSG::31982" } },
"features": [
{ "type": "Feature", "properties": { "fid": 1, "codigo": "PHA-035", "Código IPHAN": "SC4209409BAST00010", "Identificação": "Canto da Lagoa I", "no_logradouro": "Sem informação", "Síntese": "Sambaqui de forma monticular e contornos arredondados. Assentado sobre paleoduna em planície arenosa, em meio a área alagadiça e cordões arenosos de baixa altitude.", "Data do cadastro": "2022-10-07", "Município": "Laguna", "Localização na APABF": "Interno", "numero": 35, "Longitude": -48.79646, "Latitude": -28.54088 }, "geometry": { "type": "Point", "coordinates": [ 715595.378162593813613, 6840897.903651310130954 ] } },
{ "type": "Feature", "properties": { "fid": 2, "codigo": "PHA-037", "Código IPHAN": "SC4209409BAST00005", "Identificação": "Galheta IV", "no_logradouro": "Sem informação", "Síntese": "Galheta IV, também conhecido(a) como Galheta 4; GA IV; GA 4; SC-GA-IV, localizado(a) no estado de Santa Catarina, cidade(s) de Laguna, é um Bem Arqueológico, do tipo Sítio, com estado de conservação Regular e de preservação Pouco Alterado.", "Data do cadastro": "2020-02-26", "Município": "Laguna", "Localização na APABF": "Interno", "numero": 37, "Longitude": -48.78908, "Latitude": -28.5669 }, "geometry": { "type": "Point", "coordinates": [ 716264.077428529271856, 6838001.153781058266759 ] } },
{ "type": "Feature", "properties": { "fid": 3, "codigo": "PHA-015", "Código IPHAN": "SC4205704BAST00002", "Identificação": "Ponta do Galeão", "no_logradouro": "Ponta do Galeão.", "Síntese": "Sem síntese", "Data do cadastro": "2019-05-10", "Município": "Garopaba", "Localização na APABF": "Interno", "numero": 15, "Longitude": -48.59807, "Latitude": -28.03033 }, "geometry": { "type": "Point", "coordinates": [ 736136.944338726229034, 6897110.798228880390525 ] } },
{ "type": "Feature", "properties": { "fid": 4, "codigo": "PHA-009", "Código IPHAN": "SC4211900BAST00004", "Identificação": "Guarda do Embaú II", "no_logradouro": "Guarda do Embaú", "Síntese": "Sem síntese", "Data do cadastro": "2019-05-10", "Município": "Palhoça", "Localização na APABF": "Externo", "numero": 9, "Longitude": -48.58525, "Latitude": -27.90405 }, "geometry": { "type": "Point", "coordinates": [ 737674.010158624034375, 6911081.736229239962995 ] } },
{ "type": "Feature", "properties": { "fid": 5, "codigo": "PHA-012", "Código IPHAN": "SC4205704BAST00005", "Identificação": "Oficina lítica da Vigia II", "no_logradouro": "Morro da Vigia", "Síntese": "Sem síntese", "Data do cadastro": "2019-05-10", "Município": "Garopaba", "Localização na APABF": "Interno", "numero": 12, "Longitude": -48.6083, "Latitude": -28.01733 }, "geometry": { "type": "Point", "coordinates": [ 735158.962763297487982, 6898571.046389995142817 ] } },
{ "type": "Feature", "properties": { "fid": 6, "codigo": "PHA-017", "Código IPHAN": "SC4205704BAST00003", "Identificação": "Fazenda Garopaba 1", "no_logradouro": "Encantada", "Síntese": "Sem síntese", "Data do cadastro": "2019-05-10", "Município": "Garopaba", "Localização na APABF": "Interno", "numero": 17, "Longitude": -48.66155, "Latitude": -28.06914 }, "geometry": { "type": "Point", "coordinates": [ 729810.99017111165449, 6892931.015473405830562 ] } },
{ "type": "Feature", "properties": { "fid": 7, "codigo": "PHA-007", "Código IPHAN": "SC4211900BAST00010", "Identificação": "Ilha do Papagaio I", "no_logradouro": "Ilha do Papagaio.", "Síntese": "Sem síntese", "Data do cadastro": "2019-05-10", "Município": "Florianópolis", "Localização na APABF": "Externo", "numero": 7, "Longitude": -48.58061, "Latitude": -27.85533 }, "geometry": { "type": "Point", "coordinates": [ 738238.024816673481837, 6916471.744239130988717 ] } },
{ "type": "Feature", "properties": { "fid": 8, "codigo": "PHA-008", "Código IPHAN": "SC4211900BAST00011", "Identificação": "Ilha do Papagaio II", "no_logradouro": "Ilha do Papagaio.", "Síntese": "Sem síntese", "Data do cadastro": "2019-05-10", "Município": "Florianópolis", "Localização na APABF": "Externo", "numero": 8, "Longitude": -48.57873, "Latitude": -27.8567 }, "geometry": { "type": "Point", "coordinates": [ 738420.025191577035002, 6916316.809306377544999 ] } },
{ "type": "Feature", "properties": { "fid": 9, "codigo": "PHA-010", "Código IPHAN": "SC4211900BAST00012", "Identificação": "Guarda do Embaú III", "no_logradouro": "Guarda do Embaú.", "Síntese": "Sem síntese", "Data do cadastro": "2019-05-10", "Município": "Palhoça", "Localização na APABF": "Externo", "numero": 10, "Longitude": -48.5841, "Latitude": -27.90468 }, "geometry": { "type": "Point", "coordinates": [ 737785.959973520366475, 6911009.787497071549296 ] } },
{ "type": "Feature", "properties": { "fid": 10, "codigo": "PHA-004", "Código IPHAN": "SC4205407BAST00163", "Identificação": "Ilha Irmã do Meio I", "no_logradouro": "Ilha Irmã do Meio.", "Síntese": "Sem síntese", "Data do cadastro": "2019-05-10", "Município": "Florianópolis", "Localização na APABF": "Externo", "numero": 4, "Longitude": -48.52082, "Latitude": -27.8348 }, "geometry": { "type": "Point", "coordinates": [ 744172.945945911225863, 6918629.752202205359936 ] } },
{ "type": "Feature", "properties": { "fid": 11, "codigo": "PHA-041", "Código IPHAN": "SC4208807BAST00010", "Identificação": "Morro Grande I (atualização CNSA SC00666)", "no_logradouro": "Sem informação", "Síntese": "Morro Grande I (atualização CNSA SC00666), localizado(a) no estado de Santa Catarina, cidade(s) de Jaguaruna, é um Bem Arqueológico, do tipo Sítio.\nSambaqui tardio registrado por Rohr (1969) localizado às margens da rodovia de acesso à praia de Campo Bom. Apresenta sedimento escuro com muitas conchas, vestígios faunísticos e líticos polidos, brutos e lascados.", "Data do cadastro": "2021-07-16", "Município": "Jaguaruna", "Localização na APABF": "Interno", "numero": 41, "Longitude": -49.08482, "Latitude": -28.69728 }, "geometry": { "type": "Point", "coordinates": [ 687098.01210660347715, 6824049.977502619847655 ] } },
{ "type": "Feature", "properties": { "fid": 12, "codigo": "PHA-018", "Código IPHAN": "SC4205704BAST00007", "Identificação": "Capão de Garopaba", "no_logradouro": "Sem informação", "Síntese": "Capão de Garopaba, também conhecido(a) como GRB 001, localizado(a) no estado de Santa Catarina, cidade(s) de Garopaba, é um Bem Arqueológico, do tipo Sítio.", "Data do cadastro": "2021-01-28", "Município": "Garopaba", "Localização na APABF": "Interno", "numero": 18, "Longitude": -48.62843, "Latitude": -28.08228 }, "geometry": { "type": "Point", "coordinates": [ 733039.000041150138713, 6891411.999998761340976 ] } },
{ "type": "Feature", "properties": { "fid": 13, "codigo": "PHA-023", "Código IPHAN": "SC4205704BAST00001", "Identificação": "SC-DUN-001", "no_logradouro": "Estrada Geral para Praia do Ouvidor", "Síntese": "SC-DUN-001, também conhecido(a) como Ponta Sul, localizado(a) no estado de Santa Catarina, cidade(s) de Garopaba, é um Bem Arqueológico, do tipo Sítio, com estado de conservação Regular e de preservação Pouco Alterado.", "Data do cadastro": "2019-04-25", "Município": "Garopaba", "Localização na APABF": "Interno", "numero": 23, "Longitude": -48.63508, "Latitude": -28.10777 }, "geometry": { "type": "Point", "coordinates": [ 732330.000045418972149, 6888600.000098856166005 ] } },
{ "type": "Feature", "properties": { "fid": 14, "codigo": "PHA-022", "Código IPHAN": "SC4205704BAST00008", "Identificação": "SC-DUN-002", "no_logradouro": "Sem informação", "Síntese": "Ofícinas Líticas de polimento em Blocos de Diabásio, apresentam depressões circulares (bacias). Localizadas na faixa da praia do Ouvidor, na chamada Ponta Norte. Associado aos grupos Sambaquianos do litoral catarinense.", "Data do cadastro": "2021-05-07", "Município": "Garopaba", "Localização na APABF": "Interno", "numero": 22, "Longitude": -48.63515, "Latitude": -28.10253 }, "geometry": { "type": "Point", "coordinates": [ 732335.005814113421366, 6889180.035573543980718 ] } },
{ "type": "Feature", "properties": { "fid": 15, "codigo": "PHA-043", "Código IPHAN": "SC4208807BAST00011", "Identificação": "Morro Grande II (atualização CNSA SC00667)", "no_logradouro": "Sem informação", "Síntese": "Morro Grande II (atualização CNSA SC00667), também conhecido(a) como SC-J-28 (Rohr, 1969:25), Jaguaruna 20 (Rohr, 1984:20), localizado(a) no estado de Santa Catarina, cidade(s) de Jaguaruna, é um Bem Arqueológico, do tipo Sítio.\nSambaqui tardio registrado por Rohr (1969) localizado às margens da rodovia de acesso à praia de Campo Bom. Apresenta sedimento escuro com muitas conchas, vestígios faunísticos e líticos polidos, brutos e lascados.", "Data do cadastro": "2021-07-16", "Município": "Jaguaruna", "Localização na APABF": "Interno", "numero": 43, "Longitude": -49.08418, "Latitude": -28.70151 }, "geometry": { "type": "Point", "coordinates": [ 687153.030336676980369, 6823580.979920770041645 ] } },
{ "type": "Feature", "properties": { "fid": 16, "codigo": "PHA-038", "Código IPHAN": "SC4209409BAST00008", "Identificação": "Aldabi", "no_logradouro": "Sem informação", "Síntese": "No Cabo de Santa Marta.", "Data do cadastro": "2021-12-13", "Município": "Laguna", "Localização na APABF": "Interno", "numero": 38, "Longitude": -48.82227, "Latitude": -28.61067 }, "geometry": { "type": "Point", "coordinates": [ 712928.975614589871839, 6833209.610616714693606 ] } },
{ "type": "Feature", "properties": { "fid": 17, "codigo": "PHA-042", "Código IPHAN": "SC4208807BAST00012", "Identificação": "Buenos Aires", "no_logradouro": "Sem informação", "Síntese": "Perto do Cabo de Santa Marta. Coordenadas reportadas pela fonte 6.", "Data do cadastro": "2021-12-13", "Município": "Jaguaruna", "Localização na APABF": "Interno", "numero": 42, "Longitude": -49.01667, "Latitude": -28.7 }, "geometry": { "type": "Point", "coordinates": [ 693752.670596382580698, 6823640.258081657811999 ] } },
{ "type": "Feature", "properties": { "fid": 18, "codigo": "PHA-029", "Código IPHAN": "SC4207304BAST00015", "Identificação": "Costão da Praia dos Amores", "no_logradouro": "Sem informação", "Síntese": "Sambaqui localizado no costão sul da Praia dos Amores, localizado(a) no estado de Santa Catarina, cidade(s) de Imbituba, é um Bem Arqueológico, do tipo Sítio. São dois os sambaquis nessa praia: um no costão norte e outro no costão sul. Portanto, este registro trata-se do sambaqui no costão sul, o maior entre os dois, ocupando toda a planície do promontório. Acima do mesmo, encontra-se casa de vigia da comunidade pescadora local. Registro feito por Isabela Müller, a partir de denúncia/vistoria no processo 01510.000223/2022-01.", "Data do cadastro": "2023-03-02", "Município": "Imbituba", "Localização na APABF": "Interno", "numero": 29, "Longitude": -48.6577, "Latitude": -28.19278 }, "geometry": { "type": "Point", "coordinates": [ 729925.00384873803705, 6879221.006284805946052 ] } },
{ "type": "Feature", "properties": { "fid": 19, "codigo": "PHA-030", "Código IPHAN": "SC4207304BAST00014", "Identificação": "Sambaqui da Praia dos Amores", "no_logradouro": "Sem informação", "Síntese": "Sambaqui localizado no costão norte da Praia dos Amores, localizado(a) no estado de Santa Catarina, cidade(s) de Imbituba, é um Bem Arqueológico, do tipo Sítio. A praia dos Amores possui dois sítios, um no costão norte e outro no costão sul, e este trata-se do sítio no costão norte. Muito impactado e possivelmente será completamente destruído pela ação das marés especialmente. Encontra-se embaixo de casa/rancho de pescador e a trilha da praia da Ribanceira à Praia dos Amores passa por cima do mesmo.", "Data do cadastro": "2023-03-02", "Município": "Imbituba", "Localização na APABF": "Interno", "numero": 30, "Longitude": -48.65922, "Latitude": -28.19313 }, "geometry": { "type": "Point", "coordinates": [ 729775.000116556882858, 6879185.010508539155126 ] } },
{ "type": "Feature", "properties": { "fid": 20, "codigo": "PHA-020", "Código IPHAN": "SC4205704BAST00018", "Identificação": "Costão Sul da Barra", "no_logradouro": "Sem informação", "Síntese": "Costão Sul da Barra, localizado(a) no estado de Santa Catarina, cidade(s) de Garopaba, é um Bem Arqueológico, do tipo Sítio.", "Data do cadastro": "2023-01-17", "Município": "Garopaba", "Localização na APABF": "Interno", "numero": 20, "Longitude": -48.63193, "Latitude": -28.09028 }, "geometry": { "type": "Point", "coordinates": [ 732677.47515939513687, 6890531.735131939873099 ] } },
{ "type": "Feature", "properties": { "fid": 21, "codigo": "PHA-016", "Código IPHAN": "SC4205704BAST00021", "Identificação": "Costão da Praia da Silveira", "no_logradouro": "Sem informação", "Síntese": "Sambaqui localizado entre o Costão da Praia da Silveira e a desembocadura da lagoa do Silveira, localizado(a) no estado de Santa Catarina, cidade(s) de Garopaba, é um Bem Arqueológico, do tipo Sítio. Extenso sítio impactado pela ação das água e pelas trilhas de acesso à praia. Limitado pelo costão, pelo mar e pelo canal que desemboca no mar. Registrado por Isabela Müller. Processo relacionado 01510.000223/2022-01 (identificado a partir de vistoria demandada por denúncia).", "Data do cadastro": "2023-03-01", "Município": "Garopaba", "Localização na APABF": "Interno", "numero": 16, "Longitude": -48.60927, "Latitude": -28.04528 }, "geometry": { "type": "Point", "coordinates": [ 735003.000839616986923, 6895476.006087614223361 ] } },
{ "type": "Feature", "properties": { "fid": 22, "codigo": "PHA-044", "Código IPHAN": "SC4207007BAST00004", "Identificação": "Sambaqui da Lagoa dos Freitas II", "no_logradouro": "Sem informação", "Síntese": "Presença de materiais malacológico em superfície, caracterizando-se como um sítio arqueológico do tipo Sambaqui associados com grupos de pescadores-caçadores-coletores pré-coloniais.", "Data do cadastro": "2022-03-30", "Município": "Balneário Rincão", "Localização na APABF": "Interno", "numero": 44, "Longitude": -49.21935, "Latitude": -28.80664 }, "geometry": { "type": "Point", "coordinates": [ 673771.967551082605496, 6812134.972132485359907 ] } },
{ "type": "Feature", "properties": { "fid": 23, "codigo": "PHA-033", "Código IPHAN": "SC4207304BAST00017", "Identificação": "Costão da Praia da Vila", "no_logradouro": "Sem informação", "Síntese": "Sambaqui e oficinas líticas no Costão da Praia da Vila, localizado(a) no estado de Santa Catarina, cidade(s) de Imbituba, é um Bem Arqueológico, do tipo Sítio. Encontra-se em promontório em direção ao mar e, a sua frente, existe uma ilha para a qual muitas pessoas atravessam a nado. A associação entre sambaquis e oficinas líticas é comum no litoral catarinense. O sítio, especialmente na área do sambaqui é bastante impactado pelas \"trilhas\" e \"caminhos\" por onde as pessoas andam em grande volume, gerando voçorocas. Registro feito por Isabela Müller, em virtude de denúncia/vistoria no processo 01510.000223/2022-01.", "Data do cadastro": "2023-03-02", "Município": "Imbituba", "Localização na APABF": "Interno", "numero": 33, "Longitude": -48.65304, "Latitude": -28.23961 }, "geometry": { "type": "Point", "coordinates": [ 730282.008343417430297, 6874022.001491915434599 ] } },
{ "type": "Feature", "properties": { "fid": 24, "codigo": "PHA-014", "Código IPHAN": "SC4205704BAST00020", "Identificação": "Praia Central de Garopaba", "no_logradouro": "Sem informação", "Síntese": "Tratam-se de amoladores e polidores localizados no canto sul da Praia Central de Garopaba, localizado(a) no estado de Santa Catarina, cidade(s) de Garopaba, é um Bem Arqueológico, do tipo Sítio. O sítio já se encontra impactado por muro e construções à beira do costão e entende-se que outros vestígios possam já ter se perdido com o passar do tempo e avanço desordenado do núcleo urbano. Relaciona-se espacialmente ao núcleo histórico urbano do município e ao sítio Armação de Garopaba. Registro feito por Isabela Müller. Processo 01510.000223/2022-01.", "Data do cadastro": "2023-03-01", "Município": "Garopaba", "Localização na APABF": "Externo", "numero": 14, "Longitude": -48.61353, "Latitude": -28.02308 }, "geometry": { "type": "Point", "coordinates": [ 734632.00408442132175, 6897944.003806493245065 ] } },
{ "type": "Feature", "properties": { "fid": 25, "codigo": "PHA-003", "Código IPHAN": "SC4205407BAST00049", "Identificação": "Pântano do Sul V", "no_logradouro": "Joaquim Neves", "Síntese": "Pântano do Sul V, também conhecido(a) como PTS V; Oficina Lítica Praia do Pântano do Sul III, SC-LF-100, Praia do Pântano do Sul III, Pântano , localizado(a) no estado de Santa Catarina, cidade(s) de Florianópolis, é um Bem Arqueológico, do tipo Sítio, com estado de conservação Regular e de preservação Pouco Alterado.", "Data do cadastro": "2019-03-29", "Município": "Florianópolis", "Localização na APABF": "Externo", "numero": 3, "Longitude": -48.50737, "Latitude": -27.78594 }, "geometry": { "type": "Point", "coordinates": [ 745608.191471809870563, 6924018.456691537052393 ] } },
{ "type": "Feature", "properties": { "fid": 26, "codigo": "PHA-001", "Código IPHAN": "SC4205407BAST00071", "Identificação": "Pântano do Sul III", "no_logradouro": "Caminho do Rei", "Síntese": "Pântano do Sul III, localizado(a) no estado de Santa Catarina, cidade(s) de Florianópolis, é um Bem Arqueológico, do tipo Sítio, com estado de conservação Regular e de preservação Pouco Alterado.", "Data do cadastro": "2019-04-10", "Município": "Florianópolis", "Localização na APABF": "Externo", "numero": 1, "Longitude": -48.50676, "Latitude": -27.78382 }, "geometry": { "type": "Point", "coordinates": [ 745673.175238719559275, 6924251.642753323540092 ] } },
{ "type": "Feature", "properties": { "fid": 27, "codigo": "PHA-002", "Código IPHAN": "SC4205407BAST00072", "Identificação": "Pântano do Sul IV", "no_logradouro": "Servidão Sinfrônio José de Souza", "Síntese": "Pântano do Sul IV, localizado(a) no estado de Santa Catarina, cidade(s) de Florianópolis, é um Bem Arqueológico, do tipo Sítio, com estado de conservação Regular e de preservação Pouco Alterado.", "Data do cadastro": "2019-04-10", "Município": "Florianópolis", "Localização na APABF": "Externo", "numero": 2, "Longitude": -48.5074, "Latitude": -27.78585 }, "geometry": { "type": "Point", "coordinates": [ 745605.624958099098876, 6924028.044198483228683 ] } },
{ "type": "Feature", "properties": { "fid": 28, "codigo": "PHA-031", "Código IPHAN": "SC4207304BAST00016", "Identificação": "Praia d'Água", "no_logradouro": "Sem informação", "Síntese": "Trata-se de sambaqui na Praia d'Água, localizado(a) no estado de Santa Catarina, cidade(s) de Imbituba, é um Bem Arqueológico, do tipo Sítio. O sambaqui encontra-se no final da trilha que dá acesso à praia, embaixo da placa de sinalização da mesma.", "Data do cadastro": "2023-03-02", "Município": "Imbituba", "Localização na APABF": "Interno", "numero": 31, "Longitude": -48.66608, "Latitude": -28.20657 }, "geometry": { "type": "Point", "coordinates": [ 729073.008931453921832, 6877708.001323857344687 ] } },
{ "type": "Feature", "properties": { "fid": 29, "codigo": "PHA-019", "Código IPHAN": "SC4205704BAST00014", "Identificação": "Pontal da barra", "no_logradouro": "Sem informação", "Síntese": "Pontal da barra, localizado(a) no estado de Santa Catarina, cidade(s) de Garopaba, é um Bem Arqueológico, do tipo Sítio.", "Data do cadastro": "2023-01-17", "Município": "Garopaba", "Localização na APABF": "Interno", "numero": 19, "Longitude": -48.631, "Latitude": -28.09 }, "geometry": { "type": "Point", "coordinates": [ 732769.424380555283278, 6890561.133339908905327 ] } },
{ "type": "Feature", "properties": { "fid": 30, "codigo": "PHA-024", "Código IPHAN": "SC4205704BAST00015", "Identificação": "Portinho do Ouvidor", "no_logradouro": "Sem informação", "Síntese": "Portinho do Ouvidor, localizado(a) no estado de Santa Catarina, cidade(s) de Garopaba, é um Bem Arqueológico, do tipo Sítio.", "Data do cadastro": "2023-01-17", "Município": "Garopaba", "Localização na APABF": "Interno", "numero": 24, "Longitude": -48.632, "Latitude": -28.109 }, "geometry": { "type": "Point", "coordinates": [ 732630.121468865778297, 6888457.282368471845984 ] } },
{ "type": "Feature", "properties": { "fid": 31, "codigo": "PHA-025", "Código IPHAN": "SC4205704BAST00016", "Identificação": "Praia do Nego", "no_logradouro": "Sem informação", "Síntese": "Praia do Nego, localizado(a) no estado de Santa Catarina, cidade(s) de Garopaba, é um Bem Arqueológico, do tipo Sítio.", "Data do cadastro": "2023-01-17", "Município": "Garopaba", "Localização na APABF": "Interno", "numero": 25, "Longitude": -48.632, "Latitude": -28.111 }, "geometry": { "type": "Point", "coordinates": [ 732625.802598612615839, 6888235.622593713924289 ] } },
{ "type": "Feature", "properties": { "fid": 32, "codigo": "PHA-026", "Código IPHAN": "SC4207304BAST00012", "Identificação": "Praia do Rosa Sul", "no_logradouro": "Sem informação", "Síntese": "Praia do Rosa Sul, localizado(a) no estado de Santa Catarina, cidade(s) de Imbitubakj, é um Bem Arqueológico, do tipo Sítio.", "Data do cadastro": "2023-01-17", "Município": "Imbituba", "Localização na APABF": "Interno", "numero": 26, "Longitude": -48.639, "Latitude": -28.139 }, "geometry": { "type": "Point", "coordinates": [ 731877.608878340572119, 6885145.772265148349106 ] } },
{ "type": "Feature", "properties": { "fid": 33, "codigo": "PHA-011", "Código IPHAN": "SC4205704BAST00017", "Identificação": "Casqueiro", "no_logradouro": "Sem informação", "Síntese": "Casqueiro, localizado(a) no estado de Santa Catarina, cidade(s) de Garopaba, é um Bem Arqueológico, do tipo Sítio.", "Data do cadastro": "2023-01-17", "Município": "Garopaba", "Localização na APABF": "Interno", "numero": 11, "Longitude": -48.609, "Latitude": -28.017 }, "geometry": { "type": "Point", "coordinates": [ 735090.643627147306688, 6898609.417963057756424 ] } },
{ "type": "Feature", "properties": { "fid": 34, "codigo": "PHA-021", "Código IPHAN": "SC4205704BAST00019", "Identificação": "Costão do meio", "no_logradouro": "Sem informação", "Síntese": "Costão do meio, localizado(a) no estado de Santa Catarina, cidade(s) de Garopaba, é um Bem Arqueológico, do tipo Sítio.", "Data do cadastro": "2023-01-17", "Município": "Garopaba", "Localização na APABF": "Interno", "numero": 21, "Longitude": -48.63267, "Latitude": -28.09215 }, "geometry": { "type": "Point", "coordinates": [ 732600.150015363120474, 6890325.647969740442932 ] } },
{ "type": "Feature", "properties": { "fid": 35, "codigo": "PHA-027", "Código IPHAN": "SC4207304BAST00013", "Identificação": "Costão da Praia do Luz", "no_logradouro": "Sem informação", "Síntese": "Trata-se de sambaqui no Costão Norte da Praia do Luz, localizado(a) no estado de Santa Catarina, cidade(s) de Imbituba, é um Bem Arqueológico, do tipo Sítio. O sambaqui está encoberto pela vegetação de restinga/costão, e é impactado pela ação das marés e trilha que passa pelo mesmo. Registro feito por Isabela Müller, via vistoria de denúncia feita no processo relacionado 01510.000223/2022-01.", "Data do cadastro": "2023-03-02", "Município": "Imbituba", "Localização na APABF": "Interno", "numero": 27, "Longitude": -48.64519, "Latitude": -28.14391 }, "geometry": { "type": "Point", "coordinates": [ 731259.003698991844431, 6884613.007208151742816 ] } },
{ "type": "Feature", "properties": { "fid": 36, "codigo": "PHA-013", "Código IPHAN": "SC4205704BAST00004", "Identificação": "Oficina lítica da Vigia I", "no_logradouro": "Morro da Vigia", "Síntese": "Trata-se de sítio contendo oficinas líticas registrado no ano de 2014 (código CNSA SC01515). Após ações fiscalizatórias do IPHAN, foram identificados novos polidores na área de desembocadura do riacho da Vigia (UTM 22 J 734987.00 m E / 6898331.00 m S) e um sambaqui contíguo à área das oficinas no costão (UTM 22J 734929.00 m E  6898338.00 m S). Atualização por Isabela Muller. Processo relacionado 01510.000223/2022-01.", "Data do cadastro": "2019-05-10", "Município": "Garopaba", "Localização na APABF": "Interno", "numero": 13, "Longitude": -48.61041, "Latitude": -28.01946 }, "geometry": { "type": "Point", "coordinates": [ 734947.022412998368964, 6898340.042769089341164 ] } },
{ "type": "Feature", "properties": { "fid": 37, "codigo": "PHA-036", "Código IPHAN": "SC4209409BAST00011", "Identificação": "Canto da Lagoa II", "no_logradouro": "Sem informação", "Síntese": "Sambaqui localizado em área de transição entre cordões arenosos e terreno alagadiço. Apresenta contorno elíptico e pequena altura.", "Data do cadastro": "2022-10-07", "Município": "Laguna", "Localização na APABF": "Interno", "numero": 36, "Longitude": -48.79535, "Latitude": -28.54229 }, "geometry": { "type": "Point", "coordinates": [ 715700.546484465245157, 6840739.897694041952491 ] } },
{ "type": "Feature", "properties": { "fid": 38, "codigo": "PHA-028", "Código IPHAN": "SC4207304BAST00005", "Identificação": "Barra da Lagoa de Ibiraquera", "no_logradouro": "Estrada geral da barra", "Síntese": "Barra da Lagoa de Ibiraquera, localizado(a) no estado de Santa Catarina, cidade(s) de Imbitubakj, é um Bem Arqueológico, do tipo Sítio.\nSítio localizado junto à praia, ao lado da Barra da Lagoa, o sítio tem proximadamente 100m de diâmetro. É composto por um sambaqui e uma oficina de polimento circular.\nFicha atualizada em 18/03/2021 por Ágatha Idalgo Bender Ludwig, após vistoria realizada em 03/03/2021 no âmbito do processo 01510.000005/2021-88.", "Data do cadastro": "2021-03-26", "Município": "Imbituba", "Localização na APABF": "Interno", "numero": 28, "Longitude": -48.64732, "Latitude": -28.1498 }, "geometry": { "type": "Point", "coordinates": [ 731037.040652328985743, 6883965.010208684951067 ] } },
{ "type": "Feature", "properties": { "fid": 39, "codigo": "PHA-034", "Código IPHAN": "SC4207304BAST00008", "Identificação": "Dunas da Guaiúba", "no_logradouro": "Sem informação", "Síntese": "Dunas da Guaiúba, localizado(a) no estado de Santa Catarina, cidade(s) de Imbitubakj, é um Bem Arqueológico, do tipo Sítio.\nTrata-se de sítio cerâmico, com características guarani. O material arqueológico está espalhado em superfície, principalmente nos caminhos formados por passagem de pedestres e possivelmente motos e quadricíclos. Não foi realizada delimitação.", "Data do cadastro": "2022-03-11", "Município": "Imbituba", "Localização na APABF": "Interno", "numero": 34, "Longitude": -48.71388, "Latitude": -28.30069 }, "geometry": { "type": "Point", "coordinates": [ 724183.226568710757419, 6867366.796794597059488 ] } },
{ "type": "Feature", "properties": { "fid": 40, "codigo": "PHA-032", "Código IPHAN": "SC4207304BAST00011", "Identificação": "Praia D'Água", "no_logradouro": "Sem informação", "Síntese": "O sítio arqueológico Praia D'Água, trata-se de sítio do tipo sambaqui, localizado(a) no estado de Santa Catarina, cidade(s) de Imbituba, é um Bem Arqueológico.", "Data do cadastro": "2022-11-04", "Município": "Imbituba", "Localização na APABF": "Interno", "numero": 32, "Longitude": -48.66585, "Latitude": -28.20661 }, "geometry": { "type": "Point", "coordinates": [ 729095.263943881378509, 6877703.695113958790898 ] } },
{ "type": "Feature", "properties": { "fid": 41, "codigo": "PHA-040", "Código IPHAN": "SC4208807BAST00008", "Identificação": "Garopaba do Sul I", "no_logradouro": "Sem informação", "Síntese": "Sambaqui de grande porte situado entre a Lagoa Garopaba do Sul e o Oceano Atlântico, com área de aproximadamente 7,5 hectares e altura de aproximadamente 20 metros.", "Data do cadastro": "2020-11-19", "Município": "Jaguaruna", "Localização na APABF": "Interno", "numero": 40, "Longitude": -48.8929, "Latitude": -28.62553 }, "geometry": { "type": "Point", "coordinates": [ 705992.012229897896759, 6831686.007856575772166 ] } },
{ "type": "Feature", "properties": { "fid": 42, "codigo": "PHA-039", "Código IPHAN": "SC4209409BAST00017", "Identificação": "Costão do Ilhote", "no_logradouro": "Sem informação", "Síntese": "Costão do Ilhote, localizado(a) no estado de Santa Catarina, cidade(s) de Laguna, é um Bem Arqueológico, do tipo Sítio, localizado em promontório entre as praias do Cardoso e da Cigana que agrega o sambaqui (que já era conhecido na literatura arqueológica como Costão do Ilhote), e agora, com o registro, concentra também as oficinas líticas associadas ao promontório.O sítio apresenta uma configuração muito similar com outros ao longo do litoral catarinense que se trata de sambaqui com oficinas líticas em promontório.", "Data do cadastro": "2025-02-24", "Município": "Laguna", "Localização na APABF": "Interno", "numero": 39, "Longitude": -48.8373, "Latitude": -28.61158 }, "geometry": { "type": "Point", "coordinates": [ 711456.970457881572656, 6833134.959125703200698 ] } },
{ "type": "Feature", "properties": { "fid": 43, "codigo": "PHA-005", "Código IPHAN": "SC4205407BAST00196", "Identificação": "SC Naufragados 01", "no_logradouro": "Baldicero Filomeno", "Síntese": "SC Naufragados 01, localizado(a) no estado de Santa Catarina, cidade(s) de Florianópolis, é um Bem Arqueológico, do tipo Sítio, com estado de conservação Regular e de preservação Pouco Alterado.", "Data do cadastro": "2019-06-06", "Município": "Florianópolis", "Localização na APABF": "Externo", "numero": 5, "Longitude": -48.57079, "Latitude": -27.83556 }, "geometry": { "type": "Point", "coordinates": [ 739248.380053399014287, 6918643.610108390450478 ] } },
{ "type": "Feature", "properties": { "fid": 44, "codigo": "PHA-006", "Código IPHAN": "SC4205407BAST00192", "Identificação": "Naufragados I", "no_logradouro": "Baldicero Filomeno", "Síntese": "Naufragados I, também conhecido(a) como Naufragados II (Fossari 1989, Bettanin 2008, Sophiati 2010)., localizado(a) no estado de Santa Catarina, cidade(s) de Florianópolis, é um Bem Arqueológico, do tipo Sítio, com estado de conservação Regular e de preservação Pouco Alterado.", "Data do cadastro": "2019-06-05", "Município": "Florianópolis", "Localização na APABF": "Externo", "numero": 6, "Longitude": -48.55977, "Latitude": -27.83568 }, "geometry": { "type": "Point", "coordinates": [ 740333.430047663627192, 6918609.390110491774976 ] } }
]
}
